{"version": 0.6, "generator": "Overpass API 0.7.62.4 2390de5a", "osm3s": {"timestamp_osm_base": "2025-01-13T19:40:36Z", "copyright": "The data included in this document is from www.openstreetmap.org. The data is made available under ODbL."}, "elements": [{"type": "node", "id": 139284849, "lat": 64.2295846, "lon": 27.7262432, "tags": {"source": "survey"}}, {"type": "node", "id": 139284855, "lat": 64.2295167, "lon": 27.7260875, "tags": {"source": "survey"}}, {"type": "node", "id": 139284861, "lat": 64.2297399, "lon": 27.7255725, "tags": {"source": "survey"}}, {"type": "node", "id": 139284866, "lat": 64.2299493, "lon": 27.7260528, "tags": {"source": "survey"}}, {"type": "node", "id": 139284873, "lat": 64.2297262, "lon": 27.7265678, "tags": {"source": "survey"}}, {"type": "node", "id": 140085881, "lat": 64.2213007, "lon": 27.7239569, "tags": {"created_by": "JOSM"}}, {"type": "node", "id": 140085887, "lat": 64.2214578, "lon": 27.7241151}, {"type": "node", "id": 140085891, "lat": 64.2212232, "lon": 27.7252808}, {"type": "node", "id": 140085893, "lat": 64.2210696, "lon": 27.7251225, "tags": {"created_by": "JOSM"}}, {"type": "node", "id": 148883245, "lat": 64.2208465, "lon": 27.7247383, "tags": {"addr:city": "Kajaani", "addr:housenumber": "2a", "addr:postcode": "87100", "addr:street": "L\u00f6nnrotinkatu", "amenity": "police", "name": "Kajaanin poliisiasema", "operator": "Oulun poliisilaitos"}}, {"type": "node", "id": 148883354, "lat": 64.2290875, "lon": 27.7269052, "tags": {"entrance": "yes"}}, {"type": "node", "id": 248138063, "lat": 64.2251432, "lon": 27.7288016, "tags": {"entrance": "yes"}}, {"type": "node", "id": 248138064, "lat": 64.2269672, "lon": 27.7249377, "tags": {"addr:city": "Kajaani", "addr:country": "FI", "addr:housenumber": "30", "addr:postcode": "87100", "addr:street": "Pohjolankatu", "amenity": "fuel", "brand": "Neste", "brand:wikidata": "Q616376", "fuel:diesel": "yes", "fuel:e10": "yes", "fuel:octane_98": "yes", "name": "Neste Express Kajaani Pohjolankatu", "opening_hours": "24/7", "operator": "Neste", "ref": "767", "self_service": "yes", "website": "https://www.neste.fi/asema/neste-express-kajaani-pohjolankatu"}}, {"type": "node", "id": 248138065, "lat": 64.2273767, "lon": 27.7231006, "tags": {"amenity": "fuel", "brand": "St1", "brand:wikidata": "Q7592214", "name": "St1", "opening_hours": "24/7"}}, {"type": "node", "id": 248138066, "lat": 64.2205032, "lon": 27.7470731}, {"type": "node", "id": 252849325, "lat": 64.2225059, "lon": 27.7358789}, {"type": "node", "id": 252849339, "lat": 64.2232208, "lon": 27.7366563}, {"type": "node", "id": 252849340, "lat": 64.2225975, "lon": 27.7372388}, {"type": "node", "id": 252849341, "lat": 64.2222914, "lon": 27.7364851}, {"type": "node", "id": 252849342, "lat": 64.2243604, "lon": 27.7352899}, {"type": "node", "id": 252849343, "lat": 64.2240706, "lon": 27.735792}, {"type": "node", "id": 252849344, "lat": 64.2243686, "lon": 27.7365523}, {"type": "node", "id": 252849345, "lat": 64.2245421, "lon": 27.7361988}, {"type": "node", "id": 252849346, "lat": 64.2281629, "lon": 27.727004}, {"type": "node", "id": 252849347, "lat": 64.2283364, "lon": 27.7264997}, {"type": "node", "id": 252849388, "lat": 64.2284025, "lon": 27.7267203}, {"type": "node", "id": 252849389, "lat": 64.2281855, "lon": 27.7271161}, {"type": "node", "id": 252849390, "lat": 64.225653, "lon": 27.7292698}, {"type": "node", "id": 252849391, "lat": 64.225772, "lon": 27.7294136}, {"type": "node", "id": 252849394, "lat": 64.2250545, "lon": 27.7305228}, {"type": "node", "id": 252849395, "lat": 64.2248447, "lon": 27.730944}, {"type": "node", "id": 252849396, "lat": 64.2249873, "lon": 27.7310004}, {"type": "node", "id": 252849397, "lat": 64.2243608, "lon": 27.7323311}, {"type": "node", "id": 252849399, "lat": 64.2242816, "lon": 27.7321285}, {"type": "node", "id": 252849404, "lat": 64.2258361, "lon": 27.7288774}, {"type": "node", "id": 252849409, "lat": 64.2264298, "lon": 27.727632}, {"type": "node", "id": 252849604, "lat": 64.2326317, "lon": 27.7399749, "tags": {"created_by": "JOSM"}}, {"type": "node", "id": 252849605, "lat": 64.2328409, "lon": 27.7400707, "tags": {"created_by": "JOSM"}}, {"type": "node", "id": 252849606, "lat": 64.2327851, "lon": 27.7406523, "tags": {"created_by": "JOSM"}}, {"type": "node", "id": 252849607, "lat": 64.2325725, "lon": 27.7405951, "tags": {"created_by": "JOSM"}}, {"type": "node", "id": 253897563, "lat": 64.2211402, "lon": 27.7251922}, {"type": "node", "id": 253897657, "lat": 64.2330048, "lon": 27.7294788}, {"type": "node", "id": 253897658, "lat": 64.2331615, "lon": 27.7295266}, {"type": "node", "id": 253897659, "lat": 64.2331043, "lon": 27.7312028}, {"type": "node", "id": 253897660, "lat": 64.2329147, "lon": 27.7314717, "tags": {"created_by": "JOSM"}}, {"type": "node", "id": 254053045, "lat": 64.2213381, "lon": 27.7421676, "tags": {"addr:city": "Kajaani", "addr:country": "FI", "addr:housenumber": "7", "addr:postcode": "87100", "addr:street": "Niskantie", "amenity": "fuel", "brand": "Neste", "brand:wikidata": "Q616376", "fuel:diesel": "yes", "fuel:octane_95": "yes", "fuel:octane_98": "yes", "name": "Neste Express Kajaani Koskiportti", "ref": "105", "self_service": "yes", "website": "https://asemat.neste.fi/neste-express-kajaani-koskiportti"}}, {"type": "node", "id": 254053187, "lat": 64.2179642, "lon": 27.7431706}, {"type": "node", "id": 254053188, "lat": 64.2188523, "lon": 27.743169}, {"type": "node", "id": 254053189, "lat": 64.2189272, "lon": 27.745148}, {"type": "node", "id": 254053190, "lat": 64.2183365, "lon": 27.745203}, {"type": "node", "id": 254053191, "lat": 64.2181365, "lon": 27.7438319}, {"type": "node", "id": 254053192, "lat": 64.217945, "lon": 27.743822}, {"type": "node", "id": 254053472, "lat": 64.2205055, "lon": 27.7392056}, {"type": "node", "id": 262301443, "lat": 64.225531, "lon": 27.7325442, "tags": {"addr:housenumber": "16", "addr:street": "Kauppakatu", "amenity": "bank", "brand": "Danske Bank", "brand:wikidata": "Q1636974", "brand:wikipedia": "en:Danske Bank", "name": "Danske Bank"}}, {"type": "node", "id": 262301952, "lat": 64.2213782, "lon": 27.7240356, "tags": {"created_by": "JOSM"}}, {"type": "node", "id": 268394230, "lat": 64.2165883, "lon": 27.7102452}, {"type": "node", "id": 268394231, "lat": 64.2166454, "lon": 27.711868}, {"type": "node", "id": 268394232, "lat": 64.216508, "lon": 27.7118935}, {"type": "node", "id": 268394233, "lat": 64.2164511, "lon": 27.7102707}, {"type": "node", "id": 268394235, "lat": 64.2165917, "lon": 27.711878}, {"type": "node", "id": 268394245, "lat": 64.2162538, "lon": 27.7103453}, {"type": "node", "id": 268394257, "lat": 64.2170791, "lon": 27.7088747}, {"type": "node", "id": 268394258, "lat": 64.2172595, "lon": 27.7132431}, {"type": "node", "id": 268394260, "lat": 64.2170222, "lon": 27.7088871}, {"type": "node", "id": 268394759, "lat": 64.2296863, "lon": 27.7264765}, {"type": "node", "id": 268394760, "lat": 64.2299095, "lon": 27.7259615}, {"type": "node", "id": 288593469, "lat": 64.226445, "lon": 27.7343409}, {"type": "node", "id": 442849884, "lat": 64.2208746, "lon": 27.7250867, "tags": {"amenity": "bicycle_parking"}}, {"type": "node", "id": 442878210, "lat": 64.2203285, "lon": 27.7250465}, {"type": "node", "id": 442878211, "lat": 64.2209143, "lon": 27.7256462}, {"type": "node", "id": 442878212, "lat": 64.2202736, "lon": 27.7253301}, {"type": "node", "id": 442878213, "lat": 64.2208593, "lon": 27.7259299}, {"type": "node", "id": 444724778, "lat": 64.2263824, "lon": 27.7320196, "tags": {"addr:city": "Kajaani", "addr:country": "FI", "amenity": "fast_food", "cuisine": "kebab;pizza", "name": "Stadin Chili", "opening_hours": "Mo-Th 11:00-22:00; Fr 11:00-04:30; Sa 12:00-04:30; Su 12:00-22:00", "website": "https://kajaanin-stadin-chili-kebab-pizza.business.site"}}, {"type": "node", "id": 444724789, "lat": 64.2263479, "lon": 27.732544}, {"type": "node", "id": 444724790, "lat": 64.2263099, "lon": 27.732608}, {"type": "node", "id": 444724791, "lat": 64.2265062, "lon": 27.7330954}, {"type": "node", "id": 444724792, "lat": 64.2265411, "lon": 27.7330209}, {"type": "node", "id": 444724796, "lat": 64.2264469, "lon": 27.7324485}, {"type": "node", "id": 444724802, "lat": 64.2265908, "lon": 27.7330655, "tags": {"amenity": "bicycle_parking"}}, {"type": "node", "id": 444724805, "lat": 64.2265312, "lon": 27.7326555}, {"type": "node", "id": 444724806, "lat": 64.2265802, "lon": 27.7325499}, {"type": "node", "id": 444724807, "lat": 64.2264959, "lon": 27.7323429}, {"type": "node", "id": 444724811, "lat": 64.226846, "lon": 27.7319129}, {"type": "node", "id": 444724823, "lat": 64.2263969, "lon": 27.7328232}, {"type": "node", "id": 444728717, "lat": 64.2261278, "lon": 27.7325938}, {"type": "node", "id": 444728718, "lat": 64.2259589, "lon": 27.7329575}, {"type": "node", "id": 444728719, "lat": 64.2259518, "lon": 27.731993}, {"type": "node", "id": 444728720, "lat": 64.2257568, "lon": 27.732445}, {"type": "node", "id": 444728721, "lat": 64.2261109, "lon": 27.7326247}, {"type": "node", "id": 444728743, "lat": 64.2250421, "lon": 27.732482, "tags": {"addr:city": "Kajaani", "addr:housenumber": "18", "addr:postcode": "87100", "addr:street": "Kauppakatu", "amenity": "pharmacy", "healthcare": "pharmacy", "name": "Kajaanin Ykk\u00f6sapteekki", "name:fi": "Kajaanin Ykk\u00f6sapteekki", "opening_hours": "Mo-Fr 08:30-21:00; Sa 10:00-18:00; Su,PH 10:00-18:00", "phone": "+35886122555", "website": "https://www.kajaanin1apteekki.fi/"}}, {"type": "node", "id": 444734145, "lat": 64.2269739, "lon": 27.7317459, "tags": {"amenity": "waste_basket"}}, {"type": "node", "id": 444734159, "lat": 64.226681, "lon": 27.7324287, "tags": {"amenity": "waste_disposal", "waste": "household"}}, {"type": "node", "id": 444734173, "lat": 64.2269075, "lon": 27.7320779}, {"type": "node", "id": 444734174, "lat": 64.2267536, "lon": 27.7323991}, {"type": "node", "id": 444734182, "lat": 64.2272144, "lon": 27.7327267}, {"type": "node", "id": 444734193, "lat": 64.2272474, "lon": 27.7319489}, {"type": "node", "id": 444734195, "lat": 64.2272365, "lon": 27.73192}, {"type": "node", "id": 444734198, "lat": 64.2273636, "lon": 27.731715}, {"type": "node", "id": 444734199, "lat": 64.227304, "lon": 27.7315585}, {"type": "node", "id": 444734200, "lat": 64.2272044, "lon": 27.7318357}, {"type": "node", "id": 444734202, "lat": 64.2271241, "lon": 27.7319973}, {"type": "node", "id": 444734203, "lat": 64.2271076, "lon": 27.7319539}, {"type": "node", "id": 444734938, "lat": 64.2271797, "lon": 27.7326412}, {"type": "node", "id": 444740373, "lat": 64.2275435, "lon": 27.7336917, "tags": {"amenity": "waste_basket"}}, {"type": "node", "id": 444740385, "lat": 64.228178, "lon": 27.7331793, "tags": {"amenity": "bench"}}, {"type": "node", "id": 444740395, "lat": 64.2284045, "lon": 27.7329192, "tags": {"amenity": "waste_basket"}}, {"type": "node", "id": 444768793, "lat": 64.2267133, "lon": 27.7324833}, {"type": "node", "id": 444768795, "lat": 64.2266518, "lon": 27.7323183}, {"type": "node", "id": 444768797, "lat": 64.2268756, "lon": 27.7319971}, {"type": "node", "id": 444779537, "lat": 64.2266072, "lon": 27.7308846}, {"type": "node", "id": 444779538, "lat": 64.2267652, "lon": 27.7312738}, {"type": "node", "id": 444779539, "lat": 64.226785, "lon": 27.7305029, "tags": {"entrance": "yes", "operator": "Sokos"}}, {"type": "node", "id": 444779540, "lat": 64.226943, "lon": 27.730892}, {"type": "node", "id": 444779543, "lat": 64.2266531, "lon": 27.730786}, {"type": "node", "id": 444779545, "lat": 64.2266255, "lon": 27.7307179}, {"type": "node", "id": 444779546, "lat": 64.2267569, "lon": 27.7304338}, {"type": "node", "id": 444779548, "lat": 64.2269246, "lon": 27.7309315}, {"type": "node", "id": 444820560, "lat": 64.226486, "lon": 27.7310044}, {"type": "node", "id": 444820562, "lat": 64.2264456, "lon": 27.7309093}, {"type": "node", "id": 444820563, "lat": 64.226525, "lon": 27.7311005}, {"type": "node", "id": 444820564, "lat": 64.2263358, "lon": 27.7311462}, {"type": "node", "id": 444820569, "lat": 64.2264142, "lon": 27.7313383}, {"type": "node", "id": 444825321, "lat": 64.2259194, "lon": 27.7295499, "tags": {"addr:housenumber": "21", "addr:postcode": "87100", "addr:street": "Kirkkokatu", "amenity": "fast_food", "brand": "Kotipizza", "brand:wikidata": "Q1628625", "brand:wikipedia": "en:Kotipizza", "cuisine": "pizza", "name": "Kotipizza", "opening_hours": "Mo-Sa 11:00-21:00; Su 11:30-21:00", "takeaway": "yes", "website": "https://www.kotipizza.fi/ravintolat/kotipizza-kajaani-keskusta-kirkkokatu"}}, {"type": "node", "id": 444825333, "lat": 64.226405, "lon": 27.7304136, "tags": {"amenity": "waste_basket", "traffic_sign": "FI:312"}}, {"type": "node", "id": 444825341, "lat": 64.2264959, "lon": 27.7315388}, {"type": "node", "id": 444825342, "lat": 64.2263725, "lon": 27.7311874, "tags": {"amenity": "waste_disposal", "waste": "household"}}, {"type": "node", "id": 444831577, "lat": 64.2265148, "lon": 27.731585}, {"type": "node", "id": 444831579, "lat": 64.226625, "lon": 27.7313474}, {"type": "node", "id": 445855049, "lat": 64.2217701, "lon": 27.721027, "tags": {"access": "private", "amenity": "waste_disposal"}}, {"type": "node", "id": 445855059, "lat": 64.2218403, "lon": 27.7208944, "tags": {"access": "private", "amenity": "waste_disposal"}}, {"type": "node", "id": 445855070, "lat": 64.2215495, "lon": 27.7203967, "tags": {"amenity": "grit_bin"}}, {"type": "node", "id": 446011127, "lat": 64.2216601, "lon": 27.7187752, "tags": {"amenity": "bench"}}, {"type": "node", "id": 446013777, "lat": 64.2222518, "lon": 27.7207803, "tags": {"access": "private", "amenity": "waste_disposal", "waste": "household"}}, {"type": "node", "id": 446014154, "lat": 64.2214726, "lon": 27.7224156}, {"type": "node", "id": 446014167, "lat": 64.2215091, "lon": 27.7225347}, {"type": "node", "id": 446014168, "lat": 64.2215707, "lon": 27.7226698, "tags": {"access": "private", "amenity": "waste_disposal", "waste": "household"}}, {"type": "node", "id": 446014170, "lat": 64.2215227, "lon": 27.7224842}, {"type": "node", "id": 446014172, "lat": 64.2213284, "lon": 27.7222176}, {"type": "node", "id": 446014174, "lat": 64.2214924, "lon": 27.7225925}, {"type": "node", "id": 446014176, "lat": 64.2213016, "lon": 27.7223286}, {"type": "node", "id": 446030194, "lat": 64.2236702, "lon": 27.7326011, "tags": {"addr:city": "Kajaani", "addr:housenumber": "18", "addr:postcode": "87100", "addr:street": "Pohjolankatu", "amenity": "bank", "brand": "Osuuspankki", "brand:wikidata": "Q4045597", "name": "Osuuspankki", "operator": "Kainuun Osuuspankki", "website": "https://www.op.fi/henkiloasiakkaat/asiakaspalvelu/konttorit?ASPA=true&konttorinro=576003&konttorioyno=0000"}}, {"type": "node", "id": 446058709, "lat": 64.2167818, "lon": 27.7300507}, {"type": "node", "id": 455229494, "lat": 64.2317902, "lon": 27.7347979, "tags": {"amenity": "veterinary"}}, {"type": "node", "id": 455229496, "lat": 64.2264043, "lon": 27.7342546}, {"type": "node", "id": 512453710, "lat": 64.2273804, "lon": 27.7283793}, {"type": "node", "id": 512453712, "lat": 64.2274607, "lon": 27.7285817}, {"type": "node", "id": 512453714, "lat": 64.227447, "lon": 27.7282396}, {"type": "node", "id": 512453717, "lat": 64.2275273, "lon": 27.7284421}, {"type": "node", "id": 512453731, "lat": 64.2274278, "lon": 27.7282798}, {"type": "node", "id": 512453733, "lat": 64.2276444, "lon": 27.7269845, "tags": {"amenity": "cinema", "name": "BioRex Kajaani"}}, {"type": "node", "id": 512453734, "lat": 64.2271537, "lon": 27.7263273}, {"type": "node", "id": 512453735, "lat": 64.2271018, "lon": 27.7261888}, {"type": "node", "id": 512453736, "lat": 64.2266715, "lon": 27.7270761}, {"type": "node", "id": 512453737, "lat": 64.2267684, "lon": 27.7273245}, {"type": "node", "id": 512453738, "lat": 64.2271987, "lon": 27.7264372}, {"type": "node", "id": 512453740, "lat": 64.2267294, "lon": 27.7272239}, {"type": "node", "id": 512453815, "lat": 64.2277576, "lon": 27.7297867, "tags": {"addr:city": "Kajaani", "addr:country": "FI", "amenity": "nightclub", "name": "Onnela"}}, {"type": "node", "id": 512457688, "lat": 64.227571, "lon": 27.7274851, "tags": {"addr:city": "Kajaani", "addr:country": "FI", "addr:housenumber": "38", "addr:postcode": "87100", "addr:street": "Kauppakatu", "amenity": "restaurant", "cuisine": "chinese", "name": "Golden Dragon", "opening_hours": "Tu-Th 10:30-20:00; Fr 10:30-21:00; Sa 11:00-21:00; Su 12:00-18:00", "website": "https://goldendragon.fi/"}}, {"type": "node", "id": 512457689, "lat": 64.2259732, "lon": 27.731622, "tags": {"addr:city": "Kajaani", "addr:country": "FI", "addr:housenumber": "13", "addr:postcode": "87100", "addr:street": "Kauppakatu", "amenity": "fast_food", "cuisine": "pizza", "name": "Axun pizza&kebab", "opening_hours": "Mo-Su 11:00-03:00"}}, {"type": "node", "id": 512459269, "lat": 64.2256385, "lon": 27.7340592}, {"type": "node", "id": 512459271, "lat": 64.2257525, "lon": 27.73381}, {"type": "node", "id": 512459273, "lat": 64.2258363, "lon": 27.7345377}, {"type": "node", "id": 512459276, "lat": 64.2259503, "lon": 27.7342887}, {"type": "node", "id": 512459277, "lat": 64.2256919, "lon": 27.7339426}, {"type": "node", "id": 559731277, "lat": 64.2241207, "lon": 27.7359282}, {"type": "node", "id": 624209505, "lat": 64.2215161, "lon": 27.7108885, "tags": {"amenity": "waste_basket"}}, {"type": "node", "id": 703600743, "lat": 64.2258795, "lon": 27.7289904}, {"type": "node", "id": 703600746, "lat": 64.2252015, "lon": 27.730422}, {"type": "node", "id": 703600748, "lat": 64.2264758, "lon": 27.7277476}, {"type": "node", "id": 703600754, "lat": 64.2252416, "lon": 27.7305233}, {"type": "node", "id": 703600757, "lat": 64.2250993, "lon": 27.730636}, {"type": "node", "id": 703600759, "lat": 64.226517, "lon": 27.7278518}, {"type": "node", "id": 703600770, "lat": 64.2259233, "lon": 27.7290972}, {"type": "node", "id": 703600775, "lat": 64.225696, "lon": 27.7293783}, {"type": "node", "id": 703607291, "lat": 64.2273513, "lon": 27.7232963, "tags": {"amenity": "car_rental", "brand": "Hertz", "brand:wikidata": "Q1543874", "name": "Hertz"}}, {"type": "node", "id": 830475566, "lat": 64.2280166, "lon": 27.7270733}, {"type": "node", "id": 1245456967, "lat": 64.228842, "lon": 27.7224326, "tags": {"amenity": "cafe_university"}}, {"type": "node", "id": 1357974594, "lat": 64.2204397, "lon": 27.7475618}, {"type": "node", "id": 1357974598, "lat": 64.2203399, "lon": 27.7481953}, {"type": "node", "id": 1357974599, "lat": 64.2204269, "lon": 27.7475404}, {"type": "node", "id": 1357974600, "lat": 64.2213318, "lon": 27.748352}, {"type": "node", "id": 1357974602, "lat": 64.2213837, "lon": 27.7480643}, {"type": "node", "id": 1357974604, "lat": 64.2203573, "lon": 27.748559}, {"type": "node", "id": 1357974605, "lat": 64.2205899, "lon": 27.7475218}, {"type": "node", "id": 1357974609, "lat": 64.2213563, "lon": 27.7472929, "tags": {"entrance": "yes"}}, {"type": "node", "id": 1357974613, "lat": 64.2214668, "lon": 27.747011, "tags": {"addr:postcode": "87100", "amenity": "fast_food", "branch": "Kajaani Prisma", "brand": "Hesburger", "brand:wikidata": "Q1276832", "brand:wikipedia": "en:Hesburger", "cuisine": "burger", "name": "Hesburger", "opening_hours": "Mo-Sa 10:30-20:00; Su 11:00-19:00", "takeaway": "yes", "website": "https://www.hesburger.fi/ravintolat?tid=138"}}, {"type": "node", "id": 1357974619, "lat": 64.2204067, "lon": 27.7470853}, {"type": "node", "id": 1357974620, "lat": 64.2213293, "lon": 27.7482506}, {"type": "node", "id": 1357974624, "lat": 64.220522, "lon": 27.747519}, {"type": "node", "id": 1357974626, "lat": 64.2204658, "lon": 27.7480945}, {"type": "node", "id": 1358014823, "lat": 64.2260793, "lon": 27.7300393, "tags": {"addr:housenumber": "26", "addr:postcode": "87100", "addr:street": "Kauppakatu", "amenity": "restaurant", "lunch": "yes", "name": "Ranch", "opening_hours": "Mo 10:30-14:00; Tu-Th 10:30-21:00; Fr 10:30-22:00; Sa 12:00-22:00", "website": "https://ranch.fi/"}}, {"type": "node", "id": 1360257262, "lat": 64.2263957, "lon": 27.7277036}, {"type": "node", "id": 1360257263, "lat": 64.2264447, "lon": 27.7277418}, {"type": "node", "id": 1360257266, "lat": 64.2264262, "lon": 27.7277806}, {"type": "node", "id": 1360257268, "lat": 64.2264142, "lon": 27.7276648}, {"type": "node", "id": 1360257269, "lat": 64.2264604, "lon": 27.727709}, {"type": "node", "id": 1360269434, "lat": 64.2292217, "lon": 27.7266157}, {"type": "node", "id": 1360269435, "lat": 64.2292023, "lon": 27.7278642}, {"type": "node", "id": 1360269440, "lat": 64.2289765, "lon": 27.7271458}, {"type": "node", "id": 1360269443, "lat": 64.2292627, "lon": 27.7267026}, {"type": "node", "id": 1360269444, "lat": 64.2298077, "lon": 27.7257281}, {"type": "node", "id": 1360269447, "lat": 64.2296015, "lon": 27.7269958}, {"type": "node", "id": 1360269448, "lat": 64.2293735, "lon": 27.7264666}, {"type": "node", "id": 1360272473, "lat": 64.2261733, "lon": 27.7287063}, {"type": "node", "id": 1360272489, "lat": 64.2262581, "lon": 27.7289169}, {"type": "node", "id": 1360295192, "lat": 64.2250582, "lon": 27.7329081, "tags": {"amenity": "atm", "brand": "Otto"}}, {"type": "node", "id": 1360295212, "lat": 64.2249728, "lon": 27.7328894, "tags": {"amenity": "bank", "brand": "Nordea", "brand:wikidata": "Q1123823", "brand:wikipedia": "en:Nordea", "name": "Nordea"}}, {"type": "node", "id": 1403173164, "lat": 64.2276867, "lon": 27.7171547}, {"type": "node", "id": 1403173165, "lat": 64.2263712, "lon": 27.7179487}, {"type": "node", "id": 1403173166, "lat": 64.2256504, "lon": 27.718115}, {"type": "node", "id": 1403173167, "lat": 64.2256434, "lon": 27.7179809}, {"type": "node", "id": 1403173168, "lat": 64.2263525, "lon": 27.7178146}, {"type": "node", "id": 1403173169, "lat": 64.2276773, "lon": 27.7170099}, {"type": "node", "id": 1403290914, "lat": 64.2282412, "lon": 27.7266879}, {"type": "node", "id": 1766411730, "lat": 64.2250863, "lon": 27.7286587}, {"type": "node", "id": 1766411736, "lat": 64.2250109, "lon": 27.7293426}, {"type": "node", "id": 1766411743, "lat": 64.2252001, "lon": 27.7289445}, {"type": "node", "id": 1766411752, "lat": 64.2248971, "lon": 27.7290568}, {"type": "node", "id": 2373101963, "lat": 64.2263352, "lon": 27.730599, "tags": {"amenity": "waste_basket", "highway": "street_lamp", "traffic_sign": "FI:511;FI:511", "traffic_sign:2": "FI:331"}}, {"type": "node", "id": 2393669404, "lat": 64.2264835, "lon": 27.7276213, "tags": {"amenity": "vending_machine", "payment:coins": "yes", "payment:credit_cards": "no", "payment:debit_cards": "no", "payment:notes": "no", "traffic_sign": "FI:521", "traffic_sign:2": "FI:871[MAKSULLINEN]", "traffic_sign:3": "FI:855b[8-18 (8-16)]", "vending": "parking_tickets"}}, {"type": "node", "id": 2393674093, "lat": 64.226895, "lon": 27.7280695, "tags": {"amenity": "waste_basket"}}, {"type": "node", "id": 2393684283, "lat": 64.225847, "lon": 27.728926, "tags": {"amenity": "vending_machine", "lit": "yes", "payment:coins": "yes", "payment:credit_cards": "no", "payment:debit_cards": "no", "payment:notes": "no", "vending": "parking_tickets"}}, {"type": "node", "id": 2393684284, "lat": 64.2258528, "lon": 27.7288423}, {"type": "node", "id": 2393684286, "lat": 64.2258699, "lon": 27.7289624}, {"type": "node", "id": 2393684287, "lat": 64.2258866, "lon": 27.7289274}, {"type": "node", "id": 2394193592, "lat": 64.2228417, "lon": 27.7362365}, {"type": "node", "id": 2394193593, "lat": 64.2229181, "lon": 27.7360778}, {"type": "node", "id": 2410415948, "lat": 64.2268199, "lon": 27.7311563}, {"type": "node", "id": 2410919495, "lat": 64.2266407, "lon": 27.7299571, "tags": {"amenity": "bench"}}, {"type": "node", "id": 2410919498, "lat": 64.2266464, "lon": 27.72997, "tags": {"amenity": "waste_basket"}}, {"type": "node", "id": 2410919500, "lat": 64.2267016, "lon": 27.7298404, "tags": {"amenity": "bench"}}, {"type": "node", "id": 2410939699, "lat": 64.227545, "lon": 27.7280843, "tags": {"amenity": "post_box", "traffic_sign": "FI:521", "traffic_sign:2": "FI:856b[60 min]", "traffic_sign:3": "FI:851"}}, {"type": "node", "id": 2410939713, "lat": 64.2278675, "lon": 27.7273747}, {"type": "node", "id": 2410939719, "lat": 64.2279557, "lon": 27.7276106}, {"type": "node", "id": 2410939720, "lat": 64.2281177, "lon": 27.7273227}, {"type": "node", "id": 2410939723, "lat": 64.2281689, "lon": 27.7268302}, {"type": "node", "id": 2410941252, "lat": 64.2274228, "lon": 27.7289432, "tags": {"amenity": "bicycle_parking", "bicycle_parking": "wall_loops"}}, {"type": "node", "id": 2410944699, "lat": 64.2272712, "lon": 27.7289738, "tags": {"amenity": "waste_basket"}}, {"type": "node", "id": 2410948077, "lat": 64.2264983, "lon": 27.73027, "tags": {"amenity": "bench", "backrest": "no"}}, {"type": "node", "id": 2410948083, "lat": 64.2265437, "lon": 27.7299929, "tags": {"amenity": "waste_basket"}}, {"type": "node", "id": 2410948085, "lat": 64.2265816, "lon": 27.7300972, "tags": {"amenity": "bench", "backrest": "no"}}, {"type": "node", "id": 2415287158, "lat": 64.2261697, "lon": 27.731853, "tags": {"amenity": "bar", "name": "Backstage bar", "opening_hours": "Mo-Su 21:00-03:00"}}, {"type": "node", "id": 2415287164, "lat": 64.2261175, "lon": 27.731616, "tags": {"addr:city": "Kajaani", "addr:housenumber": "13", "addr:postcode": "87100", "addr:street": "Kauppakatu", "amenity": "pub", "name": "Bar Narnia", "opening_hours": "Mo-Tu 15:00-02:00; We-Su 15:00-03:00"}}, {"type": "node", "id": 2415292344, "lat": 64.2257289, "lon": 27.7304346, "tags": {"amenity": "vending_machine", "traffic_sign": "FI:521", "vending": "parking_tickets"}}, {"type": "node", "id": 2415306246, "lat": 64.2255382, "lon": 27.7323044, "tags": {"amenity": "waste_basket", "highway": "street_lamp", "traffic_sign": "FI:511;FI:511", "traffic_sign:2": "FI:331"}}, {"type": "node", "id": 2415306258, "lat": 64.2256392, "lon": 27.7321001, "tags": {"amenity": "waste_basket", "highway": "street_lamp", "traffic_sign": "round", "traffic_sign:2": "rectangle"}}, {"type": "node", "id": 2415309984, "lat": 64.2254646, "lon": 27.7324637, "tags": {"amenity": "waste_basket", "highway": "street_lamp", "traffic_sign": "round", "traffic_sign:2": "rectangle"}}, {"type": "node", "id": 2415318316, "lat": 64.2253922, "lon": 27.7321726, "tags": {"addr:city": "Kajaani", "addr:housenumber": "20", "addr:postcode": "87100", "addr:street": "Kauppakatu", "amenity": "restaurant", "email": "valjusravintolat.kajaani@sok.fi", "facebook": "https://www.facebook.com/BarSulo", "lunch": "yes", "name": "Sulo", "opening_hours": "Mo-Th 10:30-21:00; Fr 10:30-22:00; Sa 12:00-22:00; Su 12:00-21:00", "phone": "+358 10 763 7051", "website": "https://www.raflaamo.fi/fi/kajaani/sulo"}}, {"type": "node", "id": 2415320073, "lat": 64.2254447, "lon": 27.7340075, "tags": {"addr:housenumber": "7", "addr:postcode": "87100", "addr:street": "Kauppakatu", "amenity": "fast_food", "brand": "Subway", "brand:wikidata": "Q244457", "brand:wikipedia": "en:Subway (restaurant)", "cuisine": "sandwich", "diet:vegan": "yes", "diet:vegetarian": "yes", "name": "Subway", "opening_hours": "Mo-Th 09:00-22:00; Fr-Sa 09:00-23:00; Su 11:00-22:00", "takeaway": "yes", "website": "https://restaurants.subway.com/fi/suomi/kajaani/kauppakatu-7"}}, {"type": "node", "id": 2415320750, "lat": 64.2251001, "lon": 27.7336268}, {"type": "node", "id": 2415320752, "lat": 64.2251202, "lon": 27.7335846}, {"type": "node", "id": 2415320754, "lat": 64.225272, "lon": 27.7340606}, {"type": "node", "id": 2415320758, "lat": 64.2252921, "lon": 27.7340184}, {"type": "node", "id": 2415321237, "lat": 64.2248859, "lon": 27.7336629, "tags": {"amenity": "waste_basket", "highway": "street_lamp"}}, {"type": "node", "id": 2415339426, "lat": 64.2247996, "lon": 27.73478, "tags": {"amenity": "waste_basket"}}, {"type": "node", "id": 2415351741, "lat": 64.2253366, "lon": 27.7349187, "tags": {"amenity": "cafe", "check_date": "2024-11-30", "name": "Mokka"}}, {"type": "node", "id": 2415352170, "lat": 64.2247222, "lon": 27.7347191, "tags": {"amenity": "bench"}}, {"type": "node", "id": 2415352173, "lat": 64.2247478, "lon": 27.7347831, "tags": {"amenity": "bench"}}, {"type": "node", "id": 2415352175, "lat": 64.224799, "lon": 27.7349162, "tags": {"amenity": "bench"}}, {"type": "node", "id": 2415352179, "lat": 64.2248146, "lon": 27.7349597, "tags": {"amenity": "bench"}}, {"type": "node", "id": 2415352181, "lat": 64.2248357, "lon": 27.7350083, "tags": {"amenity": "bench"}}, {"type": "node", "id": 2415357391, "lat": 64.224667, "lon": 27.736221, "tags": {"amenity": "recycling", "recycling_type": "container"}}, {"type": "node", "id": 2415367931, "lat": 64.2256128, "lon": 27.7343048, "tags": {"amenity": "labour_rental", "name": "Sihti"}}, {"type": "node", "id": 2415370083, "lat": 64.225718, "lon": 27.7338856}, {"type": "node", "id": 2415370084, "lat": 64.2259157, "lon": 27.7343642}, {"type": "node", "id": 2416232961, "lat": 64.226261, "lon": 27.732377, "tags": {"amenity": "pub", "name": "Kulma"}}, {"type": "node", "id": 2416322162, "lat": 64.2293781, "lon": 27.726122}, {"type": "node", "id": 2416322163, "lat": 64.2294102, "lon": 27.7260472}, {"type": "node", "id": 2416322166, "lat": 64.2294495, "lon": 27.7262843}, {"type": "node", "id": 2416322168, "lat": 64.2294817, "lon": 27.7262094}, {"type": "node", "id": 2416339329, "lat": 64.2288841, "lon": 27.7273071, "tags": {"amenity": "waste_basket", "traffic_sign": "FI:421"}}, {"type": "node", "id": 2416358400, "lat": 64.2290138, "lon": 27.7270191}, {"type": "node", "id": 2416358404, "lat": 64.2290267, "lon": 27.7270511}, {"type": "node", "id": 2416358405, "lat": 64.2290454, "lon": 27.7269513}, {"type": "node", "id": 2416358407, "lat": 64.2290583, "lon": 27.7269832}, {"type": "node", "id": 2416358408, "lat": 64.2290632, "lon": 27.7269978, "tags": {"amenity": "waste_basket"}}, {"type": "node", "id": 2416366716, "lat": 64.228986, "lon": 27.727148, "tags": {"amenity": "waste_basket"}}, {"type": "node", "id": 2416366721, "lat": 64.2290007, "lon": 27.7271496, "tags": {"amenity": "bench"}}, {"type": "node", "id": 2416366722, "lat": 64.2290106, "lon": 27.7271205, "tags": {"amenity": "bench"}}, {"type": "node", "id": 2416376059, "lat": 64.2183338, "lon": 27.7445888}, {"type": "node", "id": 2416380578, "lat": 64.2182105, "lon": 27.7434484}, {"type": "node", "id": 2416380584, "lat": 64.2182169, "lon": 27.7431853}, {"type": "node", "id": 2416380590, "lat": 64.2183758, "lon": 27.7452451}, {"type": "node", "id": 2416380625, "lat": 64.218628, "lon": 27.7452842}, {"type": "node", "id": 2416380626, "lat": 64.2186371, "lon": 27.7434148}, {"type": "node", "id": 2416380628, "lat": 64.2186558, "lon": 27.7431265}, {"type": "node", "id": 2416380632, "lat": 64.2187747, "lon": 27.7431277}, {"type": "node", "id": 2416388626, "lat": 64.2185652, "lon": 27.7434204}, {"type": "node", "id": 2418782820, "lat": 64.2202841, "lon": 27.7470948}, {"type": "node", "id": 2418782822, "lat": 64.2203113, "lon": 27.7477532}, {"type": "node", "id": 2418782824, "lat": 64.2203544, "lon": 27.7470823}, {"type": "node", "id": 2418782825, "lat": 64.2203796, "lon": 27.7477376}, {"type": "node", "id": 2504098241, "lat": 64.2166746, "lon": 27.7291909}, {"type": "node", "id": 2504098244, "lat": 64.2168155, "lon": 27.730321}, {"type": "node", "id": 2504098245, "lat": 64.2168538, "lon": 27.7290584}, {"type": "node", "id": 2504098246, "lat": 64.2168738, "lon": 27.7292172}, {"type": "node", "id": 2504098252, "lat": 64.2173046, "lon": 27.7290186}, {"type": "node", "id": 2504098257, "lat": 64.2173738, "lon": 27.7299531}, {"type": "node", "id": 2504098262, "lat": 64.218071, "lon": 27.732919}, {"type": "node", "id": 2504098263, "lat": 64.2181484, "lon": 27.7343051}, {"type": "node", "id": 2504098264, "lat": 64.2181191, "lon": 27.7337799}, {"type": "node", "id": 2504098265, "lat": 64.2183287, "lon": 27.7328428}, {"type": "node", "id": 2504098266, "lat": 64.2184063, "lon": 27.7342289}, {"type": "node", "id": 2506879770, "lat": 64.2203001, "lon": 27.7251932}, {"type": "node", "id": 2506879783, "lat": 64.2208848, "lon": 27.7257979}, {"type": "node", "id": 2506999550, "lat": 64.2254691, "lon": 27.7360534, "tags": {"amenity": "bicycle_parking", "covered": "no"}}, {"type": "node", "id": 2507050953, "lat": 64.2278619, "lon": 27.7313347}, {"type": "node", "id": 2507050979, "lat": 64.2279232, "lon": 27.7314898}, {"type": "node", "id": 2507050986, "lat": 64.2279907, "lon": 27.7310715, "tags": {"traffic_sign": "FI:511", "traffic_sign:2": "FI:231"}}, {"type": "node", "id": 2507050995, "lat": 64.228005, "lon": 27.7310387}, {"type": "node", "id": 2507051000, "lat": 64.228024, "lon": 27.7312814}, {"type": "node", "id": 2507051011, "lat": 64.2280754, "lon": 27.7314131}, {"type": "node", "id": 2507051017, "lat": 64.2281174, "lon": 27.7313264}, {"type": "node", "id": 2507051066, "lat": 64.22873, "lon": 27.729618}, {"type": "node", "id": 2507053486, "lat": 64.2285584, "lon": 27.729996}, {"type": "node", "id": 2507053491, "lat": 64.2286107, "lon": 27.7298884}, {"type": "node", "id": 2507053494, "lat": 64.2286479, "lon": 27.7302259}, {"type": "node", "id": 2507053496, "lat": 64.2286646, "lon": 27.7297775}, {"type": "node", "id": 2507053502, "lat": 64.228754, "lon": 27.7300074}, {"type": "node", "id": 2507053503, "lat": 64.2287938, "lon": 27.7294868}, {"type": "node", "id": 2507053506, "lat": 64.2288084, "lon": 27.7298195}, {"type": "node", "id": 2507053512, "lat": 64.2288722, "lon": 27.7296884}, {"type": "node", "id": 2507060444, "lat": 64.228235, "lon": 27.7285797}, {"type": "node", "id": 2507060449, "lat": 64.2283375, "lon": 27.7288369}, {"type": "node", "id": 2507060450, "lat": 64.2284195, "lon": 27.7281908}, {"type": "node", "id": 2507060453, "lat": 64.2284715, "lon": 27.7283242}, {"type": "node", "id": 2507060457, "lat": 64.228522, "lon": 27.728448}, {"type": "node", "id": 2507071152, "lat": 64.2279043, "lon": 27.7268391, "tags": {"traffic_sign": "FI:511", "traffic_sign:2": "FI:231"}}, {"type": "node", "id": 2507107928, "lat": 64.2256916, "lon": 27.7293514, "tags": {"amenity": "vending_machine", "payment:coins": "yes", "payment:credit_cards": "no", "payment:debit_cards": "no", "payment:notes": "no", "traffic_sign": "FI:521", "traffic_sign:2": "FI:871[MAKSULLINEN]", "traffic_sign:3": "FI:855b[8-18 (8-16)]", "vending": "parking_tickets"}}, {"type": "node", "id": 2507107931, "lat": 64.2257299, "lon": 27.7293072}, {"type": "node", "id": 2507167455, "lat": 64.2249082, "lon": 27.7311038}, {"type": "node", "id": 2507167456, "lat": 64.2249732, "lon": 27.730967}, {"type": "node", "id": 2507170745, "lat": 64.2254041, "lon": 27.7301961, "tags": {"amenity": "vending_machine", "payment:coins": "yes", "payment:credit_cards": "no", "payment:debit_cards": "no", "payment:notes": "no", "vending": "parking_tickets"}}, {"type": "node", "id": 2699779874, "lat": 64.2145503, "lon": 27.7242824}, {"type": "node", "id": 2699810688, "lat": 64.2164085, "lon": 27.7130911}, {"type": "node", "id": 2699810692, "lat": 64.2170709, "lon": 27.7252564}, {"type": "node", "id": 2699810694, "lat": 64.2148831, "lon": 27.7121886}, {"type": "node", "id": 2699810695, "lat": 64.2227024, "lon": 27.7080623}, {"type": "node", "id": 2699810699, "lat": 64.2161578, "lon": 27.7130908}, {"type": "node", "id": 2699810701, "lat": 64.2149001, "lon": 27.7114246}, {"type": "node", "id": 2699810702, "lat": 64.2151995, "lon": 27.7110374}, {"type": "node", "id": 2699810705, "lat": 64.2158282, "lon": 27.7121398}, {"type": "node", "id": 2699810707, "lat": 64.2155391, "lon": 27.7116529}, {"type": "node", "id": 2699810709, "lat": 64.2153677, "lon": 27.7091382}, {"type": "node", "id": 2699810713, "lat": 64.2234418, "lon": 27.7117287}, {"type": "node", "id": 2699810729, "lat": 64.2235076, "lon": 27.7120321}, {"type": "node", "id": 2699810735, "lat": 64.2238176, "lon": 27.7116937}, {"type": "node", "id": 2699810745, "lat": 64.2159878, "lon": 27.7137659}, {"type": "node", "id": 2699810747, "lat": 64.2153006, "lon": 27.7105155}, {"type": "node", "id": 2699810749, "lat": 64.2163721, "lon": 27.7158536}, {"type": "node", "id": 2699810755, "lat": 64.2163772, "lon": 27.7159539}, {"type": "node", "id": 2699810762, "lat": 64.2165689, "lon": 27.7158968}, {"type": "node", "id": 2699810766, "lat": 64.2150148, "lon": 27.7117964}, {"type": "node", "id": 2699810769, "lat": 64.2163201, "lon": 27.7155893}, {"type": "node", "id": 2699810774, "lat": 64.2174682, "lon": 27.7248458}, {"type": "node", "id": 2699810776, "lat": 64.2160272, "lon": 27.7143537}, {"type": "node", "id": 2699810777, "lat": 64.2153684, "lon": 27.7082522}, {"type": "node", "id": 2699810779, "lat": 64.2175358, "lon": 27.7253637}, {"type": "node", "id": 2699810781, "lat": 64.2150828, "lon": 27.7116549}, {"type": "node", "id": 2699810786, "lat": 64.2173909, "lon": 27.7270101}, {"type": "node", "id": 2699810788, "lat": 64.2171947, "lon": 27.7255041}, {"type": "node", "id": 2699810790, "lat": 64.2237606, "lon": 27.711411}, {"type": "node", "id": 2699810798, "lat": 64.2161476, "lon": 27.7156225}, {"type": "node", "id": 2699810808, "lat": 64.2162629, "lon": 27.7142227}, {"type": "node", "id": 2699810812, "lat": 64.2152996, "lon": 27.7121716}, {"type": "node", "id": 2699810814, "lat": 64.2172256, "lon": 27.7271239}, {"type": "node", "id": 2699810816, "lat": 64.2147155, "lon": 27.7118125}, {"type": "node", "id": 2699810820, "lat": 64.215132, "lon": 27.7108755}, {"type": "node", "id": 2699810821, "lat": 64.2152453, "lon": 27.7109421}, {"type": "node", "id": 2699810825, "lat": 64.2162574, "lon": 27.7131973}, {"type": "node", "id": 2699810826, "lat": 64.2161604, "lon": 27.7160487}, {"type": "node", "id": 2699810828, "lat": 64.2150375, "lon": 27.7118545}, {"type": "node", "id": 2699810829, "lat": 64.2164304, "lon": 27.7125899}, {"type": "node", "id": 2699810832, "lat": 64.2152038, "lon": 27.7102647}, {"type": "node", "id": 2699810834, "lat": 64.2151624, "lon": 27.7086541}, {"type": "node", "id": 2699810836, "lat": 64.2160632, "lon": 27.711653}, {"type": "node", "id": 2699810838, "lat": 64.2171233, "lon": 27.725658}, {"type": "node", "id": 2699810841, "lat": 64.2170419, "lon": 27.7257141}, {"type": "node", "id": 2699810843, "lat": 64.2147812, "lon": 27.7111242}, {"type": "node", "id": 2699810844, "lat": 64.2225308, "lon": 27.706976}, {"type": "node", "id": 2700135937, "lat": 64.2235636, "lon": 27.7109733}, {"type": "node", "id": 2700135938, "lat": 64.2234914, "lon": 27.7105203}, {"type": "node", "id": 2700135940, "lat": 64.2231907, "lon": 27.7104958}, {"type": "node", "id": 2700135941, "lat": 64.2232908, "lon": 27.7109691}, {"type": "node", "id": 2700135942, "lat": 64.2230412, "lon": 27.709764}, {"type": "node", "id": 2700135943, "lat": 64.2230855, "lon": 27.7099839}, {"type": "node", "id": 2700135945, "lat": 64.2233818, "lon": 27.7099893}, {"type": "node", "id": 2700135946, "lat": 64.2233296, "lon": 27.7096844}, {"type": "node", "id": 2700135947, "lat": 64.2230259, "lon": 27.7096821}, {"type": "node", "id": 2700135949, "lat": 64.2228653, "lon": 27.7088929}, {"type": "node", "id": 2700135950, "lat": 64.2229046, "lon": 27.7090644}, {"type": "node", "id": 2700135951, "lat": 64.2232517, "lon": 27.7090793}, {"type": "node", "id": 2700135952, "lat": 64.2232549, "lon": 27.7089071}, {"type": "node", "id": 2700135956, "lat": 64.2227571, "lon": 27.7083174}, {"type": "node", "id": 2700135957, "lat": 64.2231649, "lon": 27.7083203}, {"type": "node", "id": 2700135958, "lat": 64.2230809, "lon": 27.7078971}, {"type": "node", "id": 2700135960, "lat": 64.2230353, "lon": 27.7080708}, {"type": "node", "id": 2700135961, "lat": 64.2229285, "lon": 27.708068}, {"type": "node", "id": 2700135962, "lat": 64.2224914, "lon": 27.7069202}, {"type": "node", "id": 2700135963, "lat": 64.2224564, "lon": 27.706719}, {"type": "node", "id": 2700135965, "lat": 64.2228336, "lon": 27.7066633}, {"type": "node", "id": 2700135966, "lat": 64.2228476, "lon": 27.706894}, {"type": "node", "id": 2700135967, "lat": 64.2226143, "lon": 27.7068886}, {"type": "node", "id": 2700142761, "lat": 64.2160477, "lon": 27.7052096}, {"type": "node", "id": 2700142768, "lat": 64.2160443, "lon": 27.7053765}, {"type": "node", "id": 2700142772, "lat": 64.2160615, "lon": 27.7059203}, {"type": "node", "id": 2701001940, "lat": 64.2274948, "lon": 27.7225116}, {"type": "node", "id": 2701001945, "lat": 64.227585, "lon": 27.722748}, {"type": "node", "id": 2701001994, "lat": 64.2273733, "lon": 27.722757}, {"type": "node", "id": 2701002030, "lat": 64.2274636, "lon": 27.7229932}, {"type": "node", "id": 3439497201, "lat": 64.2257085, "lon": 27.7429929}, {"type": "node", "id": 3439497202, "lat": 64.2256689, "lon": 27.743304}, {"type": "node", "id": 3439497203, "lat": 64.2256385, "lon": 27.743304}, {"type": "node", "id": 3439497204, "lat": 64.2256175, "lon": 27.7433147}, {"type": "node", "id": 3439497205, "lat": 64.2255965, "lon": 27.7433362}, {"type": "node", "id": 3439497206, "lat": 64.2255872, "lon": 27.7433845}, {"type": "node", "id": 3439497207, "lat": 64.2255825, "lon": 27.7434327}, {"type": "node", "id": 3439497208, "lat": 64.2255872, "lon": 27.7434864}, {"type": "node", "id": 3439497209, "lat": 64.2256012, "lon": 27.7435454}, {"type": "node", "id": 3439497210, "lat": 64.2256222, "lon": 27.7435776}, {"type": "node", "id": 3439497211, "lat": 64.2256552, "lon": 27.7436014}, {"type": "node", "id": 3439497212, "lat": 64.2256878, "lon": 27.743577}, {"type": "node", "id": 3439497213, "lat": 64.2257692, "lon": 27.7437707}, {"type": "node", "id": 3439497214, "lat": 64.2258041, "lon": 27.7436849}, {"type": "node", "id": 3439497215, "lat": 64.2258205, "lon": 27.7436205}, {"type": "node", "id": 3439497216, "lat": 64.2258345, "lon": 27.7435347}, {"type": "node", "id": 3439497217, "lat": 64.2258391, "lon": 27.7434274}, {"type": "node", "id": 3439497218, "lat": 64.2258321, "lon": 27.7433415}, {"type": "node", "id": 3439497219, "lat": 64.2258205, "lon": 27.7432664}, {"type": "node", "id": 3439497220, "lat": 64.2258041, "lon": 27.743186}, {"type": "node", "id": 3439497221, "lat": 64.2257808, "lon": 27.7431216}, {"type": "node", "id": 3439497222, "lat": 64.2257505, "lon": 27.7430626}, {"type": "node", "id": 3590044379, "lat": 64.2275027, "lon": 27.7302858, "tags": {"addr:city": "Kajaani", "addr:housenumber": "17", "addr:postcode": "87100", "addr:street": "V\u00e4likatu", "amenity": "restaurant", "capacity": "20", "cuisine": "burger;kebab;pizza", "delivery": "yes", "name": "Ada", "opening_hours": "Mo-Th 11:00-22:00; Fr-Sa 11:00-02:00; Su 12:00-22:00", "takeaway": "yes", "website": "https://adan.fi/"}}, {"type": "node", "id": 3625346570, "lat": 64.2175613, "lon": 27.7519136}, {"type": "node", "id": 3625346585, "lat": 64.217722, "lon": 27.7512543}, {"type": "node", "id": 3625346590, "lat": 64.2174522, "lon": 27.7535365}, {"type": "node", "id": 3625346592, "lat": 64.2178404, "lon": 27.7514837}, {"type": "node", "id": 3625346693, "lat": 64.2178523, "lon": 27.7516089}, {"type": "node", "id": 3625346697, "lat": 64.2176034, "lon": 27.7537853}, {"type": "node", "id": 3625346702, "lat": 64.2177939, "lon": 27.7522927}, {"type": "node", "id": 3625346711, "lat": 64.2181814, "lon": 27.7521206}, {"type": "node", "id": 4014279047, "lat": 64.212084, "lon": 27.7295313}, {"type": "node", "id": 4014279049, "lat": 64.2118727, "lon": 27.7298572}, {"type": "node", "id": 4014279055, "lat": 64.2127913, "lon": 27.7249168}, {"type": "node", "id": 4014279057, "lat": 64.2127906, "lon": 27.7300671}, {"type": "node", "id": 4014279059, "lat": 64.2129076, "lon": 27.7297924}, {"type": "node", "id": 4014279062, "lat": 64.2129668, "lon": 27.7318902}, {"type": "node", "id": 4014279064, "lat": 64.2131327, "lon": 27.7310442}, {"type": "node", "id": 4014279066, "lat": 64.2132934, "lon": 27.7248603}, {"type": "node", "id": 4014279067, "lat": 64.213432, "lon": 27.731583}, {"type": "node", "id": 4014279068, "lat": 64.2133633, "lon": 27.7244909}, {"type": "node", "id": 4014279069, "lat": 64.2133763, "lon": 27.7306629}, {"type": "node", "id": 4014279074, "lat": 64.21348, "lon": 27.7310914}, {"type": "node", "id": 4014279075, "lat": 64.2134955, "lon": 27.731914}, {"type": "node", "id": 4014279087, "lat": 64.2141921, "lon": 27.7315008}, {"type": "node", "id": 4014282095, "lat": 64.2142885, "lon": 27.731914}, {"type": "node", "id": 4014282103, "lat": 64.2144223, "lon": 27.730972}, {"type": "node", "id": 4014282114, "lat": 64.2146206, "lon": 27.7314146}, {"type": "node", "id": 4014282119, "lat": 64.214698, "lon": 27.7239905}, {"type": "node", "id": 4014282120, "lat": 64.2146983, "lon": 27.7310592}, {"type": "node", "id": 4014282145, "lat": 64.2149779, "lon": 27.7317233}, {"type": "node", "id": 4014282147, "lat": 64.2150038, "lon": 27.7245683}, {"type": "node", "id": 4014282164, "lat": 64.2156698, "lon": 27.7244313}, {"type": "node", "id": 4014282166, "lat": 64.2156724, "lon": 27.7247173}, {"type": "node", "id": 4014282169, "lat": 64.2157605, "lon": 27.7312706}, {"type": "node", "id": 4014282170, "lat": 64.2158719, "lon": 27.7247173}, {"type": "node", "id": 4014282171, "lat": 64.2159549, "lon": 27.7263437}, {"type": "node", "id": 4014282172, "lat": 64.2161259, "lon": 27.730228}, {"type": "node", "id": 4014282173, "lat": 64.2161259, "lon": 27.7309906}, {"type": "node", "id": 4014282175, "lat": 64.2162321, "lon": 27.7294059}, {"type": "node", "id": 4014282176, "lat": 64.216385, "lon": 27.7287982}, {"type": "node", "id": 4232095248, "lat": 64.2218023, "lon": 27.730529, "tags": {"amenity": "taxi", "operator": "Taksi Kajaani", "phone": "+358 600 398 100", "website": "http://www.taksikajaani.fi/"}}, {"type": "node", "id": 4232095249, "lat": 64.2241859, "lon": 27.7354121, "tags": {"amenity": "taxi", "name": "Kauppatori", "operator": "Taksi Kajaani", "phone": "+358 600 398 100", "website": "http://www.taksikajaani.fi/"}}, {"type": "node", "id": 4339696857, "lat": 64.2200117, "lon": 27.7388258, "tags": {"amenity": "waste_basket", "check_date": "2023-04-02"}}, {"type": "node", "id": 4339696862, "lat": 64.2207854, "lon": 27.7399081}, {"type": "node", "id": 4339696874, "lat": 64.2199984, "lon": 27.7382862, "tags": {"amenity": "restaurant", "name": "Asemaravintola", "opening_hours": "PH,Mo-Su 08:30-15:30"}}, {"type": "node", "id": 4339696876, "lat": 64.2198887, "lon": 27.7385679, "tags": {"amenity": "waste_basket", "check_date": "2023-04-02"}}, {"type": "node", "id": 4339696878, "lat": 64.220102, "lon": 27.738718, "tags": {"amenity": "taxi"}}, {"type": "node", "id": 4339696879, "lat": 64.2201663, "lon": 27.7381199, "tags": {"amenity": "waste_basket", "check_date": "2023-04-02"}}, {"type": "node", "id": 4339696880, "lat": 64.22008, "lon": 27.738305, "tags": {"amenity": "waste_basket", "check_date": "2023-04-02"}}, {"type": "node", "id": 4339696881, "lat": 64.22008, "lon": 27.7383721, "tags": {"amenity": "post_box", "collection_times": "Mo-Fr 14:00"}}, {"type": "node", "id": 4339697302, "lat": 64.2200123, "lon": 27.7421459}, {"type": "node", "id": 4346804215, "lat": 64.2243897, "lon": 27.7325552, "tags": {"addr:city": "Kajaani", "addr:housenumber": "14", "addr:postcode": "87100", "addr:street": "L\u00f6nnrotinkatu", "amenity": "bank", "name": "S\u00e4\u00e4st\u00f6pankki Optia", "operator": "S\u00e4\u00e4st\u00f6pankki Optia"}}, {"type": "node", "id": 4359703414, "lat": 64.2199087, "lon": 27.7381916, "tags": {"amenity": "waste_basket", "check_date": "2023-04-02"}}, {"type": "node", "id": 4490729784, "lat": 64.2174278, "lon": 27.7174274}, {"type": "node", "id": 4490729785, "lat": 64.2157478, "lon": 27.717647}, {"type": "node", "id": 4490729786, "lat": 64.2158752, "lon": 27.7204603}, {"type": "node", "id": 4490729787, "lat": 64.2166972, "lon": 27.7212746}, {"type": "node", "id": 4490729788, "lat": 64.2175657, "lon": 27.722306}, {"type": "node", "id": 4490729789, "lat": 64.2176601, "lon": 27.7221915}, {"type": "node", "id": 4491055713, "lat": 64.2204053, "lon": 27.7390917}, {"type": "node", "id": 4491055715, "lat": 64.2203496, "lon": 27.7372755}, {"type": "node", "id": 4491055754, "lat": 64.2215487, "lon": 27.7263241}, {"type": "node", "id": 4491055755, "lat": 64.2214497, "lon": 27.7267794}, {"type": "node", "id": 4491055756, "lat": 64.2209758, "lon": 27.7263322}, {"type": "node", "id": 4491055757, "lat": 64.221112, "lon": 27.725822}, {"type": "node", "id": 4491055762, "lat": 64.2305469, "lon": 27.7159535}, {"type": "node", "id": 4491055763, "lat": 64.2294299, "lon": 27.7163438}, {"type": "node", "id": 4491055764, "lat": 64.2290764, "lon": 27.7160755}, {"type": "node", "id": 4491055765, "lat": 64.2288819, "lon": 27.716295}, {"type": "node", "id": 4491055777, "lat": 64.230653, "lon": 27.7172463}, {"type": "node", "id": 5044635290, "lat": 64.2230046, "lon": 27.7395795, "tags": {"amenity": "bench"}}, {"type": "node", "id": 5165436955, "lat": 64.2207711, "lon": 27.7315931}, {"type": "node", "id": 5165436956, "lat": 64.22079, "lon": 27.732181}, {"type": "node", "id": 5165436957, "lat": 64.2206741, "lon": 27.7322087}, {"type": "node", "id": 5165436958, "lat": 64.2206551, "lon": 27.7316137}, {"type": "node", "id": 5165437695, "lat": 64.2261872, "lon": 27.7441175}, {"type": "node", "id": 5165437696, "lat": 64.2266602, "lon": 27.7452124}, {"type": "node", "id": 5165437697, "lat": 64.2266846, "lon": 27.7451645}, {"type": "node", "id": 5165437698, "lat": 64.2268881, "lon": 27.7457132}, {"type": "node", "id": 5165437699, "lat": 64.2267051, "lon": 27.7460723}, {"type": "node", "id": 5165437700, "lat": 64.2266781, "lon": 27.7459994}, {"type": "node", "id": 5165437701, "lat": 64.2266517, "lon": 27.7460513}, {"type": "node", "id": 5165437702, "lat": 64.2259616, "lon": 27.7445973}, {"type": "node", "id": 5165437703, "lat": 64.2273226, "lon": 27.7472147}, {"type": "node", "id": 5165437704, "lat": 64.2271342, "lon": 27.7472353}, {"type": "node", "id": 5165437705, "lat": 64.2269364, "lon": 27.7467556}, {"type": "node", "id": 5165437706, "lat": 64.226943, "lon": 27.7461749}, {"type": "node", "id": 5165437707, "lat": 64.2270341, "lon": 27.7460405}, {"type": "node", "id": 5165437708, "lat": 64.2273128, "lon": 27.7460304}, {"type": "node", "id": 5165438050, "lat": 64.2228764, "lon": 27.7240732}, {"type": "node", "id": 5165438051, "lat": 64.2229431, "lon": 27.7242313}, {"type": "node", "id": 5165438052, "lat": 64.2230699, "lon": 27.7239485}, {"type": "node", "id": 5165438053, "lat": 64.2231617, "lon": 27.7241661}, {"type": "node", "id": 5165438054, "lat": 64.2232243, "lon": 27.7240264}, {"type": "node", "id": 5165438055, "lat": 64.2230659, "lon": 27.7236508}, {"type": "node", "id": 5264336733, "lat": 64.2284564, "lon": 27.7186886}, {"type": "node", "id": 5264336734, "lat": 64.230225, "lon": 27.7201136}, {"type": "node", "id": 5491862852, "lat": 64.223052, "lon": 27.7362367}, {"type": "node", "id": 5491862853, "lat": 64.2230386, "lon": 27.7362647}, {"type": "node", "id": 5491862856, "lat": 64.2226822, "lon": 27.7358492}, {"type": "node", "id": 5491862879, "lat": 64.2239749, "lon": 27.7327294}, {"type": "node", "id": 5491862880, "lat": 64.2242739, "lon": 27.7334757}, {"type": "node", "id": 5491862881, "lat": 64.2242429, "lon": 27.7335415}, {"type": "node", "id": 5491862882, "lat": 64.2244833, "lon": 27.7341411}, {"type": "node", "id": 5491862883, "lat": 64.2242026, "lon": 27.7347362}, {"type": "node", "id": 5491862884, "lat": 64.2240993, "lon": 27.7344787}, {"type": "node", "id": 5491862885, "lat": 64.2242422, "lon": 27.7341758}, {"type": "node", "id": 5491862886, "lat": 64.2241798, "lon": 27.7340202}, {"type": "node", "id": 5491862887, "lat": 64.2242231, "lon": 27.7339281}, {"type": "node", "id": 5491862888, "lat": 64.2241344, "lon": 27.7337071}, {"type": "node", "id": 5491862889, "lat": 64.2241468, "lon": 27.7336806}, {"type": "node", "id": 5491862890, "lat": 64.2239706, "lon": 27.7332441}, {"type": "node", "id": 5491862891, "lat": 64.2238269, "lon": 27.7335509}, {"type": "node", "id": 5491862892, "lat": 64.2240208, "lon": 27.7340308}, {"type": "node", "id": 5491862893, "lat": 64.2239757, "lon": 27.7341273}, {"type": "node", "id": 5491862894, "lat": 64.2239998, "lon": 27.7341871}, {"type": "node", "id": 5491862895, "lat": 64.2239383, "lon": 27.7343187}, {"type": "node", "id": 5491862896, "lat": 64.2237921, "lon": 27.7339577}, {"type": "node", "id": 5491862897, "lat": 64.2238429, "lon": 27.7338488}, {"type": "node", "id": 5491862898, "lat": 64.2237662, "lon": 27.7336597}, {"type": "node", "id": 5491862899, "lat": 64.2236072, "lon": 27.7340007}, {"type": "node", "id": 5491862900, "lat": 64.2235699, "lon": 27.7339089}, {"type": "node", "id": 5491862901, "lat": 64.2235441, "lon": 27.7339642}, {"type": "node", "id": 5491862902, "lat": 64.2235164, "lon": 27.7338959}, {"type": "node", "id": 5491862903, "lat": 64.2235455, "lon": 27.7338332}, {"type": "node", "id": 5491862904, "lat": 64.2235053, "lon": 27.733734}, {"type": "node", "id": 5491862905, "lat": 64.2236674, "lon": 27.7333857}, {"type": "node", "id": 5491862906, "lat": 64.2236935, "lon": 27.7334498}, {"type": "node", "id": 5491862907, "lat": 64.2237518, "lon": 27.7333245}, {"type": "node", "id": 5491862908, "lat": 64.2237249, "lon": 27.7332584}, {"type": "node", "id": 5491862910, "lat": 64.2234531, "lon": 27.733783}, {"type": "node", "id": 5491862911, "lat": 64.2236306, "lon": 27.7342215}, {"type": "node", "id": 5491862912, "lat": 64.2235243, "lon": 27.7344491}, {"type": "node", "id": 5491862913, "lat": 64.2233468, "lon": 27.7340106}, {"type": "node", "id": 5491862914, "lat": 64.2246369, "lon": 27.7344328}, {"type": "node", "id": 5491862915, "lat": 64.2248739, "lon": 27.7350441}, {"type": "node", "id": 5554563104, "lat": 64.2232611, "lon": 27.7377566}, {"type": "node", "id": 5554563105, "lat": 64.223369, "lon": 27.7380493}, {"type": "node", "id": 5554563113, "lat": 64.2241694, "lon": 27.7353719, "tags": {"addr:city": "Kajaani", "addr:housenumber": "14", "addr:postcode": "87100", "addr:street": "Kauppakatu", "amenity": "cafe", "description": "A coffee house", "name": "Kahvikolo", "opening_hours": "Mo-Su 10:00-17:00"}}, {"type": "node", "id": 5554563115, "lat": 64.2261929, "lon": 27.7315308, "tags": {"amenity": "bar", "name": "Gr\u00f6n"}}, {"type": "node", "id": 5554563116, "lat": 64.2262543, "lon": 27.7320146, "tags": {"amenity": "bar", "name": "Rock House Kulma"}}, {"type": "node", "id": 5554563117, "lat": 64.2261208, "lon": 27.731747, "tags": {"amenity": "bar", "name": "Saint Kukko"}}, {"type": "node", "id": 5554563118, "lat": 64.2261315, "lon": 27.7303513, "tags": {"amenity": "nightclub", "name": "Club 96"}}, {"type": "node", "id": 5554563222, "lat": 64.2277192, "lon": 27.7265846}, {"type": "node", "id": 5554563225, "lat": 64.2274983, "lon": 27.7270649}, {"type": "node", "id": 6050680175, "lat": 64.2158727, "lon": 27.710959}, {"type": "node", "id": 6050680176, "lat": 64.2156459, "lon": 27.7114612}, {"type": "node", "id": 6050680178, "lat": 64.2159389, "lon": 27.7111251}, {"type": "node", "id": 6050680179, "lat": 64.2168838, "lon": 27.7186814, "tags": {"addr:city": "Kajaani", "addr:housenumber": "3", "addr:postcode": "87100", "addr:street": "Opintie", "amenity": "restaurant", "name": "Kis\u00e4lli opetusravintola"}}, {"type": "node", "id": 6050680180, "lat": 64.2173412, "lon": 27.7175589}, {"type": "node", "id": 6050680181, "lat": 64.2173536, "lon": 27.7179387}, {"type": "node", "id": 6050680182, "lat": 64.2168743, "lon": 27.7180216}, {"type": "node", "id": 6050680183, "lat": 64.2168618, "lon": 27.717642}, {"type": "node", "id": 6050680184, "lat": 64.2167541, "lon": 27.7176425}, {"type": "node", "id": 6050684185, "lat": 64.216547, "lon": 27.7176853}, {"type": "node", "id": 6050684186, "lat": 64.2165621, "lon": 27.7179265}, {"type": "node", "id": 6050684189, "lat": 64.216715, "lon": 27.7179068}, {"type": "node", "id": 6050689964, "lat": 64.2155589, "lon": 27.708742}, {"type": "node", "id": 6052373296, "lat": 64.2293478, "lon": 27.7214002}, {"type": "node", "id": 6052373297, "lat": 64.2292573, "lon": 27.7219785}, {"type": "node", "id": 6052373298, "lat": 64.2290256, "lon": 27.7217866}, {"type": "node", "id": 6052373299, "lat": 64.2291161, "lon": 27.7212083}, {"type": "node", "id": 6052373300, "lat": 64.2292351, "lon": 27.7224338}, {"type": "node", "id": 6052373301, "lat": 64.2292059, "lon": 27.7226148}, {"type": "node", "id": 6052373302, "lat": 64.2290819, "lon": 27.7225092}, {"type": "node", "id": 6052373303, "lat": 64.229111, "lon": 27.7223282}, {"type": "node", "id": 6052373304, "lat": 64.2295828, "lon": 27.7201195}, {"type": "node", "id": 6052373305, "lat": 64.229737, "lon": 27.7202462}, {"type": "node", "id": 6052373306, "lat": 64.2295857, "lon": 27.7212207}, {"type": "node", "id": 6052373307, "lat": 64.2294315, "lon": 27.7210941}, {"type": "node", "id": 6052373308, "lat": 64.2297098, "lon": 27.7208599}, {"type": "node", "id": 6052373309, "lat": 64.2300762, "lon": 27.7211678}, {"type": "node", "id": 6052373310, "lat": 64.2301607, "lon": 27.7206362}, {"type": "node", "id": 6052373311, "lat": 64.2297943, "lon": 27.7203282}, {"type": "node", "id": 6052373316, "lat": 64.2300775, "lon": 27.7257223}, {"type": "node", "id": 6052373317, "lat": 64.230215, "lon": 27.7246486}, {"type": "node", "id": 6052373318, "lat": 64.2301046, "lon": 27.7245738}, {"type": "node", "id": 6052373319, "lat": 64.2299846, "lon": 27.7255113}, {"type": "node", "id": 6052381553, "lat": 64.230016, "lon": 27.7174837}, {"type": "node", "id": 6052381554, "lat": 64.2298697, "lon": 27.7174867}, {"type": "node", "id": 6052381555, "lat": 64.2298756, "lon": 27.718957}, {"type": "node", "id": 6052381556, "lat": 64.2300218, "lon": 27.7189539}, {"type": "node", "id": 6052441987, "lat": 64.2235699, "lon": 27.7345642}, {"type": "node", "id": 6052441988, "lat": 64.2237751, "lon": 27.7350305}, {"type": "node", "id": 6052441989, "lat": 64.223971, "lon": 27.7345747}, {"type": "node", "id": 6052441990, "lat": 64.2237658, "lon": 27.7341084}, {"type": "node", "id": 6052441991, "lat": 64.2243082, "lon": 27.7344273, "tags": {"addr:city": "Kajaani", "addr:housenumber": "14", "addr:postcode": "87100", "addr:street": "Kauppakatu", "amenity": "theatre", "name": "Kajaanin kaupunginteatteri", "operator": "City of Kajaani", "wikidata": "Q11869079", "wikipedia": "fi:Kajaanin kaupunginteatteri"}}, {"type": "node", "id": 6052443187, "lat": 64.2268577, "lon": 27.7271429}, {"type": "node", "id": 6052443191, "lat": 64.2271252, "lon": 27.7265852}, {"type": "node", "id": 6052471872, "lat": 64.2255976, "lon": 27.729884}, {"type": "node", "id": 6052471873, "lat": 64.2259043, "lon": 27.7306967}, {"type": "node", "id": 6052471874, "lat": 64.2258203, "lon": 27.7308845}, {"type": "node", "id": 6052471875, "lat": 64.2256524, "lon": 27.7304688}, {"type": "node", "id": 6052471876, "lat": 64.2255287, "lon": 27.7307209}, {"type": "node", "id": 6052471877, "lat": 64.2253818, "lon": 27.73034}, {"type": "node", "id": 6052490754, "lat": 64.2229422, "lon": 27.7380772}, {"type": "node", "id": 6052490755, "lat": 64.2231949, "lon": 27.7387079}, {"type": "node", "id": 6052490756, "lat": 64.2229398, "lon": 27.7392088}, {"type": "node", "id": 6052490757, "lat": 64.2228203, "lon": 27.7390461}, {"type": "node", "id": 6052588255, "lat": 64.2285913, "lon": 27.7254058}, {"type": "node", "id": 6052588256, "lat": 64.2285054, "lon": 27.7251915}, {"type": "node", "id": 6052588257, "lat": 64.2283549, "lon": 27.7255105}, {"type": "node", "id": 6052588258, "lat": 64.2282638, "lon": 27.7252831}, {"type": "node", "id": 6052588259, "lat": 64.2281766, "lon": 27.7254678}, {"type": "node", "id": 6052588260, "lat": 64.2283536, "lon": 27.7259095}, {"type": "node", "id": 6052605238, "lat": 64.2273772, "lon": 27.7322893}, {"type": "node", "id": 6052605239, "lat": 64.2275523, "lon": 27.7327501}, {"type": "node", "id": 6052605240, "lat": 64.2280104, "lon": 27.7317364}, {"type": "node", "id": 6052637820, "lat": 64.2130868, "lon": 27.7173706}, {"type": "node", "id": 6052637821, "lat": 64.2130867, "lon": 27.7171178}, {"type": "node", "id": 6052637822, "lat": 64.2128845, "lon": 27.7170979}, {"type": "node", "id": 6052637823, "lat": 64.2128754, "lon": 27.7173455}, {"type": "node", "id": 6052637824, "lat": 64.2131574, "lon": 27.7166345}, {"type": "node", "id": 6052637825, "lat": 64.2137713, "lon": 27.716634}, {"type": "node", "id": 6052637826, "lat": 64.2137716, "lon": 27.7162849}, {"type": "node", "id": 6052637827, "lat": 64.2131597, "lon": 27.7162758}, {"type": "node", "id": 6052637828, "lat": 64.2121204, "lon": 27.7166608}, {"type": "node", "id": 6052637829, "lat": 64.2127025, "lon": 27.7166811}, {"type": "node", "id": 6052637830, "lat": 64.2127053, "lon": 27.7162787}, {"type": "node", "id": 6052637831, "lat": 64.2121141, "lon": 27.7162759}, {"type": "node", "id": 6052637857, "lat": 64.2158062, "lon": 27.7188322}, {"type": "node", "id": 6052637858, "lat": 64.2158429, "lon": 27.7197047}, {"type": "node", "id": 6052684438, "lat": 64.2137234, "lon": 27.7176736}, {"type": "node", "id": 6052684439, "lat": 64.2137205, "lon": 27.7178226}, {"type": "node", "id": 6052684440, "lat": 64.2134424, "lon": 27.7177942}, {"type": "node", "id": 6052684441, "lat": 64.2134453, "lon": 27.7176451}, {"type": "node", "id": 6052684446, "lat": 64.2150502, "lon": 27.7173314}, {"type": "node", "id": 6052684447, "lat": 64.2154179, "lon": 27.7174341}, {"type": "node", "id": 6052684448, "lat": 64.2154667, "lon": 27.7181159}, {"type": "node", "id": 6052684449, "lat": 64.2153488, "lon": 27.7182}, {"type": "node", "id": 6052684450, "lat": 64.2152595, "lon": 27.7177423}, {"type": "node", "id": 6052684451, "lat": 64.215162, "lon": 27.7178357}, {"type": "node", "id": 6052685293, "lat": 64.2204869, "lon": 27.7317655}, {"type": "node", "id": 6052685294, "lat": 64.2205268, "lon": 27.7328172}, {"type": "node", "id": 6052685295, "lat": 64.2204739, "lon": 27.7327932}, {"type": "node", "id": 6052685296, "lat": 64.220351, "lon": 27.7329591}, {"type": "node", "id": 6052685297, "lat": 64.2204652, "lon": 27.7333929}, {"type": "node", "id": 6052685298, "lat": 64.2202561, "lon": 27.7336897}, {"type": "node", "id": 6052685299, "lat": 64.2197979, "lon": 27.7319161}, {"type": "node", "id": 6052685300, "lat": 64.2198486, "lon": 27.7318508}, {"type": "node", "id": 6052685301, "lat": 64.2198675, "lon": 27.7319374}, {"type": "node", "id": 6052685302, "lat": 64.2200282, "lon": 27.7317179}, {"type": "node", "id": 6052685303, "lat": 64.2201326, "lon": 27.7321078}, {"type": "node", "id": 6052685304, "lat": 64.2202732, "lon": 27.7319394}, {"type": "node", "id": 6052685305, "lat": 64.2202747, "lon": 27.7318066}, {"type": "node", "id": 6052685321, "lat": 64.2214633, "lon": 27.748219}, {"type": "node", "id": 6052685322, "lat": 64.2214567, "lon": 27.7480509}, {"type": "node", "id": 6052685323, "lat": 64.2209314, "lon": 27.7474198}, {"type": "node", "id": 6052685324, "lat": 64.2213032, "lon": 27.7473088}, {"type": "node", "id": 6052685327, "lat": 64.2208494, "lon": 27.7433643}, {"type": "node", "id": 6052685328, "lat": 64.220823, "lon": 27.7427152}, {"type": "node", "id": 6052685329, "lat": 64.220758, "lon": 27.7427152}, {"type": "node", "id": 6052685330, "lat": 64.2207539, "lon": 27.7425471}, {"type": "node", "id": 6052685331, "lat": 64.2201913, "lon": 27.7426778}, {"type": "node", "id": 6052685332, "lat": 64.2202137, "lon": 27.7433083}, {"type": "node", "id": 6052685333, "lat": 64.2206646, "lon": 27.7432195}, {"type": "node", "id": 6052685334, "lat": 64.2206727, "lon": 27.7434063}, {"type": "node", "id": 6052747784, "lat": 64.224137, "lon": 27.7266112}, {"type": "node", "id": 6052749385, "lat": 64.2242636, "lon": 27.7263603}, {"type": "node", "id": 6052749386, "lat": 64.2243276, "lon": 27.7265311}, {"type": "node", "id": 6052749388, "lat": 64.2242193, "lon": 27.7267588}, {"type": "node", "id": 6052749389, "lat": 64.2241755, "lon": 27.7268457}, {"type": "node", "id": 6052749390, "lat": 64.2241602, "lon": 27.7268478}, {"type": "node", "id": 6052749391, "lat": 64.2241454, "lon": 27.7268315}, {"type": "node", "id": 6052749392, "lat": 64.2241313, "lon": 27.7267848}, {"type": "node", "id": 6052749393, "lat": 64.224133, "lon": 27.7267095}, {"type": "node", "id": 6052749394, "lat": 64.2241564, "lon": 27.726663}, {"type": "node", "id": 6052749395, "lat": 64.2241269, "lon": 27.7267467}, {"type": "node", "id": 6052749404, "lat": 64.2251465, "lon": 27.727628}, {"type": "node", "id": 6052749405, "lat": 64.2252137, "lon": 27.7277906}, {"type": "node", "id": 6052749406, "lat": 64.2251696, "lon": 27.7278869}, {"type": "node", "id": 6052749407, "lat": 64.2251024, "lon": 27.7277243}, {"type": "node", "id": 6052749434, "lat": 64.2229051, "lon": 27.7302468, "tags": {"addr:city": "Kajaani", "addr:housenumber": "5", "addr:postcode": "87100", "addr:street": "L\u00f6nnrotinkatu", "amenity": "bar", "name": "Balls", "opening_hours": "Tu-Th 17:00-00:00, Fr-Sa 17:00-02:00", "outdoor_seating": "terrace", "sport": "billiards"}}, {"type": "node", "id": 6052749439, "lat": 64.2239459, "lon": 27.7283143}, {"type": "node", "id": 6052749440, "lat": 64.2238549, "lon": 27.7280905}, {"type": "node", "id": 6052749441, "lat": 64.2236643, "lon": 27.7285001}, {"type": "node", "id": 6052749442, "lat": 64.2237553, "lon": 27.728724}, {"type": "node", "id": 6172785291, "lat": 64.2326766, "lon": 27.7064079}, {"type": "node", "id": 6172785292, "lat": 64.2324318, "lon": 27.7071205}, {"type": "node", "id": 6172785293, "lat": 64.2323282, "lon": 27.7069242}, {"type": "node", "id": 6172785294, "lat": 64.2323508, "lon": 27.7068557}, {"type": "node", "id": 6172785295, "lat": 64.2325313, "lon": 27.7063355}, {"type": "node", "id": 6172785296, "lat": 64.2326816, "lon": 27.7061953}, {"type": "node", "id": 6187989296, "lat": 64.2207685, "lon": 27.7393742}, {"type": "node", "id": 6187989298, "lat": 64.2205299, "lon": 27.7399523}, {"type": "node", "id": 6187989306, "lat": 64.2201635, "lon": 27.7421101}, {"type": "node", "id": 6187989309, "lat": 64.2200787, "lon": 27.7402116}, {"type": "node", "id": 6187989310, "lat": 64.2202174, "lon": 27.7400492}, {"type": "node", "id": 6187989311, "lat": 64.2208511, "lon": 27.7399481}, {"type": "node", "id": 6187989312, "lat": 64.2208248, "lon": 27.7390419}, {"type": "node", "id": 6187989315, "lat": 64.219801, "lon": 27.7374313}, {"type": "node", "id": 6187989316, "lat": 64.2200953, "lon": 27.7400623}, {"type": "node", "id": 6222594959, "lat": 64.2220738, "lon": 27.7065101, "tags": {"amenity": "fast_food", "name": "Purolan Grilli"}}, {"type": "node", "id": 6277294346, "lat": 64.2241224, "lon": 27.7186295}, {"type": "node", "id": 6277294347, "lat": 64.2241737, "lon": 27.7194661}, {"type": "node", "id": 6277294348, "lat": 64.2240468, "lon": 27.7195073}, {"type": "node", "id": 6277294349, "lat": 64.2239954, "lon": 27.7186707}, {"type": "node", "id": 6417878743, "lat": 64.2138253, "lon": 27.7314875}, {"type": "node", "id": 6472180280, "lat": 64.2274836, "lon": 27.7230427}, {"type": "node", "id": 6472180281, "lat": 64.2273494, "lon": 27.723329}, {"type": "node", "id": 6472180282, "lat": 64.2273001, "lon": 27.7232067}, {"type": "node", "id": 6472180283, "lat": 64.2274343, "lon": 27.7229205}, {"type": "node", "id": 6488686955, "lat": 64.2110292, "lon": 27.7180019}, {"type": "node", "id": 6488691901, "lat": 64.2152359, "lon": 27.7129776}, {"type": "node", "id": 6488691902, "lat": 64.2153238, "lon": 27.7130356}, {"type": "node", "id": 6488691903, "lat": 64.2154876, "lon": 27.7129389}, {"type": "node", "id": 6488691904, "lat": 64.215596, "lon": 27.7129413}, {"type": "node", "id": 6488691907, "lat": 64.2157935, "lon": 27.7139385}, {"type": "node", "id": 6488691993, "lat": 64.2168218, "lon": 27.7081218}, {"type": "node", "id": 6488691994, "lat": 64.2167717, "lon": 27.708229}, {"type": "node", "id": 6488691995, "lat": 64.2166982, "lon": 27.7083197}, {"type": "node", "id": 6488691996, "lat": 64.2166394, "lon": 27.7083416}, {"type": "node", "id": 6488691997, "lat": 64.2165714, "lon": 27.7083204}, {"type": "node", "id": 6488691998, "lat": 64.2164076, "lon": 27.7081486}, {"type": "node", "id": 6488691999, "lat": 64.2159583, "lon": 27.7090134}, {"type": "node", "id": 6488692042, "lat": 64.2166942, "lon": 27.7293481}, {"type": "node", "id": 6488692043, "lat": 64.2167288, "lon": 27.7296257}, {"type": "node", "id": 6488692044, "lat": 64.2167579, "lon": 27.7298593}, {"type": "node", "id": 6488692054, "lat": 64.2169184, "lon": 27.7148405}, {"type": "node", "id": 6488692055, "lat": 64.2171093, "lon": 27.7148314}, {"type": "node", "id": 6488692056, "lat": 64.2171972, "lon": 27.7146887}, {"type": "node", "id": 6488692057, "lat": 64.2172856, "lon": 27.7143676}, {"type": "node", "id": 6488692060, "lat": 64.2173932, "lon": 27.715007}, {"type": "node", "id": 6488694066, "lat": 64.2137718, "lon": 27.7244191}, {"type": "node", "id": 6488696358, "lat": 64.2146524, "lon": 27.7119058}, {"type": "node", "id": 6488696359, "lat": 64.2147335, "lon": 27.712167}, {"type": "node", "id": 6488696360, "lat": 64.2148622, "lon": 27.7122661}, {"type": "node", "id": 6488696361, "lat": 64.2149159, "lon": 27.7124808}, {"type": "node", "id": 6488696363, "lat": 64.2149903, "lon": 27.7123856}, {"type": "node", "id": 6488696364, "lat": 64.2150409, "lon": 27.7124776}, {"type": "node", "id": 6488696365, "lat": 64.215096, "lon": 27.7124936}, {"type": "node", "id": 6488696366, "lat": 64.2151319, "lon": 27.7125595}, {"type": "node", "id": 6488696367, "lat": 64.215183, "lon": 27.7128924}, {"type": "node", "id": 6488696555, "lat": 64.2167602, "lon": 27.7042078}, {"type": "node", "id": 6488696556, "lat": 64.2166394, "lon": 27.7042101}, {"type": "node", "id": 6488696557, "lat": 64.216395, "lon": 27.7043033}, {"type": "node", "id": 6488696558, "lat": 64.2162509, "lon": 27.7045579}, {"type": "node", "id": 6488696559, "lat": 64.2161862, "lon": 27.7047236}, {"type": "node", "id": 6488696560, "lat": 64.2161116, "lon": 27.7049412}, {"type": "node", "id": 6488696563, "lat": 64.2160981, "lon": 27.7060192}, {"type": "node", "id": 6488696564, "lat": 64.2161326, "lon": 27.7060526}, {"type": "node", "id": 6488696565, "lat": 64.2162005, "lon": 27.7061015}, {"type": "node", "id": 6488696569, "lat": 64.216287, "lon": 27.7061409}, {"type": "node", "id": 6488696570, "lat": 64.2163397, "lon": 27.7061475}, {"type": "node", "id": 6488696571, "lat": 64.2165159, "lon": 27.7061703}, {"type": "node", "id": 6488696589, "lat": 64.2152766, "lon": 27.7083982}, {"type": "node", "id": 6488696593, "lat": 64.2153679, "lon": 27.7096232}, {"type": "node", "id": 6488696594, "lat": 64.214654, "lon": 27.7111324}, {"type": "node", "id": 6488696595, "lat": 64.2146274, "lon": 27.7114893}, {"type": "node", "id": 6574980375, "lat": 64.2227107, "lon": 27.7356887, "tags": {"addr:city": "Kajaani", "addr:postcode": "87100", "addr:street": "Pohjolankatu 3", "amenity": "atm", "atm": "yes", "check_date": "2023-10-13", "name": "Otto"}}, {"type": "node", "id": 6576325227, "lat": 64.2250921, "lon": 27.732862, "tags": {"amenity": "post_box", "operator": "Posti", "operator:wikidata": "Q843453"}}, {"type": "node", "id": 6581902683, "lat": 64.2252439, "lon": 27.7181674}, {"type": "node", "id": 6581902684, "lat": 64.2251847, "lon": 27.7180621}, {"type": "node", "id": 6581918685, "lat": 64.2246009, "lon": 27.7181767}, {"type": "node", "id": 6581918686, "lat": 64.2243317, "lon": 27.7182266}, {"type": "node", "id": 6581918687, "lat": 64.2242551, "lon": 27.7182884}, {"type": "node", "id": 6581929345, "lat": 64.2245759, "lon": 27.7182827}, {"type": "node", "id": 6585726158, "lat": 64.2311591, "lon": 27.724792, "tags": {"addr:city": "Kajaani", "addr:housenumber": "4", "addr:postcode": "87200", "addr:street": "Kalkkisillantie", "amenity": "bar", "name": "Kalkkisillan laituriterassi", "opening_hours": "week 24-35 We-Sa 15:00-22:00", "outdoor_seating": "yes", "website": "https://oulujarviristeilyt.fi/category/11/laituriterassi"}}, {"type": "node", "id": 6628706366, "lat": 64.2153394, "lon": 27.7083174}, {"type": "node", "id": 6628706374, "lat": 64.2165714, "lon": 27.7153215}, {"type": "node", "id": 6628706375, "lat": 64.2164898, "lon": 27.7153802}, {"type": "node", "id": 6628706376, "lat": 64.2164562, "lon": 27.7144441}, {"type": "node", "id": 6628706377, "lat": 64.2165253, "lon": 27.7144319}, {"type": "node", "id": 6628706378, "lat": 64.2165033, "lon": 27.7139252}, {"type": "node", "id": 6628706379, "lat": 64.2164367, "lon": 27.7139412}, {"type": "node", "id": 6628706380, "lat": 64.216325, "lon": 27.7138665}, {"type": "node", "id": 6628706381, "lat": 64.216317, "lon": 27.7137077}, {"type": "node", "id": 6628706382, "lat": 64.2162749, "lon": 27.7137131}, {"type": "node", "id": 6629635490, "lat": 64.2245399, "lon": 27.7360171}, {"type": "node", "id": 6629635491, "lat": 64.2245972, "lon": 27.7358686}, {"type": "node", "id": 6629635492, "lat": 64.2242992, "lon": 27.735308}, {"type": "node", "id": 6629635503, "lat": 64.225854, "lon": 27.7322603}, {"type": "node", "id": 6629635504, "lat": 64.2258404, "lon": 27.7322259}, {"type": "node", "id": 6629635505, "lat": 64.2261267, "lon": 27.7325269}, {"type": "node", "id": 6629635506, "lat": 64.2261465, "lon": 27.7324855}, {"type": "node", "id": 6629660052, "lat": 64.2225828, "lon": 27.7243375}, {"type": "node", "id": 6629660055, "lat": 64.2223446, "lon": 27.7237483}, {"type": "node", "id": 6629660056, "lat": 64.2222572, "lon": 27.7230246}, {"type": "node", "id": 6629660062, "lat": 64.2219675, "lon": 27.7233838}, {"type": "node", "id": 6629660063, "lat": 64.2222051, "lon": 27.7228915}, {"type": "node", "id": 6629660064, "lat": 64.2225362, "lon": 27.724437}, {"type": "node", "id": 6629660065, "lat": 64.2222553, "lon": 27.723742}, {"type": "node", "id": 6629660066, "lat": 64.2225179, "lon": 27.723181}, {"type": "node", "id": 6629660067, "lat": 64.2225606, "lon": 27.7232866}, {"type": "node", "id": 6629660068, "lat": 64.2224949, "lon": 27.7230795}, {"type": "node", "id": 6629660069, "lat": 64.2224587, "lon": 27.7229759}, {"type": "node", "id": 6629660070, "lat": 64.2222291, "lon": 27.7234249}, {"type": "node", "id": 6629660071, "lat": 64.2221871, "lon": 27.7233206}, {"type": "node", "id": 6629660072, "lat": 64.2218255, "lon": 27.7230581}, {"type": "node", "id": 6629660073, "lat": 64.2219511, "lon": 27.7225837}, {"type": "node", "id": 6629660074, "lat": 64.2218816, "lon": 27.722478}, {"type": "node", "id": 6629660075, "lat": 64.2217325, "lon": 27.722943}, {"type": "node", "id": 6629660076, "lat": 64.2217346, "lon": 27.7233024}, {"type": "node", "id": 6629660077, "lat": 64.2218366, "lon": 27.7235368}, {"type": "node", "id": 6629660078, "lat": 64.2220145, "lon": 27.7235198}, {"type": "node", "id": 6629660079, "lat": 64.2224577, "lon": 27.7245988}, {"type": "node", "id": 6629660080, "lat": 64.2224791, "lon": 27.7245541}, {"type": "node", "id": 6629660081, "lat": 64.2221126, "lon": 27.7236361}, {"type": "node", "id": 6629660082, "lat": 64.2222151, "lon": 27.7236714}, {"type": "node", "id": 6629660083, "lat": 64.2221672, "lon": 27.7235453}, {"type": "node", "id": 6629660112, "lat": 64.2214454, "lon": 27.7247843}, {"type": "node", "id": 6629660113, "lat": 64.2213502, "lon": 27.7245655}, {"type": "node", "id": 6629660114, "lat": 64.221392, "lon": 27.7243161}, {"type": "node", "id": 6629660115, "lat": 64.2214507, "lon": 27.7243529}, {"type": "node", "id": 6629660116, "lat": 64.2214783, "lon": 27.7242998}, {"type": "node", "id": 6629660117, "lat": 64.2215245, "lon": 27.7243897}, {"type": "node", "id": 6629660118, "lat": 64.2215823, "lon": 27.7242936}, {"type": "node", "id": 6629660119, "lat": 64.221617, "lon": 27.724404}, {"type": "node", "id": 6629660120, "lat": 64.221601, "lon": 27.7244327}, {"type": "node", "id": 6629660121, "lat": 64.2216019, "lon": 27.7244633}, {"type": "node", "id": 6629660122, "lat": 64.2216259, "lon": 27.7245063}, {"type": "node", "id": 6629660123, "lat": 64.2216054, "lon": 27.7246003}, {"type": "node", "id": 6629660124, "lat": 64.221577, "lon": 27.7245574}, {"type": "node", "id": 6629660125, "lat": 64.221545, "lon": 27.7245758}, {"type": "node", "id": 6629660126, "lat": 64.2215236, "lon": 27.724633}, {"type": "node", "id": 6629660127, "lat": 64.2215263, "lon": 27.7247107}, {"type": "node", "id": 6629660128, "lat": 64.2214801, "lon": 27.7247168}, {"type": "node", "id": 6629704743, "lat": 64.2273056, "lon": 27.7020077}, {"type": "node", "id": 6629704744, "lat": 64.2272822, "lon": 27.7018935}, {"type": "node", "id": 6629704745, "lat": 64.2273718, "lon": 27.7017966}, {"type": "node", "id": 6629704746, "lat": 64.2273563, "lon": 27.7017206}, {"type": "node", "id": 6629704747, "lat": 64.2273906, "lon": 27.7016835}, {"type": "node", "id": 6629704748, "lat": 64.2273488, "lon": 27.7014791}, {"type": "node", "id": 6629704749, "lat": 64.2271184, "lon": 27.7017282}, {"type": "node", "id": 6629704842, "lat": 64.2227659, "lon": 27.7139854}, {"type": "node", "id": 6629704843, "lat": 64.2227793, "lon": 27.7139515}, {"type": "node", "id": 6629704844, "lat": 64.2227493, "lon": 27.7137983}, {"type": "node", "id": 6629704845, "lat": 64.2225878, "lon": 27.7139655}, {"type": "node", "id": 6629704846, "lat": 64.2225299, "lon": 27.7136697}, {"type": "node", "id": 6629704847, "lat": 64.222689, "lon": 27.713505}, {"type": "node", "id": 6629704848, "lat": 64.2226581, "lon": 27.7133475}, {"type": "node", "id": 6629704849, "lat": 64.2223664, "lon": 27.7136494}, {"type": "node", "id": 6629704850, "lat": 64.2223948, "lon": 27.7137945}, {"type": "node", "id": 6629704851, "lat": 64.2224402, "lon": 27.7137475}, {"type": "node", "id": 6629704852, "lat": 64.2225309, "lon": 27.7142113}, {"type": "node", "id": 6629704853, "lat": 64.2225664, "lon": 27.7141747}, {"type": "node", "id": 6629704854, "lat": 64.2225904, "lon": 27.7142976}, {"type": "node", "id": 6629704855, "lat": 64.2227871, "lon": 27.7140942}, {"type": "node", "id": 6631225811, "lat": 64.2266034, "lon": 27.703903}, {"type": "node", "id": 6631225815, "lat": 64.2274761, "lon": 27.7028103}, {"type": "node", "id": 6631225816, "lat": 64.2273636, "lon": 27.7022791}, {"type": "node", "id": 6631225857, "lat": 64.2270963, "lon": 27.7016117}, {"type": "node", "id": 6631225858, "lat": 64.2268174, "lon": 27.701931}, {"type": "node", "id": 6631225859, "lat": 64.227198, "lon": 27.7031415}, {"type": "node", "id": 6631225860, "lat": 64.2273778, "lon": 27.7029204}, {"type": "node", "id": 6631336953, "lat": 64.2248077, "lon": 27.7282635}, {"type": "node", "id": 6631336954, "lat": 64.2244659, "lon": 27.7289597}, {"type": "node", "id": 6631336955, "lat": 64.2247273, "lon": 27.7296384}, {"type": "node", "id": 6631336956, "lat": 64.2248411, "lon": 27.7294067}, {"type": "node", "id": 6631336957, "lat": 64.2246746, "lon": 27.7289742}, {"type": "node", "id": 6631336958, "lat": 64.2249026, "lon": 27.72851}, {"type": "node", "id": 6634274835, "lat": 64.2266962, "lon": 27.7165961}, {"type": "node", "id": 6634274837, "lat": 64.22655, "lon": 27.7168509}, {"type": "node", "id": 6634274838, "lat": 64.2266408, "lon": 27.7167518}, {"type": "node", "id": 6634274852, "lat": 64.2266085, "lon": 27.7154847}, {"type": "node", "id": 6634274853, "lat": 64.2260782, "lon": 27.7156952}, {"type": "node", "id": 6634274854, "lat": 64.2261858, "lon": 27.7169321}, {"type": "node", "id": 6634274855, "lat": 64.2266631, "lon": 27.7160491}, {"type": "node", "id": 6634274856, "lat": 64.2265067, "lon": 27.7144213}, {"type": "node", "id": 6634274857, "lat": 64.2262059, "lon": 27.7145917}, {"type": "node", "id": 6634274860, "lat": 64.226206, "lon": 27.7156445}, {"type": "node", "id": 6634274872, "lat": 64.2266847, "lon": 27.7163156}, {"type": "node", "id": 6634274873, "lat": 64.2265799, "lon": 27.7152248}, {"type": "node", "id": 6634283089, "lat": 64.2199591, "lon": 27.7258394, "tags": {"amenity": "restaurant", "brand": "Rolls", "brand:wikidata": "Q3195068", "cuisine": "burger", "name": "Rolls"}}, {"type": "node", "id": 6634283090, "lat": 64.219956, "lon": 27.7257332, "tags": {"amenity": "restaurant"}}, {"type": "node", "id": 6634283092, "lat": 64.2199545, "lon": 27.72562, "tags": {"amenity": "cafe"}}, {"type": "node", "id": 6637674750, "lat": 64.224457, "lon": 27.7323628, "tags": {"amenity": "clinic", "brand": "Terveystalo", "brand:wikidata": "Q11897034", "brand:wikipedia": "fi:Terveystalo", "healthcare": "clinic", "name": "Terveystalo", "operator": "Terveystalo", "operator:type": "private", "operator:wikidata": "Q11897034"}}, {"type": "node", "id": 6637674763, "lat": 64.2243243, "lon": 27.7353659}, {"type": "node", "id": 6641930270, "lat": 64.22432, "lon": 27.7266377}, {"type": "node", "id": 6641930271, "lat": 64.2242362, "lon": 27.7268038}, {"type": "node", "id": 6641930272, "lat": 64.2243004, "lon": 27.7265852}, {"type": "node", "id": 6641930278, "lat": 64.2270913, "lon": 27.7288478}, {"type": "node", "id": 6641930279, "lat": 64.2271689, "lon": 27.7286828}, {"type": "node", "id": 6641930280, "lat": 64.2271319, "lon": 27.7285909}, {"type": "node", "id": 6641930281, "lat": 64.2270543, "lon": 27.7287559}, {"type": "node", "id": 6641930282, "lat": 64.2273413, "lon": 27.7284717}, {"type": "node", "id": 6641930283, "lat": 64.2273047, "lon": 27.728546}, {"type": "node", "id": 6641930284, "lat": 64.2273517, "lon": 27.7286686}, {"type": "node", "id": 6641973485, "lat": 64.2273989, "lon": 27.7285727}, {"type": "node", "id": 6641973486, "lat": 64.2273863, "lon": 27.7285399}, {"type": "node", "id": 6641973487, "lat": 64.2273757, "lon": 27.7285614}, {"type": "node", "id": 6641973493, "lat": 64.2292974, "lon": 27.7160279}, {"type": "node", "id": 6641973494, "lat": 64.2291976, "lon": 27.7159346}, {"type": "node", "id": 6641973541, "lat": 64.2211497, "lon": 27.7317761}, {"type": "node", "id": 6641973542, "lat": 64.2209515, "lon": 27.7318195}, {"type": "node", "id": 6641973543, "lat": 64.220939, "lon": 27.7315181}, {"type": "node", "id": 6641973544, "lat": 64.2211398, "lon": 27.7314824}, {"type": "node", "id": 6641973589, "lat": 64.2213704, "lon": 27.7370629}, {"type": "node", "id": 6641973590, "lat": 64.2211256, "lon": 27.7376002}, {"type": "node", "id": 6641973591, "lat": 64.2209927, "lon": 27.7372839}, {"type": "node", "id": 6641973592, "lat": 64.2209558, "lon": 27.7373614}, {"type": "node", "id": 6641973593, "lat": 64.2209331, "lon": 27.7373115}, {"type": "node", "id": 6641973594, "lat": 64.2208826, "lon": 27.7374206}, {"type": "node", "id": 6641973595, "lat": 64.220902, "lon": 27.7374819}, {"type": "node", "id": 6641973596, "lat": 64.2208923, "lon": 27.7375029}, {"type": "node", "id": 6641973597, "lat": 64.2209259, "lon": 27.7375858}, {"type": "node", "id": 6641973598, "lat": 64.2208983, "lon": 27.7376474}, {"type": "node", "id": 6641973599, "lat": 64.2209478, "lon": 27.7377619}, {"type": "node", "id": 6641973600, "lat": 64.2209043, "lon": 27.737853}, {"type": "node", "id": 6641973601, "lat": 64.2209671, "lon": 27.7380079}, {"type": "node", "id": 6641973602, "lat": 64.2210737, "lon": 27.7377692}, {"type": "node", "id": 6641973603, "lat": 64.2210892, "lon": 27.7378043}, {"type": "node", "id": 6641973604, "lat": 64.2210782, "lon": 27.7378303}, {"type": "node", "id": 6641973605, "lat": 64.2211625, "lon": 27.7380525}, {"type": "node", "id": 6641973606, "lat": 64.2214648, "lon": 27.7373102}, {"type": "node", "id": 6641973641, "lat": 64.2227702, "lon": 27.7331052}, {"type": "node", "id": 6641973642, "lat": 64.2226908, "lon": 27.7332828}, {"type": "node", "id": 6641973643, "lat": 64.2226457, "lon": 27.7331761}, {"type": "node", "id": 6641973644, "lat": 64.2226766, "lon": 27.7331069}, {"type": "node", "id": 6641973645, "lat": 64.2226132, "lon": 27.732957}, {"type": "node", "id": 6641973646, "lat": 64.2225776, "lon": 27.7330365}, {"type": "node", "id": 6641973647, "lat": 64.2225299, "lon": 27.7329237}, {"type": "node", "id": 6641973648, "lat": 64.2225944, "lon": 27.7327796}, {"type": "node", "id": 6641973649, "lat": 64.2226166, "lon": 27.7328319}, {"type": "node", "id": 6641973650, "lat": 64.2226336, "lon": 27.7327939}, {"type": "node", "id": 6641973651, "lat": 64.2226197, "lon": 27.7327612}, {"type": "node", "id": 6641973652, "lat": 64.2226376, "lon": 27.7327211}, {"type": "node", "id": 6641973653, "lat": 64.2227389, "lon": 27.7329608}, {"type": "node", "id": 6641973654, "lat": 64.2227236, "lon": 27.732995}, {"type": "node", "id": 6641973669, "lat": 64.223646, "lon": 27.7369566}, {"type": "node", "id": 6641973680, "lat": 64.2199273, "lon": 27.7402474}, {"type": "node", "id": 6641973682, "lat": 64.2199798, "lon": 27.7379786, "tags": {"amenity": "bicycle_parking", "bicycle_parking": "wall_loops", "covered": "yes"}}, {"type": "node", "id": 6642795162, "lat": 64.2173158, "lon": 27.7250877}, {"type": "node", "id": 6642795163, "lat": 64.2172995, "lon": 27.7249621}, {"type": "node", "id": 6642795164, "lat": 64.2173409, "lon": 27.725498}, {"type": "node", "id": 6642795165, "lat": 64.2173296, "lon": 27.7254112}, {"type": "node", "id": 6642795332, "lat": 64.216076, "lon": 27.7134643}, {"type": "node", "id": 6642795333, "lat": 64.2160614, "lon": 27.7133419}, {"type": "node", "id": 6642795334, "lat": 64.216096, "lon": 27.7132622}, {"type": "node", "id": 6642795335, "lat": 64.2160733, "lon": 27.7132489}, {"type": "node", "id": 6661631627, "lat": 64.2256868, "lon": 27.7230956}, {"type": "node", "id": 6661631628, "lat": 64.2261666, "lon": 27.7220712}, {"type": "node", "id": 6661631629, "lat": 64.225788, "lon": 27.7211242}, {"type": "node", "id": 6661631631, "lat": 64.225644, "lon": 27.7228843}, {"type": "node", "id": 6661631654, "lat": 64.2256015, "lon": 27.723273}, {"type": "node", "id": 6661631655, "lat": 64.2253114, "lon": 27.7240278}, {"type": "node", "id": 6661631657, "lat": 64.2252313, "lon": 27.7230156}, {"type": "node", "id": 6661631670, "lat": 64.2255406, "lon": 27.7221335}, {"type": "node", "id": 6661658502, "lat": 64.2325953, "lon": 27.7063308}, {"type": "node", "id": 6661658503, "lat": 64.2326156, "lon": 27.7062514}, {"type": "node", "id": 6661658504, "lat": 64.2326329, "lon": 27.7060481}, {"type": "node", "id": 6661658505, "lat": 64.2325943, "lon": 27.7061439}, {"type": "node", "id": 6662357389, "lat": 64.2252395, "lon": 27.7331601, "tags": {"amenity": "cafe", "name": "Murunen with a twist"}}, {"type": "node", "id": 6687633599, "lat": 64.2267471, "lon": 27.7045858}, {"type": "node", "id": 6687633600, "lat": 64.2269583, "lon": 27.7043103}, {"type": "node", "id": 6687633601, "lat": 64.2270456, "lon": 27.7041842}, {"type": "node", "id": 6687633602, "lat": 64.2269283, "lon": 27.7035811}, {"type": "node", "id": 6696704087, "lat": 64.2290446, "lon": 27.7274935}, {"type": "node", "id": 6696704088, "lat": 64.2290806, "lon": 27.7274081}, {"type": "node", "id": 6696704089, "lat": 64.2290003, "lon": 27.7272085}, {"type": "node", "id": 6703255156, "lat": 64.2205825, "lon": 27.7340885}, {"type": "node", "id": 6703255157, "lat": 64.2204745, "lon": 27.7341013}, {"type": "node", "id": 6703255158, "lat": 64.2204692, "lon": 27.7339313}, {"type": "node", "id": 6703255159, "lat": 64.2202315, "lon": 27.7339837}, {"type": "node", "id": 6703255160, "lat": 64.2202349, "lon": 27.7343461}, {"type": "node", "id": 6703255161, "lat": 64.2204701, "lon": 27.7343106}, {"type": "node", "id": 6703255162, "lat": 64.2204709, "lon": 27.7343386}, {"type": "node", "id": 6703255163, "lat": 64.2205908, "lon": 27.7343131}, {"type": "node", "id": 6703257395, "lat": 64.2178218, "lon": 27.7340351}, {"type": "node", "id": 6703257396, "lat": 64.2175689, "lon": 27.7340059}, {"type": "node", "id": 6703257397, "lat": 64.2175641, "lon": 27.734223}, {"type": "node", "id": 6703257398, "lat": 64.2176664, "lon": 27.7342349}, {"type": "node", "id": 6703257399, "lat": 64.217657, "lon": 27.7346657}, {"type": "node", "id": 6703257400, "lat": 64.2178076, "lon": 27.7346831}, {"type": "node", "id": 6967308597, "lat": 64.2229642, "lon": 27.7366671, "tags": {"amenity": "charging_station", "capacity": "8", "fee": "yes", "name": "K-Lataus (K-Citymarket Kajaani)", "operator": "K-Lataus", "operator:wikidata": "Q116172072"}}, {"type": "node", "id": 7172640237, "lat": 64.2168351, "lon": 27.7125563, "tags": {"addr:city": "Kajaani", "addr:housenumber": "1", "addr:postcode": "87100", "addr:street": "Ketunpolku", "amenity": "library", "email": "asiasanaa@kamk.fi", "name": "Kajaanin ammattikorkeakoulun kirjasto", "name:en": "KAMK Library", "opening_hours": "Mo-Ti,Th 09:00-16:00; We 10:00-17:00; Fr 09:00-15:00", "phone": "044 715 7043", "website": "https://libguides.kamk.fi/c.php?g=662645&p=4684430"}}, {"type": "node", "id": 7306630446, "lat": 64.2249193, "lon": 27.728916, "tags": {"amenity": "bench", "backrest": "yes"}}, {"type": "node", "id": 7306630447, "lat": 64.2250082, "lon": 27.7287149, "tags": {"amenity": "bench", "backrest": "yes"}}, {"type": "node", "id": 7306630448, "lat": 64.2247142, "lon": 27.7270583, "tags": {"amenity": "bench", "backrest": "yes"}}, {"type": "node", "id": 7306630449, "lat": 64.227042, "lon": 27.7347039, "tags": {"amenity": "bench", "backrest": "yes"}}, {"type": "node", "id": 7306630450, "lat": 64.2240117, "lon": 27.7275377, "tags": {"amenity": "waste_basket"}}, {"type": "node", "id": 7306630451, "lat": 64.2247051, "lon": 27.7270701, "tags": {"amenity": "waste_basket"}}, {"type": "node", "id": 7306630452, "lat": 64.2267983, "lon": 27.7347826, "tags": {"amenity": "bench", "backrest": "yes"}}, {"type": "node", "id": 7306630453, "lat": 64.2269362, "lon": 27.7348089, "tags": {"amenity": "bench", "backrest": "yes"}}, {"type": "node", "id": 7306630454, "lat": 64.2249714, "lon": 27.7287851, "tags": {"amenity": "bench", "backrest": "yes"}}, {"type": "node", "id": 7306630455, "lat": 64.2270732, "lon": 27.7346562, "tags": {"amenity": "bench", "backrest": "yes"}}, {"type": "node", "id": 7306630456, "lat": 64.2240209, "lon": 27.7275257, "tags": {"amenity": "bench", "backrest": "yes"}}, {"type": "node", "id": 7416610336, "lat": 64.2208887, "lon": 27.7472372, "tags": {"addr:city": "Kajaani", "addr:housenumber": "1", "addr:postcode": "87100", "addr:street": "Veturitie", "amenity": "pharmacy", "dispensing": "yes", "healthcare": "pharmacy", "name": "Veturiapteekki", "official_name": "Kajaanin 2. Veturi apteekki", "opening_hours": "Mo-Fr 08:00-20:00; Sa 09:00-17:00", "phone": "08 8790 300", "website": "https://www.veturiapteekki.fi"}}, {"type": "node", "id": 7692768589, "lat": 64.2264598, "lon": 27.7329798}, {"type": "node", "id": 7694184086, "lat": 64.2276827, "lon": 27.7273181}, {"type": "node", "id": 7694184089, "lat": 64.2276483, "lon": 27.7272336}, {"type": "node", "id": 7694184090, "lat": 64.2276027, "lon": 27.7273127}, {"type": "node", "id": 7694184091, "lat": 64.2276904, "lon": 27.7265096}, {"type": "node", "id": 7694184092, "lat": 64.2277186, "lon": 27.7264558}, {"type": "node", "id": 7694184093, "lat": 64.2278107, "lon": 27.7266562}, {"type": "node", "id": 7694184094, "lat": 64.2278227, "lon": 27.7266326}, {"type": "node", "id": 7694184095, "lat": 64.2277046, "lon": 27.7272663}, {"type": "node", "id": 7694184096, "lat": 64.2276943, "lon": 27.7272311}, {"type": "node", "id": 7694184097, "lat": 64.2277378, "lon": 27.7271458}, {"type": "node", "id": 7694184098, "lat": 64.227721, "lon": 27.7270961}, {"type": "node", "id": 7694184099, "lat": 64.2277492, "lon": 27.7270362}, {"type": "node", "id": 7694184100, "lat": 64.2277795, "lon": 27.7271044}, {"type": "node", "id": 7694184103, "lat": 64.2279714, "lon": 27.7276383}, {"type": "node", "id": 7702280813, "lat": 64.2255381, "lon": 27.7219457}, {"type": "node", "id": 7702410635, "lat": 64.2129482, "lon": 27.729033}, {"type": "node", "id": 7704541179, "lat": 64.2188821, "lon": 27.7331655}, {"type": "node", "id": 7704541180, "lat": 64.2187525, "lon": 27.7331906}, {"type": "node", "id": 7704541181, "lat": 64.2187551, "lon": 27.7332623}, {"type": "node", "id": 7704541182, "lat": 64.2185866, "lon": 27.733295}, {"type": "node", "id": 7704541183, "lat": 64.2185964, "lon": 27.7335638}, {"type": "node", "id": 7704541184, "lat": 64.2187603, "lon": 27.7335319}, {"type": "node", "id": 7704568185, "lat": 64.2187638, "lon": 27.7336254}, {"type": "node", "id": 7704568186, "lat": 64.218898, "lon": 27.7335994}, {"type": "node", "id": 7704754059, "lat": 64.2157427, "lon": 27.732428}, {"type": "node", "id": 7704754060, "lat": 64.2156301, "lon": 27.7325822}, {"type": "node", "id": 7704754061, "lat": 64.2155963, "lon": 27.7326561}, {"type": "node", "id": 7704754062, "lat": 64.2156349, "lon": 27.7329889}, {"type": "node", "id": 7704754063, "lat": 64.2157832, "lon": 27.7329057}, {"type": "node", "id": 7704754064, "lat": 64.2157923, "lon": 27.732841}, {"type": "node", "id": 7704754084, "lat": 64.2133737, "lon": 27.7340395}, {"type": "node", "id": 7704763485, "lat": 64.2132699, "lon": 27.7340389}, {"type": "node", "id": 7704763486, "lat": 64.2132694, "lon": 27.7345111}, {"type": "node", "id": 7704763487, "lat": 64.2134212, "lon": 27.734512}, {"type": "node", "id": 7704763488, "lat": 64.2134215, "lon": 27.7342983}, {"type": "node", "id": 7704763489, "lat": 64.2133734, "lon": 27.734298}, {"type": "node", "id": 7704763648, "lat": 64.2133488, "lon": 27.7354487}, {"type": "node", "id": 7704763931, "lat": 64.2155048, "lon": 27.7332306}, {"type": "node", "id": 7704763932, "lat": 64.2154733, "lon": 27.7332293}, {"type": "node", "id": 7704763933, "lat": 64.2154725, "lon": 27.7333309}, {"type": "node", "id": 7704763934, "lat": 64.215504, "lon": 27.7333321}, {"type": "node", "id": 7727090827, "lat": 64.22397, "lon": 27.7371022}, {"type": "node", "id": 7727090828, "lat": 64.2240458, "lon": 27.7372899}, {"type": "node", "id": 7727090829, "lat": 64.2242686, "lon": 27.7368581}, {"type": "node", "id": 7727090830, "lat": 64.2241974, "lon": 27.7366355}, {"type": "node", "id": 7727090832, "lat": 64.2242284, "lon": 27.7367323}, {"type": "node", "id": 7727090838, "lat": 64.2188273, "lon": 27.7333603, "tags": {"amenity": "social_facility", "name": "Spartak"}}, {"type": "node", "id": 7727090844, "lat": 64.2190106, "lon": 27.7328636}, {"type": "node", "id": 7727090845, "lat": 64.2190456, "lon": 27.7337648}, {"type": "node", "id": 7727090846, "lat": 64.2191249, "lon": 27.7337595}, {"type": "node", "id": 7727090847, "lat": 64.2191086, "lon": 27.7335127}, {"type": "node", "id": 7727090848, "lat": 64.2192323, "lon": 27.7334805}, {"type": "node", "id": 7727090849, "lat": 64.2192299, "lon": 27.7331909}, {"type": "node", "id": 7727090850, "lat": 64.2191623, "lon": 27.7331909}, {"type": "node", "id": 7727090851, "lat": 64.2191459, "lon": 27.7330085}, {"type": "node", "id": 7727090852, "lat": 64.2191086, "lon": 27.7330138}, {"type": "node", "id": 7727090853, "lat": 64.2191086, "lon": 27.7328207}, {"type": "node", "id": 7727090854, "lat": 64.2186307, "lon": 27.7329149}, {"type": "node", "id": 7727090855, "lat": 64.2186373, "lon": 27.7332532}, {"type": "node", "id": 7727090856, "lat": 64.2187353, "lon": 27.7332284}, {"type": "node", "id": 7727090857, "lat": 64.2187376, "lon": 27.7331479}, {"type": "node", "id": 7727090858, "lat": 64.2189056, "lon": 27.7331372}, {"type": "node", "id": 7727090859, "lat": 64.2189313, "lon": 27.7336307}, {"type": "node", "id": 7727090860, "lat": 64.2189593, "lon": 27.7336361}, {"type": "node", "id": 7727090861, "lat": 64.2189205, "lon": 27.7328581}, {"type": "node", "id": 7727090862, "lat": 64.2188895, "lon": 27.7333657, "tags": {"door": "yes", "indoor": "door"}}, {"type": "node", "id": 7727090867, "lat": 64.2205492, "lon": 27.7341452, "tags": {"amenity": "social_facility", "name": "Kajaanin 4H-kerho"}}, {"type": "node", "id": 7727090868, "lat": 64.2204599, "lon": 27.732807, "tags": {"door": "yes", "indoor": "door"}}, {"type": "node", "id": 7727090870, "lat": 64.2200691, "lon": 27.7329505, "tags": {"door": "yes", "indoor": "door"}}, {"type": "node", "id": 7727090874, "lat": 64.2199684, "lon": 27.7327796}, {"type": "node", "id": 7727090875, "lat": 64.2197876, "lon": 27.7330141}, {"type": "node", "id": 7727090876, "lat": 64.2200547, "lon": 27.7339458}, {"type": "node", "id": 7727090877, "lat": 64.2200775, "lon": 27.7342931}, {"type": "node", "id": 7727090878, "lat": 64.2202008, "lon": 27.7342931}, {"type": "node", "id": 7727090879, "lat": 64.2202303, "lon": 27.733757}, {"type": "node", "id": 7727090880, "lat": 64.2203911, "lon": 27.7330422}, {"type": "node", "id": 7727090881, "lat": 64.2204875, "lon": 27.7334428}, {"type": "node", "id": 7727090882, "lat": 64.2205465, "lon": 27.7333565}, {"type": "node", "id": 7727090883, "lat": 64.2205224, "lon": 27.7329744}, {"type": "node", "id": 7727090884, "lat": 64.2204741, "lon": 27.7328758}, {"type": "node", "id": 7727131486, "lat": 64.22045, "lon": 27.7332867}, {"type": "node", "id": 7727131532, "lat": 64.2211404, "lon": 27.7377444, "tags": {"addr:city": "Kajaani", "addr:housenumber": "2", "addr:postcode": "87100", "addr:street": "Asemakatu", "addr:unit": "2. krs", "amenity": "social_facility", "name": "Kainuun kulttuuripaja Marilyn", "operator": "Sosped", "phone": "044 2946518", "website": "https://www.facebook.com/kulttuuripajamarilyn/"}}, {"type": "node", "id": 7727131533, "lat": 64.2212011, "lon": 27.7378302, "tags": {"addr:city": "Kajaani", "addr:housenumber": "2", "addr:postcode": "87100", "addr:street": "Asemakatu", "amenity": "social_facility", "description": "Tarjoamme tukea, ohjausta ja neuvontaa, esimerkiksi opiskelu- tai ty\u00f6paikan l\u00f6yt\u00e4misess\u00e4, asunnon hakemisessa, toimeentuloasioissa tai miss\u00e4 tahansa nuoren mielt\u00e4 askarruttavissa asioissa. Voimme my\u00f6s l\u00e4hte\u00e4 mukaan esimerkiksi virastok\u00e4ynneille.", "email": "riikka.kehusmaa@kajaani.fi", "name": "Kajaanin etsiv\u00e4nuorisoty\u00f6 Ohjaamo Nupa", "operator": "Kajaanin kaupunki"}}, {"type": "node", "id": 7727131534, "lat": 64.2211844, "lon": 27.7374738, "tags": {"door": "yes", "indoor": "door"}}, {"type": "node", "id": 7727131535, "lat": 64.2210335, "lon": 27.7378607, "tags": {"door": "yes", "indoor": "door"}}, {"type": "node", "id": 7727131553, "lat": 64.2243201, "lon": 27.7344871, "tags": {"door": "yes", "indoor": "door"}}, {"type": "node", "id": 7727131554, "lat": 64.223877, "lon": 27.7329365, "tags": {"door": "yes", "indoor": "door"}}, {"type": "node", "id": 7727131555, "lat": 64.2238457, "lon": 27.7330028, "tags": {"door": "yes", "indoor": "door"}}, {"type": "node", "id": 7727131558, "lat": 64.2239339, "lon": 27.7329118, "tags": {"amenity": "toilets"}}, {"type": "node", "id": 7727131559, "lat": 64.2240463, "lon": 27.7332799, "tags": {"amenity": "restaurant", "name": "Kajaanin kaupungin ravintola"}}, {"type": "node", "id": 7727131562, "lat": 64.2239213, "lon": 27.7346902}, {"type": "node", "id": 7727131576, "lat": 64.2265805, "lon": 27.729708}, {"type": "node", "id": 7727131577, "lat": 64.2269195, "lon": 27.7284078}, {"type": "node", "id": 7727131578, "lat": 64.2266447, "lon": 27.7277088}, {"type": "node", "id": 7727131586, "lat": 64.2277969, "lon": 27.727064, "tags": {"door": "yes", "indoor": "door"}}, {"type": "node", "id": 7727131587, "lat": 64.2277263, "lon": 27.7267673, "tags": {"amenity": "toilets"}}, {"type": "node", "id": 7727131588, "lat": 64.2277647, "lon": 27.7266922, "tags": {"amenity": "toilets"}}, {"type": "node", "id": 7727131610, "lat": 64.2274479, "lon": 27.7235566}, {"type": "node", "id": 7727131611, "lat": 64.2273702, "lon": 27.7236983}, {"type": "node", "id": 7727131612, "lat": 64.2270192, "lon": 27.7226877}, {"type": "node", "id": 7727131613, "lat": 64.2274286, "lon": 27.7218875}, {"type": "node", "id": 7727131614, "lat": 64.2275155, "lon": 27.7220667}, {"type": "node", "id": 7727131615, "lat": 64.2271719, "lon": 27.7228602}, {"type": "node", "id": 7727201927, "lat": 64.2221846, "lon": 27.7249516, "tags": {"amenity": "social_facility", "name": "KELA"}}, {"type": "node", "id": 7727201928, "lat": 64.2222218, "lon": 27.7243814, "tags": {"amenity": "social_facility", "name": "Ammatinvalinnan psykologi"}}, {"type": "node", "id": 7727201931, "lat": 64.222327, "lon": 27.7248211}, {"type": "node", "id": 7727201932, "lat": 64.2223463, "lon": 27.7248608}, {"type": "node", "id": 7727201933, "lat": 64.2221625, "lon": 27.7252578}, {"type": "node", "id": 7727201934, "lat": 64.2221422, "lon": 27.7251971}, {"type": "node", "id": 7727201935, "lat": 64.2279582, "lon": 27.7271914, "tags": {"door": "yes", "indoor": "door"}}, {"type": "node", "id": 7727201945, "lat": 64.2289092, "lon": 27.729768}, {"type": "node", "id": 7727201946, "lat": 64.2288354, "lon": 27.7301529}, {"type": "node", "id": 7727201947, "lat": 64.2288846, "lon": 27.7301755}, {"type": "node", "id": 7727201948, "lat": 64.2288846, "lon": 27.7300321}, {"type": "node", "id": 7727201949, "lat": 64.2289617, "lon": 27.7298963}, {"type": "node", "id": 7727201963, "lat": 64.2279331, "lon": 27.7311875, "tags": {"door": "yes", "indoor": "door"}}, {"type": "node", "id": 7727201982, "lat": 64.2233348, "lon": 27.7376022}, {"type": "node", "id": 7727201983, "lat": 64.2234492, "lon": 27.7378738}, {"type": "node", "id": 7727202190, "lat": 64.223623, "lon": 27.7370525}, {"type": "node", "id": 7727202191, "lat": 64.2237352, "lon": 27.7371868}, {"type": "node", "id": 7727202192, "lat": 64.2236978, "lon": 27.7372566}, {"type": "node", "id": 7727202208, "lat": 64.2180899, "lon": 27.7358151, "tags": {"addr:city": "Kajaani", "addr:housenumber": "6", "addr:postcode": "87100", "addr:street": "Kasarminkatu", "amenity": "restaurant", "cuisine": "sushi", "name": "Sushi Domino", "opening_hours": "Mo-Sa 11:00-19:00; Su 12:00-19:00", "phone": "040 0304392", "website": "https://www.dominosushi.fi/"}}, {"type": "node", "id": 7731069766, "lat": 64.2206323, "lon": 27.7226316}, {"type": "node", "id": 7731069767, "lat": 64.2202831, "lon": 27.7244466}, {"type": "node", "id": 7731069768, "lat": 64.2197999, "lon": 27.723948}, {"type": "node", "id": 7731069769, "lat": 64.2196444, "lon": 27.7233836}, {"type": "node", "id": 7731069770, "lat": 64.2199912, "lon": 27.7220919}, {"type": "node", "id": 7731299010, "lat": 64.2260851, "lon": 27.7251402}, {"type": "node", "id": 7731299011, "lat": 64.2258378, "lon": 27.7246101}, {"type": "node", "id": 7731299012, "lat": 64.2256798, "lon": 27.7249268}, {"type": "node", "id": 7731299016, "lat": 64.2267816, "lon": 27.7236599}, {"type": "node", "id": 7731299021, "lat": 64.2269017, "lon": 27.7290521}, {"type": "node", "id": 7731299022, "lat": 64.2267703, "lon": 27.7287259}, {"type": "node", "id": 7731299034, "lat": 64.2207659, "lon": 27.7393092}, {"type": "node", "id": 7731784749, "lat": 64.2157071, "lon": 27.7116137}, {"type": "node", "id": 7732372305, "lat": 64.2250825, "lon": 27.7254643}, {"type": "node", "id": 7732372306, "lat": 64.2254574, "lon": 27.7263997}, {"type": "node", "id": 7732372307, "lat": 64.2251129, "lon": 27.7271299}, {"type": "node", "id": 7732372308, "lat": 64.224738, "lon": 27.7261943}, {"type": "node", "id": 7732372309, "lat": 64.2253673, "lon": 27.7277731}, {"type": "node", "id": 7732372310, "lat": 64.225662, "lon": 27.7271502}, {"type": "node", "id": 7732372311, "lat": 64.2258475, "lon": 27.7276142}, {"type": "node", "id": 7732372312, "lat": 64.2255528, "lon": 27.7282373}, {"type": "node", "id": 7732372330, "lat": 64.2256374, "lon": 27.7214428}, {"type": "node", "id": 7732372333, "lat": 64.2255701, "lon": 27.7216775}, {"type": "node", "id": 7732372334, "lat": 64.2252227, "lon": 27.72262}, {"type": "node", "id": 7732380658, "lat": 64.2248661, "lon": 27.735311}, {"type": "node", "id": 7732380659, "lat": 64.2248682, "lon": 27.735137}, {"type": "node", "id": 7733816491, "lat": 64.2330966, "lon": 27.7294315}, {"type": "node", "id": 7737452583, "lat": 64.2314948, "lon": 27.7307252, "tags": {"addr:city": "Kajaani", "addr:housenumber": "8", "addr:postcode": "87200", "addr:street": "Karoliinantie", "amenity": "restaurant", "capacity": "100", "contact:instagram": "https://www.instagram.com/karolineburg/", "name": "Tilausravintola Karolineburgin kartano", "phone": "+358 (0)10 230 5900", "website": "https://www.karolineburg.fi/"}}, {"type": "node", "id": 7797952909, "lat": 64.2199272, "lon": 27.7400971}, {"type": "node", "id": 7797952910, "lat": 64.2199789, "lon": 27.7400844}, {"type": "node", "id": 7797952911, "lat": 64.2199382, "lon": 27.73915}, {"type": "node", "id": 7797952912, "lat": 64.219893, "lon": 27.7392792}, {"type": "node", "id": 7812322929, "lat": 64.2329567, "lon": 27.7418806, "tags": {"amenity": "parking"}}, {"type": "node", "id": 8008898206, "lat": 64.2265516, "lon": 27.7413265}, {"type": "node", "id": 8008898207, "lat": 64.2267393, "lon": 27.7418267}, {"type": "node", "id": 8008898208, "lat": 64.2265621, "lon": 27.7422059}, {"type": "node", "id": 8008898209, "lat": 64.2263709, "lon": 27.7417339}, {"type": "node", "id": 8008898221, "lat": 64.2268764, "lon": 27.7422333}, {"type": "node", "id": 8008898222, "lat": 64.22696, "lon": 27.742472}, {"type": "node", "id": 8008898223, "lat": 64.2268067, "lon": 27.7428247}, {"type": "node", "id": 8008898224, "lat": 64.2266982, "lon": 27.7425753}, {"type": "node", "id": 8008898225, "lat": 64.2269879, "lon": 27.7425183}, {"type": "node", "id": 8008898226, "lat": 64.2270204, "lon": 27.7425646}, {"type": "node", "id": 8008898227, "lat": 64.2268485, "lon": 27.7429422}, {"type": "node", "id": 8008898228, "lat": 64.2268191, "lon": 27.742871}, {"type": "node", "id": 8008898229, "lat": 64.2270747, "lon": 27.7425468}, {"type": "node", "id": 8008898230, "lat": 64.2270406, "lon": 27.7425717}, {"type": "node", "id": 8008898231, "lat": 64.2271645, "lon": 27.742928}, {"type": "node", "id": 8008898232, "lat": 64.2271939, "lon": 27.7428282}, {"type": "node", "id": 8008898233, "lat": 64.2270127, "lon": 27.742757}, {"type": "node", "id": 8008898234, "lat": 64.2270406, "lon": 27.7428247}, {"type": "node", "id": 8008898235, "lat": 64.2269321, "lon": 27.7430847}, {"type": "node", "id": 8008898236, "lat": 64.2268919, "lon": 27.7430277}, {"type": "node", "id": 8008898237, "lat": 64.2270855, "lon": 27.7429066}, {"type": "node", "id": 8008898238, "lat": 64.227101, "lon": 27.7429458}, {"type": "node", "id": 8008898239, "lat": 64.2269693, "lon": 27.7432344}, {"type": "node", "id": 8008898240, "lat": 64.2269461, "lon": 27.7431702}, {"type": "node", "id": 8008898245, "lat": 64.227271, "lon": 27.7430518}, {"type": "node", "id": 8008898246, "lat": 64.2270644, "lon": 27.7435086}, {"type": "node", "id": 8008898247, "lat": 64.2272769, "lon": 27.7440293}, {"type": "node", "id": 8008898248, "lat": 64.2274874, "lon": 27.7435269}, {"type": "node", "id": 8456694028, "lat": 64.2162492, "lon": 27.7207027}, {"type": "node", "id": 8456694029, "lat": 64.217316, "lon": 27.7220825}, {"type": "node", "id": 8456694034, "lat": 64.2172618, "lon": 27.72049}, {"type": "node", "id": 8456694036, "lat": 64.2168186, "lon": 27.7222054}, {"type": "node", "id": 8456694037, "lat": 64.216758, "lon": 27.7211012}, {"type": "node", "id": 8456694038, "lat": 64.2162866, "lon": 27.721128}, {"type": "node", "id": 8456694039, "lat": 64.216247, "lon": 27.7212943}, {"type": "node", "id": 8456694040, "lat": 64.2161443, "lon": 27.7213157}, {"type": "node", "id": 8456694041, "lat": 64.2161233, "lon": 27.7208187}, {"type": "node", "id": 8525792530, "lat": 64.2231267, "lon": 27.7048494, "tags": {"addr:housenumber": "1", "addr:street": "Makkolankatu", "amenity": "fast_food", "cuisine": "burger;barbecue;kebab", "drive_through": "yes", "name": "Herkku Tornado", "takeaway": "yes"}}, {"type": "node", "id": 8586834360, "lat": 64.2210287, "lon": 27.7376277, "tags": {"addr:city": "Kajaani", "addr:housenumber": "2", "addr:postcode": "87100", "addr:street": "Asemakatu", "amenity": "social_facility", "description": "El\u00e4m\u00e4ss\u00e4 eteenp\u00e4in - ohjausta alle 30 -vuotiaille. \n\nMove forward in life - If you are under 30 years old, come and get advice and support for life.", "email": "ohjaamo.nuppa@kajaani.fi", "name": "Ohjaamo Nuppa Kajaani", "opening_hours": "Mo-Fr 9:00-16:00", "phone": "044 421 4373", "social_facility": "advice", "social_facility:for": "youth", "website": "https://ohjaamot.fi/web/ohjaamo-nuppa-kajaani"}}, {"type": "node", "id": 8712624783, "lat": 64.215999, "lon": 27.7136448}, {"type": "node", "id": 8712624786, "lat": 64.2161116, "lon": 27.7107829}, {"type": "node", "id": 8712624787, "lat": 64.2160021, "lon": 27.7105757}, {"type": "node", "id": 8712624788, "lat": 64.2161497, "lon": 27.7101633}, {"type": "node", "id": 8712624789, "lat": 64.2162613, "lon": 27.7104152}, {"type": "node", "id": 8712624791, "lat": 64.2162172, "lon": 27.7149487}, {"type": "node", "id": 8712624796, "lat": 64.2159705, "lon": 27.713885}, {"type": "node", "id": 8712624798, "lat": 64.2159849, "lon": 27.7143288}, {"type": "node", "id": 8712624803, "lat": 64.2155112, "lon": 27.7071539}, {"type": "node", "id": 8712624804, "lat": 64.2154903, "lon": 27.7071066}, {"type": "node", "id": 8712624805, "lat": 64.2154355, "lon": 27.7072344}, {"type": "node", "id": 8712624806, "lat": 64.2154564, "lon": 27.7072817}, {"type": "node", "id": 8712624807, "lat": 64.2155323, "lon": 27.7079819}, {"type": "node", "id": 8712624808, "lat": 64.2155159, "lon": 27.7079493}, {"type": "node", "id": 8712624809, "lat": 64.2154709, "lon": 27.7080686}, {"type": "node", "id": 8712624810, "lat": 64.2154872, "lon": 27.7081012}, {"type": "node", "id": 8712624811, "lat": 64.2152198, "lon": 27.7076966}, {"type": "node", "id": 8712624812, "lat": 64.215191, "lon": 27.7076131}, {"type": "node", "id": 8712624813, "lat": 64.2151722, "lon": 27.7076474}, {"type": "node", "id": 8712624814, "lat": 64.2152011, "lon": 27.7077308}, {"type": "node", "id": 8712665560, "lat": 64.2173611, "lon": 27.7298515}, {"type": "node", "id": 8712665561, "lat": 64.2174035, "lon": 27.7298236}, {"type": "node", "id": 8712677828, "lat": 64.2162945, "lon": 27.708079}, {"type": "node", "id": 8712677829, "lat": 64.2158071, "lon": 27.7087771}, {"type": "node", "id": 8712677830, "lat": 64.2157339, "lon": 27.7089339}, {"type": "node", "id": 8712691222, "lat": 64.2163934, "lon": 27.70611}, {"type": "node", "id": 8712691223, "lat": 64.2164977, "lon": 27.7061112}, {"type": "node", "id": 8712691226, "lat": 64.2153809, "lon": 27.7094747}, {"type": "node", "id": 8712691227, "lat": 64.2149384, "lon": 27.7104912}, {"type": "node", "id": 8712691228, "lat": 64.214772, "lon": 27.7108207}, {"type": "node", "id": 8712691229, "lat": 64.2146236, "lon": 27.7117153}, {"type": "node", "id": 8712691230, "lat": 64.215202, "lon": 27.7127337}, {"type": "node", "id": 8712691808, "lat": 64.2156683, "lon": 27.7114116}, {"type": "node", "id": 8712738596, "lat": 64.2156013, "lon": 27.7075867}, {"type": "node", "id": 8712738597, "lat": 64.2156524, "lon": 27.7074747}, {"type": "node", "id": 8712738602, "lat": 64.2156192, "lon": 27.7076298}, {"type": "node", "id": 8712738603, "lat": 64.2156702, "lon": 27.7075177}, {"type": "node", "id": 8712738604, "lat": 64.2153263, "lon": 27.7082867}, {"type": "node", "id": 8712738612, "lat": 64.2168344, "lon": 27.7041221}, {"type": "node", "id": 8712746235, "lat": 64.2111722, "lon": 27.7172808}, {"type": "node", "id": 8712746237, "lat": 64.2112035, "lon": 27.717255}, {"type": "node", "id": 8714714520, "lat": 64.2159746, "lon": 27.7126314}, {"type": "node", "id": 8714714521, "lat": 64.2157311, "lon": 27.7129296}, {"type": "node", "id": 8714714526, "lat": 64.2158442, "lon": 27.7121806}, {"type": "node", "id": 8720874342, "lat": 64.2160118, "lon": 27.7135714}, {"type": "node", "id": 8757703385, "lat": 64.2165191, "lon": 27.7168116}, {"type": "node", "id": 8757703386, "lat": 64.2162034, "lon": 27.7168425}, {"type": "node", "id": 8757703388, "lat": 64.2166463, "lon": 27.7165598}, {"type": "node", "id": 8757703389, "lat": 64.2160142, "lon": 27.714267}, {"type": "node", "id": 8757703390, "lat": 64.2162838, "lon": 27.7131923}, {"type": "node", "id": 8757703391, "lat": 64.2162807, "lon": 27.7131103}, {"type": "node", "id": 8757703392, "lat": 64.2165828, "lon": 27.7156384}, {"type": "node", "id": 8757703393, "lat": 64.2165595, "lon": 27.7156464}, {"type": "node", "id": 8757703405, "lat": 64.2167931, "lon": 27.7175197}, {"type": "node", "id": 8757703407, "lat": 64.2168681, "lon": 27.7178323}, {"type": "node", "id": 8757703408, "lat": 64.2167658, "lon": 27.7178619}, {"type": "node", "id": 8757703411, "lat": 64.2161253, "lon": 27.7208787}, {"type": "node", "id": 8757703412, "lat": 64.2161194, "lon": 27.7213741}, {"type": "node", "id": 8757703413, "lat": 64.2167566, "lon": 27.722368}, {"type": "node", "id": 8757717321, "lat": 64.2161283, "lon": 27.720948}, {"type": "node", "id": 8757717346, "lat": 64.2172947, "lon": 27.7289375}, {"type": "node", "id": 8757717355, "lat": 64.2171195, "lon": 27.7301207}, {"type": "node", "id": 8757717356, "lat": 64.217095, "lon": 27.7087526}, {"type": "node", "id": 8757717357, "lat": 64.2173482, "lon": 27.7140855}, {"type": "node", "id": 8757717364, "lat": 64.2154865, "lon": 27.7093134}, {"type": "node", "id": 8827013137, "lat": 64.2266874, "lon": 27.7291355, "tags": {"addr:housenumber": "30", "addr:postcode": "87100", "addr:street": "Kauppakatu", "amenity": "restaurant", "cuisine": "italian", "name": "Rosso", "opening_hours": "Mo-Th 10:30-21:00; Fr 10:30-22:00; Sa 11:00-22:00; Su 12:00-21:00", "website": "https://www.raflaamo.fi/fi/ravintola/kajaani/rosso-kajaani"}}, {"type": "node", "id": 8827013138, "lat": 64.2265906, "lon": 27.7293903, "tags": {"addr:housenumber": "30", "addr:postcode": "87100", "addr:street": "Kauppakatu", "amenity": "bar", "name": "Tuttu Bar", "opening_hours": "Mo-Tu 14:00-22:00; We-Th 14:00-23:00; Fr 14:00-02:00; Sa 12:00-02:00"}}, {"type": "node", "id": 8827013139, "lat": 64.2265805, "lon": 27.7287339, "tags": {"amenity": "clinic", "healthcare": "clinic", "name": "Mehil\u00e4inen"}}, {"type": "node", "id": 9476768777, "lat": 64.2207399, "lon": 27.739165}, {"type": "node", "id": 9476768778, "lat": 64.2207448, "lon": 27.7393129}, {"type": "node", "id": 9723529461, "lat": 64.2172116, "lon": 27.7204466}, {"type": "node", "id": 9723529462, "lat": 64.2162496, "lon": 27.720658}, {"type": "node", "id": 9723529463, "lat": 64.2162142, "lon": 27.7196417}, {"type": "node", "id": 9723529464, "lat": 64.2171834, "lon": 27.7194766}, {"type": "node", "id": 9749469114, "lat": 64.2224879, "lon": 27.7057969, "tags": {"amenity": "restaurant", "name": "Purolan grilli"}}, {"type": "node", "id": 9749581993, "lat": 64.2208869, "lon": 27.7491641, "tags": {"amenity": "recycling", "recycling_type": "container"}}, {"type": "node", "id": 9777986662, "lat": 64.2284119, "lon": 27.7422604, "tags": {"addr:city": "Kajaani", "addr:housenumber": "1", "addr:postcode": "87200", "addr:street": "Eliaksentie", "amenity": "dentist", "healthcare": "dentist", "name": "Teppanan hammashoitola", "opening_hours": "Mo-Fr 08:00-18:00"}}, {"type": "node", "id": 9826334983, "lat": 64.2168921, "lon": 27.7152355}, {"type": "node", "id": 9826334984, "lat": 64.2166576, "lon": 27.7152947}, {"type": "node", "id": 9826334985, "lat": 64.2159079, "lon": 27.7168508}, {"type": "node", "id": 9826334986, "lat": 64.2170587, "lon": 27.7080656}, {"type": "node", "id": 9826334987, "lat": 64.2157011, "lon": 27.7088506}, {"type": "node", "id": 9826334988, "lat": 64.2166402, "lon": 27.7061415}, {"type": "node", "id": 9826334989, "lat": 64.216839, "lon": 27.706111}, {"type": "node", "id": 9826334990, "lat": 64.2168788, "lon": 27.7059038}, {"type": "node", "id": 9826334994, "lat": 64.2160003, "lon": 27.713925}, {"type": "node", "id": 9826334996, "lat": 64.2158294, "lon": 27.7137739}, {"type": "node", "id": 9826334997, "lat": 64.2161954, "lon": 27.7130768}, {"type": "node", "id": 9826334999, "lat": 64.2158329, "lon": 27.7127292}, {"type": "node", "id": 9826335002, "lat": 64.2160987, "lon": 27.7134278}, {"type": "node", "id": 9826335004, "lat": 64.2161334, "lon": 27.713348}, {"type": "node", "id": 9826335006, "lat": 64.2160451, "lon": 27.713354}, {"type": "node", "id": 9826335007, "lat": 64.2161405, "lon": 27.7132351}, {"type": "node", "id": 9826335008, "lat": 64.2161114, "lon": 27.7132159}, {"type": "node", "id": 9826370750, "lat": 64.2203722, "lon": 27.7223915}, {"type": "node", "id": 9826370751, "lat": 64.2203577, "lon": 27.722288}, {"type": "node", "id": 9826370752, "lat": 64.2200817, "lon": 27.7218501}, {"type": "node", "id": 9826370753, "lat": 64.2198286, "lon": 27.7225925}, {"type": "node", "id": 9826370754, "lat": 64.2196509, "lon": 27.7235978}, {"type": "node", "id": 9826371927, "lat": 64.2172024, "lon": 27.7132556}, {"type": "node", "id": 9826371935, "lat": 64.217154, "lon": 27.7147859}, {"type": "node", "id": 9826371936, "lat": 64.2172611, "lon": 27.7134305}, {"type": "node", "id": 9826371937, "lat": 64.2172027, "lon": 27.7134428}, {"type": "node", "id": 9826371938, "lat": 64.2172359, "lon": 27.7142778}, {"type": "node", "id": 9826371939, "lat": 64.2172134, "lon": 27.7143733}, {"type": "node", "id": 9826371940, "lat": 64.2168654, "lon": 27.7144341}, {"type": "node", "id": 9826371941, "lat": 64.2168768, "lon": 27.7147784}, {"type": "node", "id": 9826371942, "lat": 64.2172946, "lon": 27.7142708}, {"type": "node", "id": 9826372011, "lat": 64.2168646, "lon": 27.7081117}, {"type": "node", "id": 9826372022, "lat": 64.2166706, "lon": 27.7098449, "tags": {"addr:city": "Kajaani", "addr:housenumber": "1", "addr:postcode": "87100", "addr:street": "Ketunpolku", "amenity": "restaurant", "name": "Opiskelijaravintola Fox", "name:en": "Student restaurant Fox", "opening_hours": "Mo-Fr 07:30-14:30"}}, {"type": "node", "id": 9826372023, "lat": 64.2163649, "lon": 27.713993, "tags": {"addr:city": "Kajaani", "addr:housenumber": "5", "addr:postcode": "87100", "addr:street": "Kuntokatu", "amenity": "cafe", "name": "Net Caf\u00e9", "opening_hours": "Mo-Th 07:45-15:00; Fr 7:45-14:00"}}, {"type": "node", "id": 9826372025, "lat": 64.2158767, "lon": 27.7160485}, {"type": "node", "id": 9826372027, "lat": 64.2161434, "lon": 27.716002}, {"type": "node", "id": 9826372028, "lat": 64.2161312, "lon": 27.7155416}, {"type": "node", "id": 9826372029, "lat": 64.2158076, "lon": 27.7139129}, {"type": "node", "id": 9826372030, "lat": 64.2160982, "lon": 27.7144565}, {"type": "node", "id": 9826372031, "lat": 64.2161656, "lon": 27.7154613}, {"type": "node", "id": 9826372032, "lat": 64.2161738, "lon": 27.7146834}, {"type": "node", "id": 9826372033, "lat": 64.2162083, "lon": 27.7152491}, {"type": "node", "id": 9826372034, "lat": 64.2161881, "lon": 27.7153691}, {"type": "node", "id": 9826372035, "lat": 64.2162173, "lon": 27.7151153}, {"type": "node", "id": 9826372036, "lat": 64.216199, "lon": 27.7148134}, {"type": "node", "id": 9826372037, "lat": 64.2161436, "lon": 27.7145673}, {"type": "node", "id": 9826372062, "lat": 64.215243, "lon": 27.7111284, "tags": {"addr:city": "Kajaani", "addr:housenumber": "4", "addr:postcode": "87100", "addr:street": "Kuntokatu", "amenity": "cafe", "name": "Care Caf\u00e9", "opening_hours": "Mo-Th 08:45-14:30; Fr 8:45-14:00"}}, {"type": "node", "id": 9826372063, "lat": 64.2158749, "lon": 27.7120356}, {"type": "node", "id": 9826372065, "lat": 64.2158379, "lon": 27.7121183}, {"type": "node", "id": 9826372073, "lat": 64.2167937, "lon": 27.7129473, "tags": {"addr:city": "Kajaani", "addr:housenumber": "1", "addr:postcode": "87100", "addr:street": "Ketunpolku", "amenity": "cafe", "name": "Kaff\u00e9 Tauko", "opening_hours": "Mo-Fr 08:30-14:30", "operator": "Opiskelijakunta Kamo", "phone": "+358451403450", "website": "https://www.opiskelijakuntakamo.fi/opiskelijakunta/palvelupisteet/"}}, {"type": "node", "id": 9826470481, "lat": 64.220635, "lon": 27.7245319, "tags": {"addr:city": "Kajaani", "addr:housenumber": "2a", "addr:postcode": "87100", "addr:street": "L\u00f6nnrotinkatu", "amenity": "courthouse", "email": "kainuu.ko@oikeus.fi", "name": "Kainuun k\u00e4r\u00e4j\u00e4oikeus", "operator": "Tuomioistuinlaitos", "phone": "0295649479"}}, {"type": "node", "id": 9900240763, "lat": 64.2129339, "lon": 27.7277038}, {"type": "node", "id": 9903050746, "lat": 64.2246213, "lon": 27.7043906}, {"type": "node", "id": 9903050747, "lat": 64.2245909, "lon": 27.7042342}, {"type": "node", "id": 9903050748, "lat": 64.2248508, "lon": 27.7039563}, {"type": "node", "id": 9903050749, "lat": 64.2248803, "lon": 27.7041174}, {"type": "node", "id": 10123607523, "lat": 64.2205907, "lon": 27.7388389, "tags": {"addr:housenumber": "9", "addr:postcode": "87100", "addr:street": "Vienankatu", "amenity": "cafe", "check_date:opening_hours": "2024-01-02", "name": "Kahvilla Onnikka", "opening_hours": "Mo-Fr 08:00-18:00; Sa 10:00-18:00; Su 12:00-18:00", "website": "https://www.kahvilaonnikka.fi/"}}, {"type": "node", "id": 10123679422, "lat": 64.2203995, "lon": 27.7388313, "tags": {"amenity": "bicycle_parking", "bicycle_parking": "stands", "capacity": "40", "covered": "no"}}, {"type": "node", "id": 10152364554, "lat": 64.2209276, "lon": 27.7461453, "tags": {"amenity": "charging_station"}}, {"type": "node", "id": 10779469472, "lat": 64.2198416, "lon": 27.7380151, "tags": {"amenity": "waste_basket"}}, {"type": "node", "id": 11276737264, "lat": 64.2329292, "lon": 27.7303985}, {"type": "node", "id": 11408574214, "lat": 64.2240177, "lon": 27.7190342, "tags": {"entrance": "yes"}}, {"type": "node", "id": 11445800044, "lat": 64.2268702, "lon": 27.7267345, "tags": {"access": "yes", "amenity": "charging_station", "brand": "Ionity", "brand:wikidata": "Q42717773", "capacity": "6", "fee": "yes", "name": "Ionity Kajaani", "network": "Ionity", "opening_hours": "24/7", "operator": "Ionity", "socket:type2_combo": "6", "socket:type2_combo:output": "350 kW"}}, {"type": "node", "id": 11695236102, "lat": 64.2215481, "lon": 27.7340393}, {"type": "node", "id": 11695236103, "lat": 64.2215674, "lon": 27.7345012}, {"type": "node", "id": 11695236104, "lat": 64.2213711, "lon": 27.7345454}, {"type": "node", "id": 11695236105, "lat": 64.2213511, "lon": 27.7340818}, {"type": "node", "id": 11695236107, "lat": 64.2214846, "lon": 27.7345199}, {"type": "node", "id": 11918266348, "lat": 64.2210177, "lon": 27.7420232, "tags": {"addr:housenumber": "7", "addr:street": "Niskantie", "amenity": "car_wash", "automated": "yes", "name": "Neste Easy Wash Kajaani Koskiportti", "opening_hours": "24/7", "operator": "Neste"}}, {"type": "node", "id": 12039660421, "lat": 64.2217015, "lon": 27.7337252}, {"type": "node", "id": 12039660422, "lat": 64.2219657, "lon": 27.733656}, {"type": "node", "id": 12039660423, "lat": 64.2225537, "lon": 27.732466}, {"type": "node", "id": 12039660424, "lat": 64.2219028, "lon": 27.7308549}, {"type": "node", "id": 12039660425, "lat": 64.2216044, "lon": 27.7314728}, {"type": "node", "id": 12039741902, "lat": 64.2143631, "lon": 27.7279474, "tags": {"addr:city": "Kajaani", "addr:housenumber": "13", "addr:postcode": "87300", "addr:street": "Sotkamontie", "amenity": "school", "name": "Palokankaan koulu"}}, {"type": "node", "id": 12039741903, "lat": 64.2293709, "lon": 27.7240503}, {"type": "node", "id": 12039741904, "lat": 64.2301017, "lon": 27.7257352}, {"type": "node", "id": 12039741905, "lat": 64.2302746, "lon": 27.7243045}, {"type": "node", "id": 12039741906, "lat": 64.2295991, "lon": 27.7233862}, {"type": "node", "id": 12039741909, "lat": 64.2281832, "lon": 27.7414597}, {"type": "node", "id": 12039741910, "lat": 64.2293254, "lon": 27.7421178}, {"type": "node", "id": 12039741911, "lat": 64.2295548, "lon": 27.740225}, {"type": "node", "id": 12039741912, "lat": 64.2292687, "lon": 27.7400128}, {"type": "node", "id": 12039741913, "lat": 64.2291693, "lon": 27.7393492}, {"type": "node", "id": 12039741914, "lat": 64.228169, "lon": 27.7398714}, {"type": "node", "id": 12039741938, "lat": 64.2199742, "lon": 27.7232408, "tags": {"addr:city": "Kajaani", "addr:housenumber": "2", "addr:postcode": "87100", "addr:street": "Vuorikatu", "amenity": "school", "name": "Kainuun ammattiopisto, Vuorikadun kampus"}}, {"type": "node", "id": 12108654016, "lat": 64.2130142, "lon": 27.7235234, "tags": {"amenity": "shelter", "name": "Terveysmets\u00e4n Laavu", "shelter_type": "lean_to"}}, {"type": "node", "id": 12109051178, "lat": 64.2125169, "lon": 27.726507}, {"type": "node", "id": 12109051179, "lat": 64.2124027, "lon": 27.7275358}, {"type": "node", "id": 12109051180, "lat": 64.2123174, "lon": 27.72884}, {"type": "node", "id": 12109051182, "lat": 64.2121293, "lon": 27.7287824}, {"type": "node", "id": 12109051183, "lat": 64.2129813, "lon": 27.7286222}, {"type": "node", "id": 12109051184, "lat": 64.2129585, "lon": 27.7280339}, {"type": "node", "id": 12109057208, "lat": 64.2133999, "lon": 27.7313659}, {"type": "node", "id": 12109057210, "lat": 64.2125483, "lon": 27.7262852}, {"type": "node", "id": 12128671924, "lat": 64.2331152, "lon": 27.7301709}, {"type": "node", "id": 12128671925, "lat": 64.2331519, "lon": 27.730616}, {"type": "node", "id": 12128671926, "lat": 64.2331675, "lon": 27.7297742}, {"type": "node", "id": 12128671928, "lat": 64.2329695, "lon": 27.7296777}, {"type": "node", "id": 12128671929, "lat": 64.2329738, "lon": 27.73095}, {"type": "node", "id": 12143035143, "lat": 64.2180876, "lon": 27.7361334, "tags": {"amenity": "fast_food", "brand": "Kotipizza", "brand:wikidata": "Q1628625", "cuisine": "pizza", "name": "Kotipizza", "takeaway": "yes"}}, {"type": "node", "id": 12143035162, "lat": 64.2156206, "lon": 27.7324956}, {"type": "node", "id": 12143035177, "lat": 64.2133238, "lon": 27.7345114, "tags": {"entrance": "main", "wheelchair": "no"}}, {"type": "node", "id": 12143035182, "lat": 64.2133945, "lon": 27.7350569}, {"type": "node", "id": 12143035194, "lat": 64.2133064, "lon": 27.73511}, {"type": "node", "id": 12143035195, "lat": 64.2134524, "lon": 27.7350261}, {"type": "node", "id": 12143035196, "lat": 64.2134872, "lon": 27.7353438}, {"type": "node", "id": 12143035197, "lat": 64.213274, "lon": 27.7350432}, {"type": "node", "id": 12143035198, "lat": 64.2134845, "lon": 27.7349557}, {"type": "node", "id": 12143035199, "lat": 64.2137038, "lon": 27.7349557}, {"type": "node", "id": 12143035200, "lat": 64.2137486, "lon": 27.7359231}, {"type": "node", "id": 12143035201, "lat": 64.2134173, "lon": 27.736165}, {"type": "node", "id": 12147045760, "lat": 64.2213268, "lon": 27.737621}, {"type": "node", "id": 12147045761, "lat": 64.2213398, "lon": 27.7376595}, {"type": "node", "id": 12150853384, "lat": 64.2226271, "lon": 27.7371745}, {"type": "node", "id": 12150853385, "lat": 64.2227975, "lon": 27.7375771}, {"type": "node", "id": 12150909801, "lat": 64.2229638, "lon": 27.7361889}, {"type": "node", "id": 12150909802, "lat": 64.2229884, "lon": 27.7361385}, {"type": "node", "id": 12150909808, "lat": 64.2223268, "lon": 27.7364111}, {"type": "node", "id": 12150909809, "lat": 64.2222915, "lon": 27.736331}, {"type": "node", "id": 12150909814, "lat": 64.2227427, "lon": 27.7374477, "tags": {"amenity": "parking_entrance"}}, {"type": "node", "id": 12150909818, "lat": 64.2226885, "lon": 27.7373196, "tags": {"amenity": "parking_entrance", "level": "-1"}}, {"type": "node", "id": 12150909820, "lat": 64.2232166, "lon": 27.7364807, "tags": {"amenity": "parking_entrance", "level": "-1"}}, {"type": "node", "id": 12150909822, "lat": 64.2228499, "lon": 27.7383767}, {"type": "node", "id": 12150909874, "lat": 64.222606, "lon": 27.7356589}, {"type": "node", "id": 12160295703, "lat": 64.2157716, "lon": 27.733102}, {"type": "node", "id": 12160295707, "lat": 64.2155359, "lon": 27.7332146}, {"type": "node", "id": 12160295716, "lat": 64.2155324, "lon": 27.7329384}, {"type": "node", "id": 12160295717, "lat": 64.2156152, "lon": 27.7329035}, {"type": "node", "id": 12217051098, "lat": 64.2125027, "lon": 27.7162595}, {"type": "node", "id": 12217051099, "lat": 64.2124949, "lon": 27.7166755}, {"type": "node", "id": 12217051100, "lat": 64.2124973, "lon": 27.7165552}, {"type": "node", "id": 12217248101, "lat": 64.2124434, "lon": 27.7165538}, {"type": "node", "id": 12217248102, "lat": 64.212442, "lon": 27.7166705}, {"type": "node", "id": 12217248103, "lat": 64.2124996, "lon": 27.7163628}, {"type": "node", "id": 12217248104, "lat": 64.2124685, "lon": 27.7163647}, {"type": "node", "id": 12217248105, "lat": 64.2124694, "lon": 27.7162618}, {"type": "node", "id": 12217248106, "lat": 64.2117288, "lon": 27.7166515}, {"type": "node", "id": 12217248107, "lat": 64.211669, "lon": 27.7160913}, {"type": "node", "id": 12217248109, "lat": 64.2127042, "lon": 27.7164424}, {"type": "node", "id": 12217248115, "lat": 64.2119954, "lon": 27.7162562}, {"type": "node", "id": 12217248116, "lat": 64.2121146, "lon": 27.7162325}, {"type": "node", "id": 12217248122, "lat": 64.2114664, "lon": 27.7173274}, {"type": "node", "id": 12230578838, "lat": 64.2144996, "lon": 27.7296882}, {"type": "node", "id": 12230578839, "lat": 64.2149504, "lon": 27.7292556}, {"type": "node", "id": 12230578840, "lat": 64.2149903, "lon": 27.7299537}, {"type": "node", "id": 12230578841, "lat": 64.2145209, "lon": 27.7300388}, {"type": "node", "id": 12230578842, "lat": 64.2144866, "lon": 27.7293322}, {"type": "node", "id": 12230578847, "lat": 64.2138309, "lon": 27.7310103}, {"type": "node", "id": 12230578869, "lat": 64.2138643, "lon": 27.731606}, {"type": "node", "id": 12230652504, "lat": 64.2138949, "lon": 27.724828}, {"type": "node", "id": 12230652505, "lat": 64.2134297, "lon": 27.7246896}, {"type": "node", "id": 12230652506, "lat": 64.2138809, "lon": 27.7246186}, {"type": "node", "id": 12230652507, "lat": 64.213908, "lon": 27.7250249}, {"type": "node", "id": 12230652508, "lat": 64.2134451, "lon": 27.7250919}, {"type": "node", "id": 12230652512, "lat": 64.2129308, "lon": 27.7264575}, {"type": "node", "id": 12230652513, "lat": 64.2129266, "lon": 27.7268701}, {"type": "node", "id": 12230652514, "lat": 64.2126155, "lon": 27.7269086}, {"type": "node", "id": 12230652515, "lat": 64.2126131, "lon": 27.726485}, {"type": "node", "id": 12230652516, "lat": 64.2125007, "lon": 27.7271507}, {"type": "node", "id": 12230652517, "lat": 64.2124619, "lon": 27.7275545}, {"type": "node", "id": 12230652518, "lat": 64.2128783, "lon": 27.7276862}, {"type": "node", "id": 12230652519, "lat": 64.2129027, "lon": 27.7272717}, {"type": "node", "id": 12230652546, "lat": 64.2128905, "lon": 27.7274787}, {"type": "node", "id": 12230652550, "lat": 64.2129296, "lon": 27.7266612}, {"type": "node", "id": 12230652551, "lat": 64.212481, "lon": 27.727355}, {"type": "node", "id": 12230652552, "lat": 64.2126143, "lon": 27.7266968}, {"type": "node", "id": 12247313931, "lat": 64.215802, "lon": 27.7150356}, {"type": "node", "id": 12247313932, "lat": 64.2157957, "lon": 27.7142218}, {"type": "node", "id": 12247313935, "lat": 64.2148605, "lon": 27.7161618}, {"type": "node", "id": 12247313936, "lat": 64.2156066, "lon": 27.7162246}, {"type": "node", "id": 12247313937, "lat": 64.2156161, "lon": 27.7150322}, {"type": "node", "id": 12247313938, "lat": 64.2153058, "lon": 27.7149764}, {"type": "node", "id": 12247313939, "lat": 64.2152902, "lon": 27.715614}, {"type": "node", "id": 12247313940, "lat": 64.2149698, "lon": 27.7155691}, {"type": "node", "id": 12247313941, "lat": 64.2149816, "lon": 27.7149225}, {"type": "node", "id": 12247313942, "lat": 64.2148956, "lon": 27.7149135}, {"type": "node", "id": 12247313977, "lat": 64.2113449, "lon": 27.7183673}, {"type": "node", "id": 12247313979, "lat": 64.2114087, "lon": 27.7178771}, {"type": "node", "id": 12247313985, "lat": 64.2112598, "lon": 27.7188051}, {"type": "node", "id": 12247313994, "lat": 64.2110654, "lon": 27.7186781}, {"type": "node", "id": 12247313995, "lat": 64.2109607, "lon": 27.7185766}, {"type": "node", "id": 12309526535, "lat": 64.2246162, "lon": 27.7359124}, {"type": "node", "id": 12309526539, "lat": 64.2243185, "lon": 27.7364399}, {"type": "node", "id": 12309526542, "lat": 64.2243031, "lon": 27.7351455}, {"type": "node", "id": 12309526557, "lat": 64.2266824, "lon": 27.7336648, "tags": {"source": "survey"}}, {"type": "node", "id": 12309526560, "lat": 64.2268517, "lon": 27.7334886}, {"type": "node", "id": 12309526561, "lat": 64.227148, "lon": 27.7327047}, {"type": "node", "id": 12309526562, "lat": 64.2263651, "lon": 27.7343132}, {"type": "node", "id": 12309526563, "lat": 64.2264023, "lon": 27.7344025}, {"type": "node", "id": 12309526564, "lat": 64.2260885, "lon": 27.7350683}, {"type": "node", "id": 12309526565, "lat": 64.2260465, "lon": 27.7349678}, {"type": "node", "id": 12309528702, "lat": 64.218074, "lon": 27.7336525}, {"type": "node", "id": 12349938693, "lat": 64.2179398, "lon": 27.752651}, {"type": "node", "id": 12349938694, "lat": 64.2180647, "lon": 27.7524792}, {"type": "node", "id": 12386830829, "lat": 64.2262153, "lon": 27.7427348, "tags": {"addr:city": "Kajaani", "addr:housenumber": "2-4", "addr:postcode": "87200", "addr:street": "Koskikatu", "amenity": "conference_centre", "name": "Kongressi- ja kulttuurikeskus Kaukamets\u00e4"}}, {"type": "node", "id": 12487108154, "lat": 64.2280406, "lon": 27.7262128}, {"type": "node", "id": 12487108155, "lat": 64.2280993, "lon": 27.7262045}, {"type": "node", "id": 12487108156, "lat": 64.2276952, "lon": 27.7253341}, {"type": "node", "id": 12487108157, "lat": 64.2277519, "lon": 27.7253252}, {"type": "node", "id": 12487231348, "lat": 64.22489, "lon": 27.7217827}, {"type": "node", "id": 12487231349, "lat": 64.2250864, "lon": 27.7234098}, {"type": "node", "id": 12487231350, "lat": 64.2247485, "lon": 27.7225112}, {"type": "node", "id": 12487231351, "lat": 64.2244465, "lon": 27.721637}, {"type": "node", "id": 12487231352, "lat": 64.2249893, "lon": 27.721705}, {"type": "node", "id": 12487231353, "lat": 64.2251424, "lon": 27.7222004}, {"type": "node", "id": 12487231354, "lat": 64.2251461, "lon": 27.7211172}, {"type": "node", "id": 12487231355, "lat": 64.2252446, "lon": 27.7220182}, {"type": "node", "id": 12487231356, "lat": 64.2250434, "lon": 27.7213334}, {"type": "node", "id": 12487231357, "lat": 64.224445, "lon": 27.7213516}, {"type": "node", "id": 12487231362, "lat": 64.2247167, "lon": 27.7224191}, {"type": "way", "id": 14350560, "nodes": [268394760, 268394759, 139284849, 139284855, 139284861, 1360269444, 268394760], "tags": {"amenity": "parking", "lit": "yes", "parking": "surface", "parking:condition": "disc", "parking:condition:maxstay": "2 h", "source": "survey", "surface": "paved"}}, {"type": "way", "id": 14374095, "nodes": [140085881, 262301952, 140085887, 140085891, 253897563, 140085893, 140085881], "tags": {"amenity": "parking", "maxstay:times": "Mo-Fr 08-17"}}, {"type": "way", "id": 22990636, "nodes": [444734182, 12309526560, 288593469, 455229496, 12309526557, 12309526561, 444734938, 444734182], "tags": {"amenity": "parking", "orientation": "perpendicular", "parking": "street_side"}}, {"type": "way", "id": 23351125, "nodes": [252849325, 12150909874, 5491862856, 2394193592, 2394193593, 12150909801, 12150909802, 5491862853, 5491862852, 252849339, 12150853385, 12150909814, 12150909818, 12150853384, 252849340, 252849341, 12150909808, 12150909809, 252849325], "tags": {"amenity": "parking", "parking": "multi-storey", "surface": "asphalt"}}, {"type": "way", "id": 23351126, "nodes": [252849342, 6629635491, 6629635490, 252849345, 252849344, 12309526539, 559731277, 252849343, 6629635492, 6637674763, 252849342], "tags": {"amenity": "parking"}}, {"type": "way", "id": 23351127, "nodes": [252849346, 2410939723, 1403290914, 252849347, 252849388, 252849389, 252849346], "tags": {"amenity": "parking"}}, {"type": "way", "id": 23351128, "nodes": [252849390, 703600775, 2507107931, 252849391, 703600754, 703600746, 703600757, 252849394, 252849390], "tags": {"amenity": "parking", "fee:times": "Mo-Fr 08-18, Sa 08-15", "lit": "yes", "snowplowing": "yes", "surface": "paved"}}, {"type": "way", "id": 23351129, "nodes": [252849395, 2507167455, 2507167456, 252849396, 252849397, 252849399, 252849395], "tags": {"amenity": "parking"}}, {"type": "way", "id": 23351132, "nodes": [2393684286, 2393684287, 2393684284, 1360257262, 1360257266, 1360257263, 1360257269, 703600748, 703600759, 703600770, 703600743, 2393684286], "tags": {"amenity": "parking", "charge": "0.20 \u20ac / 20 min", "lit": "yes", "parking": "surface", "parking:condition": "ticket", "parking:condition:default": "free", "parking:condition:time_interval": "Mo-Fr 08:00-18:00; Sa 08:00-16:00", "snowplowing": "yes", "surface": "paved"}}, {"type": "way", "id": 23351163, "nodes": [252849604, 252849605, 252849606, 252849607, 252849604], "tags": {"amenity": "parking", "created_by": "JOSM"}}, {"type": "way", "id": 23444354, "nodes": [253897657, 7733816491, 253897658, 12128671926, 12128671924, 12128671925, 253897659, 253897660, 12128671929, 11276737264, 12128671928, 253897657], "tags": {"amenity": "parking"}}, {"type": "way", "id": 23458466, "nodes": [254053187, 2416380584, 2416380578, 2416388626, 2416380626, 2416380628, 2416380632, 254053188, 254053189, 2416380625, 2416380590, 254053190, 2416376059, 254053191, 254053192, 254053187], "tags": {"amenity": "parking", "fee": "no", "parking": "surface", "surface": "paved"}}, {"type": "way", "id": 23458478, "nodes": [254053472, 9476768777, 9476768778, 7731299034, 6187989296, 4339696862, 6187989298, 254053472], "tags": {"access": "yes", "amenity": "parking", "fee": "no", "park_ride": "train", "parking": "surface"}}, {"type": "way", "id": 24691695, "nodes": [268394230, 268394231, 268394235, 268394232, 268394233, 268394230], "tags": {"amenity": "parking"}}, {"type": "way", "id": 24691701, "nodes": [268394257, 268394258, 9826371927, 268394260, 268394257], "tags": {"amenity": "parking"}}, {"type": "way", "id": 26318102, "nodes": [12487108156, 12487108157, 12487108155, 12487108154, 12487108156], "tags": {"amenity": "parking", "fee": "no", "snowplowing": "yes", "surface": "paved"}}, {"type": "way", "id": 37756199, "nodes": [442878210, 442878211, 2506879783, 442878213, 442878212, 2506879770, 442878210], "tags": {"amenity": "parking"}}, {"type": "way", "id": 37896116, "nodes": [444724790, 444724789, 444724792, 444724791, 7692768589, 444724823, 444724790], "tags": {"access": "private", "amenity": "parking", "lit": "yes", "surface": "paved"}}, {"type": "way", "id": 37896121, "nodes": [444724805, 444724806, 444724807, 444724796, 444724805], "tags": {"access": "private", "amenity": "parking", "foot": "yes"}}, {"type": "way", "id": 37896421, "nodes": [444728717, 6629635505, 6629635506, 444728719, 6629635504, 6629635503, 444728720, 444728718, 444728721, 444728717], "tags": {"access": "private", "amenity": "parking", "snowplowing": "yes"}}, {"type": "way", "id": 37896647, "nodes": [444734198, 444734193, 444734195, 444734200, 444734202, 444734203, 444734199, 444734198], "tags": {"access": "private", "amenity": "parking", "surface": "paved"}}, {"type": "way", "id": 37898472, "nodes": [444734173, 444734174, 444768793, 444768795, 444724811, 444768797, 444734173], "tags": {"access": "private", "amenity": "parking", "foot": "yes"}}, {"type": "way", "id": 37898880, "nodes": [444779537, 444779543, 444779545, 444779546, 444779539, 444779540, 444779548, 2410415948, 444779538, 444779537], "tags": {"access": "destination", "addr:city": "Kajaani", "addr:country": "FI", "amenity": "parking", "lit": "yes", "maxstay": "1 hour", "operator": "Sokos", "surface": "paved"}}, {"type": "way", "id": 37901310, "nodes": [444825341, 444820569, 444820564, 444820562, 444820560, 444820563, 444831579, 444831577, 444825341], "tags": {"access": "private", "amenity": "parking", "lit": "yes", "surface": "paved"}}, {"type": "way", "id": 37973211, "nodes": [446014170, 446014167, 446014174, 446014176, 446014172, 446014154, 446014170], "tags": {"access": "private", "amenity": "parking"}}, {"type": "way", "id": 41674482, "nodes": [512453710, 512453731, 512453714, 512453717, 512453712, 512453710], "tags": {"amenity": "parking", "maxstay": "60 minutes", "maxstay:times": "Mo-Fr 08-17"}}, {"type": "way", "id": 41674487, "nodes": [512453735, 512453736, 512453740, 512453737, 6052443187, 6052443191, 512453738, 512453734, 512453735], "tags": {"amenity": "parking", "lit": "yes", "parking": "surface", "parking:condition": "ticket", "parking:condition:default": "free", "parking:condition:time_interval": "Mo-Fr 08:00-18:00; Sa 08:00-16:00", "surface": "paved"}}, {"type": "way", "id": 41674755, "nodes": [512459269, 512459273, 2415370084, 512459276, 512459271, 2415370083, 512459277, 512459269], "tags": {"access": "private", "amenity": "parking"}}, {"type": "way", "id": 121260113, "nodes": [248138066, 1357974624, 1357974599, 1357974619, 248138066], "tags": {"addr:city": "Kajaani", "addr:country": "FI", "amenity": "fuel", "automated": "yes", "brand": "ABC", "brand:wikidata": "Q10397504", "brand:wikipedia": "fi:ABC-ketju", "building": "roof", "covered": "yes", "fuel:diesel": "yes", "fuel:e10": "yes", "fuel:octane_98": "yes", "fuel_service": "none", "name": "ABC", "payment:account_cards": "no", "payment:coins": "no", "payment:debit_cards": "yes", "payment:electronic_purses": "no", "payment:maestro": "yes", "payment:mastercard": "yes", "payment:notes": "yes", "payment:telephone_cards": "no", "payment:visa": "yes"}}, {"type": "way", "id": 121260118, "nodes": [1357974620, 1357974600, 1357974604, 1357974598, 1357974626, 1357974594, 1357974605, 6052685323, 6052685324, 1357974609, 1357974602, 6052685322, 6052685321, 1357974620], "tags": {"amenity": "parking", "fee": "no", "operator": "Prisma", "parking": "surface", "parking:condition": "free", "surface": "paved"}}, {"type": "way", "id": 121527939, "nodes": [1360257262, 1360257268, 1360257263, 1360257266, 1360257262], "tags": {"amenity": "parking", "capacity": "1", "capacity:disabled": "1", "lit": "yes", "parking": "surface", "parking:condition": "wheelchair", "snowplowing": "yes", "surface": "paved"}}, {"type": "way", "id": 121527941, "nodes": [1360257268, 252849409, 1360257269, 1360257263, 1360257268], "tags": {"amenity": "parking", "lit": "yes", "parking": "surface", "parking:condition:vehicles": "motorcycle", "snowplowing": "yes", "surface": "paved"}}, {"type": "way", "id": 121529263, "nodes": [268394760, 139284866, 139284873, 268394759, 268394760], "tags": {"amenity": "parking", "lit": "yes", "parking": "surface", "parking:condition": "private", "source": "survey", "surface": "paved"}}, {"type": "way", "id": 121529266, "nodes": [1360269434, 1360269443, 1360269448, 1360269447, 1360269435, 6696704087, 6696704088, 6696704089, 1360269440, 148883354, 1360269434], "tags": {"addr:city": "Kajaani", "addr:housenumber": "15", "addr:postcode": "87100", "addr:street": "Seminaarinkatu", "amenity": "library", "building": "yes", "email": "kaupunginkirjasto@kajaani.fi", "entrance": "yes", "fax": "08 6155 2515", "internet_access": "yes", "internet_access:fee": "no", "name": "Kajaanin p\u00e4\u00e4kirjasto", "operator": "Kainet - kirjastot", "phone": "08 6155 2423"}}, {"type": "way", "id": 126612974, "nodes": [1403173164, 1403173165, 1403173166, 1403173167, 1403173168, 1403173169, 1403173164], "tags": {"amenity": "parking", "fee": "no", "surface": "paved"}}, {"type": "way", "id": 165054528, "nodes": [1766411730, 248138063, 1766411743, 1766411736, 1766411752, 1766411730], "tags": {"addr:city": "Kajaani", "addr:housenumber": "19", "addr:postcode": "87100", "addr:street": "Kirkkokatu", "amenity": "place_of_worship", "building": "church", "check_date": "2024-11-30", "denomination": "evangelical_lutheran", "name": "Kajaanin kirkko", "religion": "christian", "wikidata": "Q10542506", "wikipedia": "fi:Kajaanin kirkko"}}, {"type": "way", "id": 230944040, "nodes": [252849404, 2393684286, 2393684287, 2393684284, 252849404], "tags": {"amenity": "parking", "lit": "yes", "parking": "surface", "parking:condition:vehicles": "motorcycle", "snowplowing": "yes", "surface": "paved"}}, {"type": "way", "id": 232772370, "nodes": [830475566, 2410939720, 7694184103, 2410939719, 2410939713, 7727201935, 830475566], "tags": {"amenity": "clinic", "brand": "Terveystalo", "brand:wikidata": "Q11897034", "brand:wikipedia": "fi:Terveystalo", "building": "yes", "building:levels": "4", "healthcare": "clinic", "name": "Terveystalo", "operator": "Terveystalo", "operator:type": "private", "operator:wikidata": "Q11897034"}}, {"type": "way", "id": 233179772, "nodes": [2415320750, 2415320752, 2415320758, 2415320754, 2415320750], "tags": {"amenity": "bicycle_parking", "bicycle_parking": "informal"}}, {"type": "way", "id": 233269473, "nodes": [2416322166, 2416322162, 2416322163, 2416322168, 2416322166], "tags": {"amenity": "parking", "lit": "yes", "parking": "surface", "parking:condition": "disc", "parking:condition:maxstay": "2 h", "source": "survey", "surface": "paved"}}, {"type": "way", "id": 233270672, "nodes": [2416358404, 2416358400, 2416358405, 2416358407, 2416358404], "tags": {"amenity": "bicycle_parking", "bicycle_parking": "wall_loops", "capacity": "15", "covered": "no"}}, {"type": "way", "id": 233500125, "nodes": [2418782824, 2418782825, 2418782822, 2418782820, 2418782824], "tags": {"amenity": "fuel", "brand": "ABC", "brand:wikidata": "Q10397504", "brand:wikipedia": "fi:ABC-ketju", "name": "ABC pesula", "opening_hours": "24/7"}}, {"type": "way", "id": 242971868, "nodes": [2504098265, 2504098262, 12309528702, 2504098264, 2504098263, 2504098266, 2504098265], "tags": {"amenity": "parking", "parking": "surface"}}, {"type": "way", "id": 242971871, "nodes": [2504098241, 6488692042, 6488692043, 6488692044, 446058709, 2504098244, 8757717355, 2504098257, 8712665560, 8712665561, 2504098252, 8757717346, 2504098246, 2504098245, 2504098241], "tags": {"access": "customers", "amenity": "parking", "fee": "no", "parking": "surface", "surface": "asphalt"}}, {"type": "way", "id": 243278936, "nodes": [2507050953, 7727201963, 2507050986, 2507050995, 2507051017, 2507051011, 2507051000, 2507050979, 2507050953], "tags": {"amenity": "restaurant", "building": "yes"}}, {"type": "way", "id": 243279112, "nodes": [2507051066, 2507053503, 2507053512, 2507053506, 2507051066], "tags": {"amenity": "restaurant", "building": "yes"}}, {"type": "way", "id": 243279118, "nodes": [2507053486, 2507053491, 2507053496, 2507053502, 2507053494, 2507053486], "tags": {"access": "destination", "amenity": "parking", "parking:condition:area": "customers"}}, {"type": "way", "id": 243279401, "nodes": [2507060457, 2507060449, 2507060444, 2507060450, 2507060453, 2507060457], "tags": {"access": "private", "amenity": "parking"}}, {"type": "way", "id": 264290902, "nodes": [2699810709, 6050689964, 2699810777, 6628706366, 8712738604, 6488696589, 2699810834, 2699810709], "tags": {"amenity": "parking", "parking": "surface"}}, {"type": "way", "id": 264290904, "nodes": [2699810735, 2699810729, 2699810713, 2699810790, 2699810735], "tags": {"access": "permissive", "amenity": "parking", "parking": "surface", "supervised": "yes"}}, {"type": "way", "id": 264290907, "nodes": [2699810825, 8757703390, 8757703391, 2699810688, 6628706379, 6628706378, 6628706377, 6628706376, 6628706375, 6628706374, 8757703392, 8757703393, 2699810762, 2699810755, 2699810749, 2699810826, 2699810798, 2699810769, 2699810808, 8757703389, 9826334994, 6628706380, 6628706381, 6628706382, 2699810825], "tags": {"addr:city": "Kajaani", "addr:housenumber": "5", "addr:postcode": "87100", "addr:street": "Kuntokatu", "amenity": "university", "building": "school", "description": "\u2022 Opetustiloja, auditorio, Netticaf\u00e9\n\u2022 Tradenomikoulutus, insin\u00f6\u00f6rikoulutus\n\u2022 Vahtimestaripalvelut\n\u2022 VR-labra", "internet_access": "yes", "name": "Taito 1", "website": "https://www.kamk.fi/fi"}}, {"type": "way", "id": 264290911, "nodes": [2699810836, 9826372063, 9826372065, 2699810705, 8714714526, 9826334997, 2699810829, 2699810836], "tags": {"amenity": "parking", "parking": "surface"}}, {"type": "way", "id": 264290912, "nodes": [2699810832, 2699810843, 2699810701, 2699810816, 2699810694, 2699810828, 2699810766, 2699810781, 2699810812, 2699810707, 2699810821, 2699810702, 2699810820, 2699810747, 2699810832], "tags": {"addr:city": "Kajaani", "addr:housenumber": "4", "addr:postcode": "87100", "addr:street": "Ketunpolku", "amenity": "university", "building": "school", "int_name": "Kajaani University of Applied Sciences", "name": "Taito 2", "website": "https://www.kamk.fi/fi"}}, {"type": "way", "id": 264290913, "nodes": [2699810814, 2699810841, 2699810838, 2699810692, 6642795162, 6642795163, 2699810774, 2699810779, 6642795164, 6642795165, 2699810788, 2699810786, 2699810814], "tags": {"addr:city": "Kajaani", "addr:housenumber": "1", "addr:postcode": "87100", "addr:street": "Opintie", "amenity": "fire_station", "building": "yes", "name": "Kainuun Pelastuslaitos"}}, {"type": "way", "id": 264316129, "nodes": [2700135937, 2700135938, 2700135940, 2700135941, 2700135937], "tags": {"access": "permissive", "amenity": "parking"}}, {"type": "way", "id": 264316130, "nodes": [2700135942, 2700135943, 2700135945, 2700135946, 2700135947, 2700135942], "tags": {"amenity": "parking"}}, {"type": "way", "id": 264316131, "nodes": [2700135949, 2700135950, 2700135951, 2700135952, 2700135949], "tags": {"amenity": "parking"}}, {"type": "way", "id": 264316132, "nodes": [2699810695, 2700135956, 2700135957, 2700135958, 2700135960, 2700135961, 2699810695], "tags": {"amenity": "parking"}}, {"type": "way", "id": 264316133, "nodes": [2700135962, 2700135963, 2700135965, 2700135966, 2700135967, 2699810844, 2700135962], "tags": {"amenity": "parking"}}, {"type": "way", "id": 264416741, "nodes": [2701001945, 2701001940, 2701001994, 6472180283, 2701002030, 2701001945], "tags": {"addr:city": "Kajaani", "addr:housenumber": "14", "addr:postcode": "87100", "addr:street": "Sissikatu", "amenity": "fast_food", "brand": "Hesburger", "brand:wikidata": "Q1276832", "brand:wikipedia": "en:Hesburger", "building": "yes", "cuisine": "burger", "email": "sissikatu@hesburger.fi", "name": "Hesburger", "opening_hours": "Mo-Th 10:00-23:00, Fr,Sa 10:00-24:00, Su 11:00-23:00", "operator": "Caribia Burger Oy", "phone": "+358444809282", "takeaway": "yes", "website": "https://www.hesburger.fi/ravintolat/?tid=544"}}, {"type": "way", "id": 336866152, "nodes": [3439497201, 3439497202, 3439497203, 3439497204, 3439497205, 3439497206, 3439497207, 3439497208, 3439497209, 3439497210, 3439497211, 3439497212, 3439497213, 3439497214, 3439497215, 3439497216, 3439497217, 3439497218, 3439497219, 3439497220, 3439497221, 3439497222, 3439497201], "tags": {"amenity": "theatre", "building": "yes", "name": "Amfiteatteri"}}, {"type": "way", "id": 357208511, "nodes": [3625346570, 3625346585, 3625346592, 3625346693, 3625346711, 12349938694, 12349938693, 3625346697, 3625346590, 3625346702, 3625346570], "tags": {"amenity": "parking"}}, {"type": "way", "id": 398676286, "nodes": [12109051182, 4014279047, 4014279059, 7702410635, 12109051180, 12109051182], "tags": {"access": "private", "amenity": "parking", "building": "parking", "layer": "1", "parking": "multi-storey", "surface": "asphalt"}}, {"type": "way", "id": 398676287, "nodes": [4014279074, 12109057208, 4014279067, 6417878743, 12230578869, 4014279087, 4014282114, 4014282120, 4014282103, 12230578847, 4014279074], "tags": {"amenity": "parking"}}, {"type": "way", "id": 398676288, "nodes": [4014279055, 12109057210, 12109051178, 4014279049, 4014279057, 4014279069, 4014279064, 4014279062, 4014279075, 4014282095, 4014282145, 4014282169, 4014282173, 4014282172, 4014282175, 4014282176, 4014282171, 4014282170, 4014282166, 4014282164, 4014282147, 4014282119, 2699779874, 6488694066, 4014279068, 4014279066, 4014279055], "tags": {"addr:city": "Kajaani", "addr:housenumber": "13", "addr:postcode": "87300", "addr:street": "Sotkamontie", "amenity": "hospital", "emergency": "yes", "healthcare": "hospital", "name": "Kainuun Keskussairaala", "name:en": "Central Hospital of Kainuu", "website": "https://sote.kainuu.fi/palvelut/keskussairaala", "wikidata": "Q18659707", "wikipedia": "fi:Kainuun keskussairaala"}}, {"type": "way", "id": 436092512, "nodes": [6187989309, 6641973680, 4339697302, 6187989306, 6187989309], "tags": {"access": "yes", "amenity": "parking", "fee": "no", "park_ride": "train", "parking": "surface"}}, {"type": "way", "id": 452267102, "nodes": [4490729784, 8757703405, 4490729785, 6052637857, 6052637858, 4490729786, 8757703412, 4490729787, 8757703413, 4490729788, 4490729789, 4490729784], "tags": {"addr:city": "Kajaani", "addr:housenumber": "3", "addr:postcode": "87100", "addr:street": "Opintie", "amenity": "school", "name": "Kainuun ammattiopisto, Vimpelin kampus"}}, {"type": "way", "id": 452288182, "nodes": [4491055754, 4491055755, 4491055756, 4491055757, 4491055754], "tags": {"amenity": "parking"}}, {"type": "way", "id": 532271490, "nodes": [5165436958, 5165436955, 5165436956, 5165436957, 5165436958], "tags": {"amenity": "place_of_worship", "building": "yes", "name": "Kansanl\u00e4hetyskoti", "religion": "christian"}}, {"type": "way", "id": 532271634, "nodes": [5165437702, 5165437701, 5165437700, 5165437699, 5165437698, 5165437697, 5165437696, 5165437695, 5165437702], "tags": {"amenity": "parking", "parking": "surface"}}, {"type": "way", "id": 532271635, "nodes": [5165437708, 5165437707, 5165437706, 5165437705, 5165437704, 5165437703, 5165437708], "tags": {"amenity": "parking", "parking": "surface"}}, {"type": "way", "id": 532271647, "nodes": [5165438055, 5165438054, 5165438053, 5165438052, 5165438051, 5165438050, 5165438055], "tags": {"addr:city": "Kajaani", "addr:housenumber": "9", "addr:postcode": "87100", "addr:street": "Kalliokatu", "amenity": "place_of_worship", "building": "yes", "denomination": "free_evangelical", "name": "Kajaanin vapaaseurakunta", "religion": "christian", "website": "https://kajaani.svk.fi"}}, {"type": "way", "id": 544610883, "nodes": [5264336733, 5264336734, 4491055777, 4491055762, 4491055763, 6641973493, 6641973494, 4491055764, 4491055765, 5264336733], "tags": {"amenity": "hospital", "healthcare": "hospital", "name": "Kajaanin p\u00e4\u00e4terveysasema"}}, {"type": "way", "id": 571430612, "nodes": [5491862879, 5491862880, 5491862881, 5491862882, 7727131553, 5491862883, 5491862884, 5491862885, 5491862886, 5491862887, 5491862888, 5491862889, 5491862890, 5491862891, 5491862892, 5491862893, 5491862894, 5491862895, 5491862896, 5491862897, 5491862898, 5491862899, 5491862900, 5491862901, 5491862902, 5491862903, 5491862904, 5491862905, 5491862906, 5491862907, 5491862908, 7727131555, 7727131554, 5491862879], "tags": {"amenity": "townhall", "building": "yes", "townhall:type": "city"}}, {"type": "way", "id": 571430613, "nodes": [5491862910, 5491862911, 5491862912, 5491862913, 5491862910], "tags": {"amenity": "parking", "park_ride": "no", "parking": "surface", "supervised": "no", "surface": "asphalt"}}, {"type": "way", "id": 571430614, "nodes": [5491862914, 5491862915, 7732380659, 7732380658, 12309526535, 6629635491, 252849342, 12309526542, 5491862914], "tags": {"addr:city": "Kajaani", "amenity": "marketplace", "name": "Kauppatori", "surface": "paved"}}, {"type": "way", "id": 580159368, "nodes": [5554563222, 7694184091, 7694184092, 7694184093, 7694184094, 2507071152, 7727131586, 7694184100, 7694184099, 7694184098, 7694184097, 7694184096, 7694184095, 7694184086, 7694184089, 7694184090, 5554563225, 5554563222], "tags": {"amenity": "cinema", "building": "yes"}}, {"type": "way", "id": 642818497, "nodes": [6050680175, 8712691808, 6050680176, 7731784749, 6050680178, 6050680175], "tags": {"amenity": "parking"}}, {"type": "way", "id": 642818499, "nodes": [6050680180, 6050680181, 6050680182, 8757703407, 6050680183, 6050680180], "tags": {"amenity": "parking"}}, {"type": "way", "id": 642818501, "nodes": [6050680184, 6050684185, 6050684186, 6050684189, 8757703408, 6050680184], "tags": {"amenity": "parking"}}, {"type": "way", "id": 643050663, "nodes": [6052373296, 6052373297, 6052373298, 6052373299, 6052373296], "tags": {"amenity": "parking"}}, {"type": "way", "id": 643050664, "nodes": [6052373300, 6052373301, 6052373302, 6052373303, 6052373300], "tags": {"amenity": "parking"}}, {"type": "way", "id": 643050665, "nodes": [6052373304, 6052373305, 6052373306, 6052373307, 6052373304], "tags": {"amenity": "parking"}}, {"type": "way", "id": 643050666, "nodes": [6052373308, 6052373309, 6052373310, 6052373311, 6052373308], "tags": {"amenity": "parking"}}, {"type": "way", "id": 643050668, "nodes": [6052373316, 6052373317, 6052373318, 6052373319, 6052373316], "tags": {"amenity": "parking"}}, {"type": "way", "id": 643051580, "nodes": [6052381553, 6052381554, 6052381555, 6052381556, 6052381553], "tags": {"amenity": "parking"}}, {"type": "way", "id": 643059670, "nodes": [6052441987, 6052441988, 7727131562, 6052441989, 6052441990, 6052441987], "tags": {"amenity": "parking"}}, {"type": "way", "id": 643063667, "nodes": [6052471872, 6052471873, 6052471874, 6052471875, 6052471876, 6052471877, 6052471872], "tags": {"access": "yes", "amenity": "parking", "fee": "yes"}}, {"type": "way", "id": 643064508, "nodes": [6052490754, 6052490755, 6052490756, 6052490757, 12150909822, 6052490754], "tags": {"amenity": "parking"}}, {"type": "way", "id": 643078092, "nodes": [6052588255, 6052588256, 6052588257, 6052588258, 6052588259, 6052588260, 6052588255], "tags": {"addr:city": "Kajaani", "addr:housenumber": "40", "addr:postcode": "87100", "addr:street": "Kauppakatu", "amenity": "restaurant", "building": "yes", "name": "Ravintola Wanha Kerho", "opening_hours": "Mo-Fr 10:00-15:00; Sa 11:00-15:00", "website": "https://www.wanhakerho.fi/"}}, {"type": "way", "id": 643081159, "nodes": [2507050953, 6052605238, 6052605239, 6052605240, 2507050979, 2507050953], "tags": {"access": "customers", "amenity": "parking", "parking": "surface"}}, {"type": "way", "id": 643084903, "nodes": [6052637820, 6052637821, 6052637822, 6052637823, 6052637820], "tags": {"amenity": "parking"}}, {"type": "way", "id": 643084904, "nodes": [6052637824, 6052637825, 6052637826, 6052637827, 6052637824], "tags": {"amenity": "parking"}}, {"type": "way", "id": 643084905, "nodes": [6052637828, 12217248102, 12217248101, 12217051100, 12217051099, 6052637829, 12217248109, 6052637830, 12217051098, 12217248103, 12217248104, 12217248105, 12217248116, 6052637831, 12217248115, 12217248107, 12217248106, 6052637828], "tags": {"amenity": "parking"}}, {"type": "way", "id": 643092506, "nodes": [6052684438, 6052684439, 6052684440, 6052684441, 6052684438], "tags": {"amenity": "parking"}}, {"type": "way", "id": 643092509, "nodes": [6052684446, 6052684447, 6052684448, 6052684449, 6052684450, 6052684451, 6052684446], "tags": {"amenity": "parking"}}, {"type": "way", "id": 643092528, "nodes": [6052685293, 6052685294, 6052685295, 7727090868, 6052685296, 6052685297, 6052685298, 7727090870, 6052685299, 6052685300, 6052685301, 6052685302, 6052685303, 6052685304, 6052685305, 6052685293], "tags": {"amenity": "social_facility", "building": "yes"}}, {"type": "way", "id": 643092533, "nodes": [6052685327, 6052685328, 6052685329, 6052685330, 6052685331, 6052685332, 6052685333, 6052685334, 6052685327], "tags": {"amenity": "parking"}}, {"type": "way", "id": 643101568, "nodes": [6052747784, 6052749385, 6052749386, 6641930272, 6641930270, 6641930271, 6052749388, 6052749389, 6052749390, 6052749391, 6052749392, 6052749395, 6052749393, 6052749394, 6052747784], "tags": {"addr:city": "Kajaani", "addr:housenumber": "17", "addr:postcode": "87100", "addr:street": "Kirkkokatu", "addr:unit": "A", "alt_name": "Kajaanin ortodoksinen kirkko", "amenity": "place_of_worship", "architect": "Ilmari Ahonen", "building": "church", "denomination": "orthodox", "name": "Kristuksen kirkastumisen kirkko", "religion": "christian", "start_date": "1959", "website": "https://www.ort.fi/pyhakot/kristuksen-kirkastumisen-kirkko-1", "wikidata": "Q18659746", "wikipedia": "fi:Kajaanin Kristuksen kirkastumisen kirkko"}}, {"type": "way", "id": 643101571, "nodes": [6052749404, 6052749405, 6052749406, 6052749407, 6052749404], "tags": {"amenity": "toilets", "building": "yes", "female": "yes", "operator": "Kajaanin kirkko"}}, {"type": "way", "id": 643101578, "nodes": [6052749439, 6052749440, 6052749441, 6052749442, 6052749439], "tags": {"amenity": "childcare", "building": "yes"}}, {"type": "way", "id": 659296534, "nodes": [6172785296, 6661658504, 6661658505, 6661658503, 6661658502, 6172785295, 6172785294, 6172785293, 6172785292, 6172785291, 6172785296], "tags": {"amenity": "parking", "parking": "surface", "surface": "asphalt"}}, {"type": "way", "id": 660941507, "nodes": [4339697302, 6641973680, 6187989315, 4491055715, 4491055713, 6187989312, 6187989311, 6187989310, 6187989316, 6187989309, 6187989306, 4339697302], "tags": {"amenity": "bus_station", "bus": "yes", "name": "Kajaanin matkakeskus", "public_transport": "station", "wheelchair": "yes"}}, {"type": "way", "id": 670307938, "nodes": [6277294346, 6277294347, 6277294348, 11408574214, 6277294349, 6277294346], "tags": {"addr:city": "Kajaani", "addr:housenumber": "2", "addr:street": "Linnankatu", "amenity": "community_centre", "building": "yes", "name": "Kainuun Kansanpirtti", "website": "https://www.kansanpirtti.fi/"}}, {"type": "way", "id": 689887129, "nodes": [6472180280, 6472180281, 6472180282, 6472180283, 2701002030, 6472180280], "tags": {"amenity": "fuel"}}, {"type": "way", "id": 700864446, "nodes": [6581902683, 6581902684, 6581918685, 6581918686, 6581918687, 6581929345, 6581902683], "tags": {"amenity": "parking", "surface": "asphalt"}}, {"type": "way", "id": 705583071, "nodes": [6629660052, 6629660064, 6629660065, 6629660066, 6629660067, 6629660055, 6629660052], "tags": {"amenity": "parking"}}, {"type": "way", "id": 705583072, "nodes": [6629660068, 6629660069, 6629660070, 6629660071, 6629660056, 6629660063, 6629660062, 6629660072, 6629660073, 6629660074, 6629660075, 6629660076, 6629660077, 6629660078, 6629660079, 6629660080, 6629660081, 6629660083, 6629660082, 6629660068], "tags": {"amenity": "parking"}}, {"type": "way", "id": 705583077, "nodes": [6629660112, 6629660113, 6629660114, 6629660115, 6629660116, 6629660117, 6629660118, 6629660119, 6629660120, 6629660121, 6629660122, 6629660123, 6629660124, 6629660125, 6629660126, 6629660127, 6629660128, 6629660112], "tags": {"amenity": "restaurant", "building": "yes"}}, {"type": "way", "id": 705588104, "nodes": [6629704842, 6629704843, 6629704844, 6629704845, 6629704846, 6629704847, 6629704848, 6629704849, 6629704850, 6629704851, 6629704852, 6629704853, 6629704854, 6629704855, 6629704842], "tags": {"amenity": "kindergarten"}}, {"type": "way", "id": 705744033, "nodes": [6631336953, 6631336954, 6631336955, 6631336956, 6631336957, 6631336958, 6631336953], "tags": {"amenity": "grave_yard", "name": "Sankarihautausmaa", "religion": "christian"}}, {"type": "way", "id": 706067178, "nodes": [6634274835, 6634274872, 6634274855, 6634274852, 6634274873, 6634274856, 6634274857, 6634274860, 6634274853, 6634274854, 6634274837, 6634274838, 6634274835], "tags": {"amenity": "parking"}}, {"type": "way", "id": 706819936, "nodes": [6641930278, 6641930279, 6641930280, 6641930281, 6641930278], "tags": {"amenity": "fountain"}}, {"type": "way", "id": 706819937, "nodes": [6641930282, 6641930283, 6641930284, 6641973485, 6641973486, 6641973487, 6641930282], "tags": {"amenity": "theatre", "building": "yes"}}, {"type": "way", "id": 706819948, "nodes": [6641973541, 6641973542, 6641973543, 6641973544, 6641973541], "tags": {"amenity": "place_of_worship", "building": "yes"}}, {"type": "way", "id": 706819952, "nodes": [6641973589, 7727131534, 6641973590, 6641973591, 6641973592, 6641973593, 6641973594, 6641973595, 6641973596, 6641973597, 6641973598, 6641973599, 6641973600, 6641973601, 7727131535, 6641973602, 6641973603, 6641973604, 6641973605, 12147045761, 12147045760, 6641973606, 6641973589], "tags": {"addr:city": "Kajaani", "addr:housenumber": "2-4", "addr:postcode": "87100", "addr:street": "Asemakatu", "amenity": "social_centre", "building": "yes"}}, {"type": "way", "id": 706819958, "nodes": [6641973641, 6641973642, 6641973643, 6641973644, 6641973645, 6641973646, 6641973647, 6641973648, 6641973649, 6641973650, 6641973651, 6641973652, 6641973653, 6641973654, 6641973641], "tags": {"amenity": "place_of_worship", "building": "yes"}}, {"type": "way", "id": 706890022, "nodes": [9826335002, 6642795333, 6642795334, 9826335004, 9826335002], "tags": {"amenity": "shelter", "building": "yes"}}, {"type": "way", "id": 711100493, "nodes": [6631225815, 6631225860, 6631225859, 6631225858, 6631225857, 6629704749, 6629704748, 6629704747, 6629704746, 6629704745, 6629704744, 6629704743, 6631225816, 6631225815], "tags": {"amenity": "kindergarten"}}, {"type": "way", "id": 711285059, "nodes": [6631225811, 6687633599, 6687633600, 6687633601, 6687633602, 6631225811], "tags": {"amenity": "school"}}, {"type": "way", "id": 713060880, "nodes": [6703255156, 6703255157, 6703255158, 6703255159, 6703255160, 6703255161, 6703255162, 6703255163, 6703255156], "tags": {"amenity": "social_facility", "building": "yes"}}, {"type": "way", "id": 713060883, "nodes": [6703257395, 6703257396, 6703257397, 6703257398, 6703257399, 6703257400, 6703257395], "tags": {"addr:housenumber": "9", "addr:street": "Kasarminkatu", "amenity": "restaurant", "building": "yes", "cuisine": "pizza", "name": "Alania Pizzeria", "opening_hours": "Mo-Sa 10:00-20:30; Su 11:00-20:30"}}, {"type": "way", "id": 825128358, "nodes": [7704541179, 7704541180, 7704541181, 7704541182, 7704541183, 7704541184, 7704568185, 7704568186, 7727090862, 7704541179], "tags": {"addr:city": "Kajaani", "addr:housenumber": "7", "addr:postcode": "87100", "addr:street": "Varastokatu", "amenity": "social_facility", "building": "yes", "description": "Spartak Kajaani ry:n toimintaan kuuluvat varhaiskasvatus, nuorisoty\u00f6, erityisnuorisoty\u00f6, vankilaty\u00f6, p\u00e4ihdety\u00f6 sek\u00e4 monipuolinen b\u00e4ndi/musiikki- ja urheilu- ja harrastetoiminta.", "name": "Spartak ry ja treenitilat", "operator": "Spartak Kajaani ry", "website": "https://www.spartakkajaani.com/"}}, {"type": "way", "id": 825143724, "nodes": [7704754059, 12143035162, 7704754060, 7704754061, 7704754062, 7704754063, 7704754064, 7704754059], "tags": {"addr:city": "Kajaani", "addr:housenumber": "17", "addr:postcode": "87100", "addr:street": "Savonkatu", "amenity": "place_of_worship", "building": "church", "building:levels": "3", "denomination": "pentecostal", "email": "jouni.juntunen@live.fi", "name": "Kajaanin helluntaiseurakunta", "phone": "044 792 9121", "religion": "christian", "service_times": "Su 11:00", "website": "https://kajaaninhelluntaisrk.fi/", "wikidata": "Q124620815", "wikipedia": "fi:Kajaanin helluntaiseurakunta"}}, {"type": "way", "id": 825143728, "nodes": [7704754084, 7704763485, 7704763486, 12143035177, 7704763487, 7704763488, 7704763489, 7704754084], "tags": {"amenity": "restaurant", "building": "yes", "cuisine": "thai", "name": "Jongrak Thai Ravintola"}}, {"type": "way", "id": 825143831, "nodes": [7704763931, 7704763932, 7704763933, 7704763934, 7704763931], "tags": {"amenity": "waste_disposal", "building": "roof"}}, {"type": "way", "id": 827696757, "nodes": [7727090827, 7727090828, 7727090829, 7727090832, 7727090830, 7727090827], "tags": {"amenity": "parking"}}, {"type": "way", "id": 827696763, "nodes": [7727090844, 7727090845, 7727090846, 7727090847, 7727090848, 7727090849, 7727090850, 7727090851, 7727090852, 7727090853, 7727090844], "tags": {"amenity": "parking"}}, {"type": "way", "id": 827696764, "nodes": [7727090854, 7727090855, 7727090856, 7727090857, 7727090858, 7727090859, 7727090860, 7727090861, 7727090854], "tags": {"amenity": "parking"}}, {"type": "way", "id": 827696768, "nodes": [7727090874, 7727090875, 7727090876, 7727090877, 7727090878, 7727090879, 7727090874], "tags": {"amenity": "parking", "parking": "surface"}}, {"type": "way", "id": 827696769, "nodes": [7727090880, 7727131486, 7727090881, 7727090882, 7727090883, 7727090884, 7727090880], "tags": {"amenity": "parking"}}, {"type": "way", "id": 827696819, "nodes": [7727131610, 7727131611, 7727131612, 7727131613, 7727131614, 7727131615, 7727131610], "tags": {"amenity": "parking", "fee": "no", "surface": "paved"}}, {"type": "way", "id": 827706265, "nodes": [7727201931, 7727201932, 7727201933, 7727201934, 7727201931], "tags": {"amenity": "parking"}}, {"type": "way", "id": 827706268, "nodes": [7727201945, 7727201946, 7727201947, 7727201948, 7727201949, 7727201945], "tags": {"amenity": "parking"}}, {"type": "way", "id": 827706276, "nodes": [5554563104, 7727201982, 7727201983, 5554563105, 5554563104], "tags": {"amenity": "parking"}}, {"type": "way", "id": 827706279, "nodes": [7727202190, 6641973669, 7727202191, 7727202192, 7727202190], "tags": {"amenity": "parking"}}, {"type": "way", "id": 828126154, "nodes": [7731069766, 7731069767, 7731069768, 9826370754, 7731069769, 9826370753, 7731069770, 9826370752, 9826370751, 9826370750, 7731069766], "tags": {"addr:city": "Kajaani", "addr:housenumber": "2", "addr:postcode": "87100", "addr:street": "Vuorikatu", "amenity": "school", "capacity": "~600", "contact:facebook": "https://www.facebook.com/KajaaninLukio", "contact:instagram": "https://www.instagram.com/kajaanin_lukio/", "isced:level": "3", "name": "Kajaanin lukio", "operator": "Kajaanin kaupunki", "operator:type": "public", "website": "https://www.kajaaninlukio.fi/", "wikidata": "Q11869076", "wikipedia": "fi:Kajaanin lukio"}}, {"type": "way", "id": 828152681, "nodes": [7731299010, 7731299011, 7731299012, 6661631655, 6661631654, 6661631627, 6661631631, 6661631670, 7702280813, 7732372333, 7732372330, 6661631629, 6661631628, 7731299016, 7731299010], "tags": {"addr:city": "Kajaani", "addr:housenumber": "28", "addr:postcode": "87100", "addr:street": "V\u00e4in\u00e4m\u00f6isenkatu", "amenity": "school", "name": "Keskuskoulu", "operator": "Kajaanin kaupunki", "operator:type": "public", "start_date": "1952-11-30", "website": "https://www.kajaani.fi/fi/keskuskoulu", "wikidata": "Q18659745", "wikipedia": "fi:Kajaanin keskuskoulu"}}, {"type": "way", "id": 828268014, "nodes": [7732372305, 7732372306, 7732372307, 7732372308, 7732372305], "tags": {"addr:city": "Kajaani", "addr:housenumber": "9", "addr:postcode": "87100", "addr:street": "Tapionkatu", "amenity": "school", "name": "V\u00e4in\u00f6l\u00e4n koulu", "operator": "Kajaanin kaupunki", "operator:type": "public", "website": "https://www.kajaani.fi/fi/palveluopas/opetus-ja-koulutus/peruskoulut/keskuskoulu/vainolan-koulu"}}, {"type": "way", "id": 828268015, "nodes": [7732372309, 7732372310, 7732372311, 7732372312, 7732372309], "tags": {"addr:city": "Kajaani", "addr:housenumber": "24", "addr:postcode": "87100", "addr:street": "Pohjolankatu", "amenity": "school", "name": "Kalevan koulu", "operator": "Kajaanin kaupunki", "operator:type": "public", "website": "https://www.kajaani.fi/fi/palveluopas/opetus-ja-koulutus/peruskoulut/keskuskoulu/kalevan-koulu"}}, {"type": "way", "id": 835431429, "nodes": [7797952909, 7797952910, 7797952911, 7797952912, 7797952909], "tags": {"access": "yes", "amenity": "parking", "fee": "no", "parking": "surface"}}, {"type": "way", "id": 859181707, "nodes": [8008898206, 8008898207, 8008898208, 8008898209, 8008898206], "tags": {"access": "customers", "amenity": "parking", "fee": "no", "parking": "surface"}}, {"type": "way", "id": 859181712, "nodes": [8008898221, 8008898222, 8008898223, 8008898224, 8008898221], "tags": {"amenity": "parking", "parking": "surface"}}, {"type": "way", "id": 859181713, "nodes": [8008898225, 8008898226, 8008898227, 8008898228, 8008898225], "tags": {"amenity": "parking", "parking": "surface"}}, {"type": "way", "id": 859181714, "nodes": [8008898229, 8008898230, 8008898231, 8008898232, 8008898229], "tags": {"amenity": "parking"}}, {"type": "way", "id": 859181715, "nodes": [8008898233, 8008898234, 8008898235, 8008898236, 8008898233], "tags": {"amenity": "parking"}}, {"type": "way", "id": 859181716, "nodes": [8008898237, 8008898238, 8008898239, 8008898240, 8008898237], "tags": {"amenity": "parking"}}, {"type": "way", "id": 859181718, "nodes": [8008898245, 8008898246, 8008898247, 8008898248, 8008898245], "tags": {"amenity": "parking"}}, {"type": "way", "id": 910738975, "nodes": [8456694034, 8456694029, 8456694036, 8456694037, 8456694038, 8456694039, 8456694040, 8757717321, 8757703411, 8456694041, 8456694028, 8456694034], "tags": {"amenity": "parking"}}, {"type": "way", "id": 940774381, "nodes": [8712624786, 8712624787, 8712624788, 268394245, 8712624789, 8712624786], "tags": {"amenity": "parking"}}, {"type": "way", "id": 940774383, "nodes": [8712624803, 8712624804, 8712624805, 8712624806, 8712624803], "tags": {"amenity": "bicycle_parking"}}, {"type": "way", "id": 940774384, "nodes": [8712624807, 8712624808, 8712624809, 8712624810, 8712624807], "tags": {"amenity": "bicycle_parking"}}, {"type": "way", "id": 940774385, "nodes": [8712624811, 8712624812, 8712624813, 8712624814, 8712624811], "tags": {"amenity": "bicycle_parking"}}, {"type": "way", "id": 940784978, "nodes": [8712738603, 8712738597, 8712738596, 8712738602, 8712738603], "tags": {"amenity": "bicycle_parking"}}, {"type": "way", "id": 940784983, "nodes": [12247313977, 12247313985, 12247313994, 12247313995, 6488686955, 8712746235, 8712746237, 12217248122, 12247313979, 12247313977], "tags": {"amenity": "parking"}}, {"type": "way", "id": 946007886, "nodes": [8757717356, 8757717357, 6488692060, 9826334983, 9826334984, 8757703388, 8757703385, 8757703386, 9826334985, 12247313931, 12247313932, 6488691907, 9826334996, 2699810745, 8712624783, 8720874342, 6642795332, 9826335006, 6642795335, 9826335008, 9826335007, 2699810699, 8714714520, 9826334999, 8714714521, 6488691904, 6488691903, 6488691902, 6488691901, 6488696367, 8712691230, 6488696366, 6488696365, 6488696364, 6488696363, 6488696361, 6488696360, 6488696359, 6488696358, 8712691229, 6488696595, 6488696594, 8712691228, 8712691227, 6488696593, 8712691226, 8757717364, 9826334987, 8712677830, 8712677829, 6488691999, 8712677828, 6488691998, 6488691997, 6488691996, 6488691995, 6488691994, 6488691993, 9826372011, 9826334986, 8757717356], "tags": {"addr:city": "Kajaani", "addr:housenumber": "1", "addr:postcode": "87100", "addr:street": "Ketunpolku", "alt_name": "Kajaanin AMK;KAMK", "amenity": "college", "isced:level": "5", "name": "Kajaanin ammattikorkeakoulu", "name:en": "Kajaani University of Applied Sciences", "name:fi": "Kajaanin ammattikorkeakoulu", "operator": "Kajaanin ammattikorkeakoulu", "start_date": "1992", "website": "https://www.kamk.fi", "wikidata": "Q6348833", "wikipedia": "fi:Kajaanin ammattikorkeakoulu"}}, {"type": "way", "id": 953685013, "nodes": [7731299021, 7731299022, 7727131577, 7727131578, 1360272473, 1360272489, 7727131576, 7731299021], "tags": {"amenity": "parking", "building": "parking", "fee": "yes", "layer": "-1", "parking": "multi-storey"}}, {"type": "way", "id": 1058191874, "nodes": [9723529461, 9723529462, 9723529463, 9723529464, 9723529461], "tags": {"amenity": "parking"}}, {"type": "way", "id": 1070763092, "nodes": [8712738612, 6488696555, 6488696556, 6488696557, 6488696558, 6488696559, 6488696560, 2700142761, 2700142768, 2700142772, 6488696563, 6488696564, 6488696565, 6488696569, 6488696570, 8712691222, 8712691223, 6488696571, 9826334988, 9826334989, 9826334990, 8712738612], "tags": {"addr:city": "Kajaani", "addr:postcode": "87100", "addr:street": "Ketunpolku", "amenity": "school", "isced:level": "3", "name": "Kainuun ammattiopisto - Ketunpolku 7", "website": "https://www.kao.fi/"}}, {"type": "way", "id": 1070763095, "nodes": [9826371936, 9826371937, 9826371938, 9826371939, 9826371940, 9826371941, 6488692054, 6488692055, 9826371935, 6488692056, 6488692057, 9826371942, 9826371936], "tags": {"amenity": "parking"}}, {"type": "way", "id": 1070763105, "nodes": [9826372025, 9826372027, 9826372028, 9826372031, 9826372034, 9826372033, 9826372035, 8712624791, 9826372036, 9826372032, 9826372037, 9826372030, 2699810776, 8712624798, 8712624796, 9826372029, 9826372025], "tags": {"amenity": "parking", "fee": "no", "surface": "asphalt"}}, {"type": "way", "id": 1080085345, "nodes": [7702410635, 12109051183, 12109051184, 9900240763, 12230652518, 12230652517, 12109051179, 12109051180, 7702410635], "tags": {"amenity": "parking", "fee": "yes"}}, {"type": "way", "id": 1080420764, "nodes": [9903050746, 9903050747, 9903050748, 9903050749, 9903050746], "tags": {"amenity": "parking", "surface": "asphalt"}}, {"type": "way", "id": 1257993498, "nodes": [11695236102, 11695236103, 11695236107, 11695236104, 11695236105, 11695236102], "tags": {"access": "private", "amenity": "parking", "fee": "no", "parking": "surface"}}, {"type": "way", "id": 1299764629, "nodes": [12039660421, 12039660422, 12039660423, 12039660424, 12039660425, 12039660421], "tags": {"addr:city": "Kajaani", "addr:housenumber": "1", "addr:postcode": "87100", "addr:street": "Urho Kekkosen katu", "amenity": "school", "name": "Kajaanin lyseo"}}, {"type": "way", "id": 1299768178, "nodes": [12039741903, 12039741904, 12039741905, 12039741906, 12039741903], "tags": {"addr:city": "Kajaani", "addr:housenumber": "2", "addr:postcode": "87100", "addr:street": "Seminaarinkatu", "amenity": "school", "name": "Seminaarin koulu"}}, {"type": "way", "id": 1299768180, "nodes": [12039741909, 12039741910, 12039741911, 12039741912, 12039741913, 12039741914, 12039741909], "tags": {"addr:city": "Kajaani", "addr:housenumber": "1 B", "addr:postcode": "87200", "addr:street": "Eliaksentie", "amenity": "school", "name": "Teppanan koulu"}}, {"type": "way", "id": 1311878665, "nodes": [12143035194, 12143035182, 12143035195, 12143035196, 7704763648, 12143035194], "tags": {"amenity": "parking"}}, {"type": "way", "id": 1311878666, "nodes": [12143035197, 12143035198, 12143035199, 12143035200, 12143035201, 12143035197], "tags": {"amenity": "kindergarten", "name": "P\u00e4iv\u00e4koti PIkkutassu"}}, {"type": "way", "id": 1313796513, "nodes": [7704754063, 12160295703, 12160295707, 12160295716, 12160295717, 7704754062, 7704754063], "tags": {"amenity": "parking"}}, {"type": "way", "id": 1321719306, "nodes": [12230578839, 12230578840, 12230578841, 12230578838, 12230578842, 12230578839], "tags": {"amenity": "parking", "surface": "asphalt"}}, {"type": "way", "id": 1321719314, "nodes": [12230652505, 12230652506, 12230652504, 12230652507, 12230652508, 12230652505], "tags": {"amenity": "parking"}}, {"type": "way", "id": 1321719315, "nodes": [12230652512, 12230652550, 12230652513, 12230652514, 12230652552, 12230652515, 12230652512], "tags": {"amenity": "parking"}}, {"type": "way", "id": 1321719316, "nodes": [12230652516, 12230652551, 12230652517, 12230652518, 12230652546, 12230652519, 12230652516], "tags": {"amenity": "parking"}}, {"type": "way", "id": 1323522356, "nodes": [12247313935, 12247313936, 12247313937, 12247313938, 12247313939, 12247313940, 12247313941, 12247313942, 12247313935], "tags": {"amenity": "fire_station", "building": "fire_station"}}, {"type": "way", "id": 1330412070, "nodes": [12309526562, 12309526563, 12309526564, 12309526565, 12309526562], "tags": {"amenity": "parking"}}, {"type": "way", "id": 1349863168, "nodes": [12487231348, 7732372334, 6661631657, 12487231349, 12487231350, 12487231362, 12487231351, 12487231357, 12487231356, 12487231354, 12487231355, 12487231353, 12487231352, 12487231348], "tags": {"amenity": "parking"}}]}